{"type":"FeatureCollection","_meta":{"source":"Natural Earth 10m lakes (public domain)","clip":"India bbox"},"features":[{"type":"Feature","properties":{"name":"Nam Co"},"geometry":{"type":"Polygon","coordinates":[[[90.394,30.535],[90.384,30.523],[90.361,30.511],[90.338,30.504],[90.325,30.511],[90.325,30.516],[90.327,30.519],[90.332,30.524],[90.338,30.54],[90.325,30.552],[90.307,30.565],[90.298,30.583],[90.302,30.592],[90.316,30.61],[90.315,30.614],[90.285,30.623],[90.278,30.628],[90.278,30.646],[90.299,30.696],[90.304,30.713],[90.301,30.736],[90.278,30.792],[90.272,30.836],[90.285,30.87],[90.315,30.887],[90.36,30.882],[90.381,30.875],[90.401,30.874],[90.417,30.881],[90.428,30.883],[90.439,30.878],[90.48,30.829],[90.497,30.819],[90.521,30.814],[90.583,30.813],[90.595,30.817],[90.612,30.836],[90.623,30.84],[90.682,30.84],[90.658,30.866],[90.67,30.888],[90.706,30.912],[90.711,30.909],[90.718,30.908],[90.733,30.909],[90.743,30.907],[90.747,30.903],[90.747,30.898],[90.75,30.895],[90.763,30.891],[90.779,30.888],[90.792,30.89],[90.798,30.898],[90.804,30.902],[90.833,30.88],[90.839,30.885],[90.845,30.887],[90.875,30.863],[90.887,30.861],[90.889,30.871],[90.881,30.905],[90.884,30.919],[90.895,30.922],[90.906,30.914],[90.917,30.901],[90.929,30.895],[90.933,30.922],[90.939,30.932],[90.953,30.936],[90.968,30.936],[90.984,30.933],[90.998,30.926],[91.004,30.912],[91.008,30.907],[91.025,30.886],[91.031,30.874],[91.03,30.862],[91.008,30.8],[90.995,30.788],[90.978,30.785],[90.846,30.785],[90.864,30.714],[90.799,30.658],[90.633,30.593],[90.591,30.582],[90.555,30.579],[90.535,30.565],[90.523,30.559],[90.512,30.568],[90.499,30.566],[90.435,30.546],[90.411,30.545],[90.399,30.542],[90.394,30.535]]]}},{"type":"Feature","properties":{"name":"Siling Co"},"geometry":{"type":"Polygon","coordinates":[[[89.338,31.819],[89.343,31.816],[89.345,31.806],[89.331,31.783],[89.297,31.778],[89.27,31.792],[89.277,31.827],[89.248,31.803],[89.242,31.763],[89.243,31.718],[89.235,31.676],[89.225,31.662],[89.188,31.622],[89.177,31.615],[89.158,31.607],[89.146,31.589],[89.137,31.57],[89.126,31.559],[89.108,31.564],[89.088,31.579],[89.071,31.597],[89.064,31.611],[89.051,31.615],[88.975,31.6],[88.961,31.608],[88.941,31.623],[88.925,31.64],[88.924,31.652],[88.945,31.686],[88.96,31.703],[88.98,31.71],[88.938,31.736],[88.916,31.741],[88.894,31.731],[88.879,31.737],[88.86,31.738],[88.841,31.736],[88.825,31.731],[88.812,31.723],[88.787,31.701],[88.78,31.697],[88.763,31.699],[88.734,31.708],[88.719,31.71],[88.684,31.711],[88.668,31.715],[88.654,31.724],[88.654,31.718],[88.648,31.734],[88.647,31.757],[88.648,31.777],[88.65,31.786],[88.618,31.78],[88.612,31.779],[88.602,31.787],[88.603,31.794],[88.606,31.801],[88.602,31.81],[88.584,31.819],[88.569,31.816],[88.559,31.819],[88.557,31.841],[88.562,31.858],[88.571,31.869],[88.586,31.876],[88.605,31.882],[88.639,31.886],[88.687,31.887],[88.731,31.883],[88.749,31.871],[88.745,31.86],[88.739,31.848],[88.737,31.836],[88.749,31.819],[88.767,31.811],[88.787,31.81],[88.807,31.814],[88.825,31.819],[88.805,31.833],[88.798,31.849],[88.805,31.867],[88.825,31.882],[88.832,31.874],[88.838,31.882],[88.846,31.874],[88.865,31.883],[88.928,31.902],[89.01,31.937],[89.03,31.917],[89.066,31.916],[89.137,31.929],[89.155,31.924],[89.179,31.901],[89.191,31.896],[89.206,31.894],[89.242,31.884],[89.27,31.879],[89.286,31.873],[89.3,31.865],[89.311,31.855],[89.326,31.827],[89.333,31.82],[89.338,31.819]]]}},{"type":"Feature","properties":{"name":"Ayakkum Hu"},"geometry":{"type":"Polygon","coordinates":[[[89.674,37.512],[89.67,37.5],[89.647,37.499],[89.619,37.501],[89.599,37.499],[89.609,37.493],[89.613,37.492],[89.613,37.484],[89.594,37.484],[89.587,37.486],[89.579,37.492],[89.55,37.475],[89.497,37.471],[89.44,37.476],[89.4,37.484],[89.282,37.532],[89.235,37.533],[89.189,37.525],[89.165,37.526],[89.124,37.545],[89.098,37.552],[89.077,37.564],[89.071,37.588],[89.084,37.603],[89.108,37.607],[89.157,37.602],[89.167,37.599],[89.182,37.59],[89.195,37.588],[89.25,37.602],[89.29,37.624],[89.312,37.627],[89.342,37.642],[89.544,37.626],[89.571,37.616],[89.578,37.61],[89.602,37.599],[89.626,37.591],[89.643,37.588],[89.654,37.583],[89.657,37.572],[89.655,37.559],[89.65,37.55],[89.639,37.547],[89.619,37.56],[89.609,37.557],[89.611,37.542],[89.633,37.53],[89.66,37.52],[89.674,37.512]]]}},{"type":"Feature","properties":{"name":"Ngoring Hu"},"geometry":{"type":"Polygon","coordinates":[[[97.868,34.872],[97.901,34.832],[97.902,34.822],[97.884,34.821],[97.85,34.828],[97.857,34.808],[97.845,34.807],[97.808,34.822],[97.78,34.83],[97.77,34.835],[97.761,34.849],[97.755,34.817],[97.735,34.808],[97.712,34.818],[97.698,34.842],[97.682,34.82],[97.679,34.815],[97.682,34.809],[97.697,34.8],[97.698,34.795],[97.688,34.786],[97.673,34.782],[97.655,34.781],[97.605,34.785],[97.581,34.796],[97.566,34.815],[97.546,34.87],[97.545,34.889],[97.554,34.906],[97.592,34.946],[97.612,34.958],[97.637,34.964],[97.672,34.965],[97.658,34.969],[97.645,34.968],[97.633,34.971],[97.624,34.986],[97.631,35.0],[97.636,35.007],[97.644,35.014],[97.635,35.026],[97.65,35.042],[97.677,35.058],[97.692,35.068],[97.73,35.086],[97.747,35.089],[97.768,35.088],[97.768,35.081],[97.764,35.069],[97.771,35.051],[97.804,35.021],[97.808,35.01],[97.806,35.0],[97.793,34.987],[97.789,34.979],[97.789,34.97],[97.791,34.961],[97.795,34.951],[97.796,34.926],[97.8,34.915],[97.808,34.904],[97.855,34.887],[97.863,34.88],[97.868,34.872]]]}},{"type":"Feature","properties":{"name":"Gyaring Hu"},"geometry":{"type":"Polygon","coordinates":[[[97.437,34.994],[97.466,34.992],[97.487,34.984],[97.486,34.967],[97.472,34.956],[97.452,34.965],[97.446,34.937],[97.396,34.909],[97.384,34.887],[97.379,34.873],[97.367,34.864],[97.342,34.855],[97.318,34.835],[97.304,34.829],[97.288,34.835],[97.248,34.836],[97.11,34.917],[97.084,34.926],[97.069,34.935],[97.063,34.949],[97.062,34.973],[97.056,34.988],[97.056,34.998],[97.062,35.007],[97.074,35.012],[97.086,35.01],[97.094,35.001],[97.096,34.986],[97.107,34.998],[97.114,35.016],[97.123,35.028],[97.163,35.013],[97.25,35.014],[97.263,35.016],[97.288,35.03],[97.301,35.034],[97.317,35.034],[97.333,35.031],[97.413,35.0],[97.437,34.994]]]}},{"type":"Feature","properties":{"name":"Langa Co"},"geometry":{"type":"Polygon","coordinates":[[[81.313,30.674],[81.322,30.652],[81.328,30.642],[81.316,30.619],[81.299,30.608],[81.277,30.605],[81.252,30.607],[81.247,30.606],[81.241,30.602],[81.236,30.6],[81.228,30.604],[81.226,30.608],[81.22,30.619],[81.218,30.621],[81.206,30.62],[81.195,30.617],[81.183,30.615],[81.17,30.621],[81.144,30.629],[81.133,30.647],[81.125,30.666],[81.109,30.676],[81.13,30.688],[81.135,30.689],[81.145,30.687],[81.149,30.683],[81.152,30.678],[81.16,30.676],[81.172,30.682],[81.18,30.687],[81.184,30.693],[81.181,30.703],[81.178,30.709],[81.177,30.71],[81.179,30.713],[81.188,30.724],[81.19,30.724],[81.204,30.783],[81.203,30.813],[81.19,30.847],[81.202,30.854],[81.213,30.858],[81.224,30.857],[81.247,30.844],[81.273,30.842],[81.283,30.837],[81.296,30.822],[81.301,30.811],[81.3,30.799],[81.292,30.788],[81.283,30.786],[81.272,30.788],[81.26,30.785],[81.243,30.767],[81.241,30.746],[81.249,30.725],[81.263,30.706],[81.273,30.698],[81.297,30.689],[81.307,30.683],[81.313,30.674]]]}},{"type":"Feature","properties":{"name":"Mapam Yumco"},"geometry":{"type":"Polygon","coordinates":[[[81.578,30.749],[81.603,30.723],[81.603,30.69],[81.574,30.656],[81.54,30.634],[81.51,30.607],[81.498,30.601],[81.451,30.566],[81.445,30.565],[81.424,30.566],[81.43,30.566],[81.412,30.58],[81.394,30.585],[81.377,30.592],[81.362,30.614],[81.379,30.641],[81.369,30.724],[81.376,30.764],[81.407,30.789],[81.45,30.788],[81.534,30.764],[81.578,30.749]]]}},{"type":"Feature","properties":{"name":"Ngangla Ringeo"},"geometry":{"type":"Polygon","coordinates":[[[83.348,31.436],[83.316,31.444],[83.286,31.456],[83.26,31.471],[83.256,31.463],[83.253,31.459],[83.249,31.459],[83.24,31.464],[83.23,31.461],[83.21,31.459],[83.19,31.46],[83.178,31.464],[83.144,31.45],[83.134,31.462],[83.097,31.491],[83.089,31.501],[83.081,31.519],[83.062,31.531],[83.043,31.537],[83.034,31.535],[83.028,31.519],[83.013,31.518],[82.995,31.524],[82.98,31.525],[82.971,31.519],[82.959,31.501],[82.948,31.498],[82.94,31.5],[82.911,31.512],[82.892,31.514],[82.878,31.524],[82.866,31.534],[82.833,31.545],[82.822,31.559],[82.823,31.574],[82.839,31.58],[82.94,31.581],[82.957,31.579],[82.972,31.573],[82.968,31.581],[82.965,31.585],[82.962,31.587],[82.954,31.588],[82.953,31.591],[82.954,31.595],[82.952,31.6],[82.949,31.604],[82.946,31.613],[82.942,31.618],[82.924,31.62],[82.918,31.621],[82.928,31.635],[82.942,31.642],[82.958,31.643],[82.98,31.641],[82.999,31.634],[83.019,31.624],[83.035,31.62],[83.041,31.632],[83.051,31.644],[83.073,31.655],[83.098,31.66],[83.116,31.656],[83.125,31.642],[83.12,31.632],[83.11,31.623],[83.102,31.615],[83.092,31.61],[83.089,31.606],[83.096,31.6],[83.101,31.601],[83.108,31.604],[83.12,31.611],[83.131,31.615],[83.136,31.606],[83.138,31.593],[83.141,31.587],[83.191,31.578],[83.201,31.574],[83.21,31.568],[83.213,31.563],[83.217,31.553],[83.226,31.549],[83.247,31.546],[83.262,31.537],[83.306,31.503],[83.324,31.475],[83.364,31.451],[83.377,31.436],[83.348,31.436]]]}},{"type":"Feature","properties":{"name":"Tangra Yumco"},"geometry":{"type":"Polygon","coordinates":[[[86.769,31.224],[86.779,31.181],[86.796,31.142],[86.774,31.123],[86.749,31.119],[86.687,31.121],[86.659,31.114],[86.635,31.099],[86.614,31.079],[86.597,31.052],[86.609,31.026],[86.607,31.002],[86.596,30.98],[86.584,30.964],[86.567,30.946],[86.56,30.936],[86.552,30.914],[86.53,30.894],[86.522,30.882],[86.521,30.869],[86.527,30.85],[86.529,30.837],[86.525,30.824],[86.515,30.814],[86.473,30.781],[86.451,30.769],[86.43,30.771],[86.413,30.785],[86.408,30.801],[86.375,30.864],[86.376,30.871],[86.39,30.874],[86.406,30.876],[86.416,30.878],[86.422,30.885],[86.427,30.893],[86.433,30.909],[86.442,30.95],[86.447,30.988],[86.454,31.0],[86.501,31.039],[86.514,31.054],[86.519,31.06],[86.529,31.066],[86.553,31.075],[86.566,31.082],[86.571,31.09],[86.575,31.113],[86.605,31.17],[86.615,31.211],[86.621,31.266],[86.63,31.285],[86.632,31.296],[86.63,31.307],[86.626,31.328],[86.626,31.34],[86.648,31.369],[86.69,31.368],[86.734,31.347],[86.762,31.313],[86.766,31.292],[86.769,31.224]]]}},{"type":"Feature","properties":{"name":"Yamzho Yumco"},"geometry":{"type":"Polygon","coordinates":[[[91.018,28.871],[91.002,28.876],[90.915,28.94],[90.905,28.935],[90.899,28.936],[90.895,28.942],[90.894,28.953],[90.887,28.953],[90.884,28.938],[90.878,28.927],[90.867,28.919],[90.853,28.912],[90.851,28.919],[90.851,28.926],[90.854,28.932],[90.86,28.94],[90.845,28.94],[90.834,28.937],[90.811,28.926],[90.811,28.934],[90.806,28.946],[90.805,28.953],[90.794,28.938],[90.775,28.925],[90.758,28.923],[90.75,28.936],[90.752,28.941],[90.757,28.944],[90.761,28.949],[90.764,28.956],[90.759,28.963],[90.749,28.968],[90.729,28.974],[90.726,28.961],[90.723,28.953],[90.764,28.897],[90.766,28.872],[90.729,28.857],[90.735,28.868],[90.734,28.874],[90.728,28.879],[90.723,28.885],[90.72,28.886],[90.702,28.903],[90.702,28.906],[90.689,28.909],[90.672,28.91],[90.657,28.906],[90.648,28.892],[90.682,28.888],[90.68,28.879],[90.604,28.822],[90.599,28.813],[90.598,28.797],[90.593,28.786],[90.583,28.781],[90.566,28.782],[90.566,28.788],[90.554,28.785],[90.524,28.786],[90.518,28.785],[90.515,28.782],[90.507,28.782],[90.5,28.786],[90.497,28.792],[90.499,28.799],[90.502,28.806],[90.505,28.815],[90.504,28.823],[90.491,28.833],[90.456,28.846],[90.449,28.854],[90.445,28.868],[90.438,28.883],[90.437,28.894],[90.452,28.898],[90.459,28.896],[90.472,28.887],[90.48,28.885],[90.49,28.884],[90.493,28.882],[90.493,28.877],[90.497,28.871],[90.496,28.868],[90.492,28.862],[90.49,28.856],[90.497,28.851],[90.504,28.85],[90.511,28.854],[90.516,28.86],[90.518,28.868],[90.52,28.871],[90.525,28.871],[90.529,28.868],[90.532,28.861],[90.53,28.853],[90.524,28.837],[90.523,28.823],[90.525,28.813],[90.533,28.808],[90.552,28.81],[90.547,28.819],[90.544,28.823],[90.55,28.826],[90.56,28.834],[90.566,28.837],[90.554,28.845],[90.559,28.876],[90.552,28.892],[90.563,28.89],[90.573,28.892],[90.581,28.897],[90.586,28.906],[90.587,28.908],[90.631,28.915],[90.641,28.92],[90.64,28.926],[90.629,28.931],[90.607,28.934],[90.599,28.94],[90.596,28.951],[90.6,28.959],[90.61,28.965],[90.623,28.967],[90.649,28.966],[90.662,28.966],[90.671,28.971],[90.684,28.979],[90.691,28.979],[90.695,28.982],[90.695,28.998],[90.691,29.022],[90.678,29.041],[90.648,29.076],[90.666,29.087],[90.665,29.113],[90.657,29.14],[90.651,29.152],[90.638,29.155],[90.629,29.169],[90.604,29.175],[90.584,29.184],[90.572,29.186],[90.546,29.182],[90.502,29.158],[90.461,29.146],[90.436,29.131],[90.394,29.097],[90.4,29.087],[90.397,29.079],[90.391,29.078],[90.387,29.087],[90.381,29.1],[90.369,29.106],[90.361,29.112],[90.366,29.125],[90.381,29.112],[90.401,29.125],[90.424,29.147],[90.446,29.159],[90.474,29.165],[90.521,29.193],[90.548,29.2],[90.607,29.195],[90.661,29.179],[90.676,29.171],[90.688,29.162],[90.702,29.155],[90.734,29.149],[90.741,29.142],[90.738,29.135],[90.723,29.131],[90.732,29.116],[90.737,29.111],[90.729,29.104],[90.723,29.108],[90.716,29.111],[90.72,29.057],[90.726,29.049],[90.731,29.046],[90.736,29.039],[90.744,29.032],[90.754,29.029],[90.763,29.03],[90.781,29.034],[90.791,29.035],[90.785,29.023],[90.774,29.016],[90.759,29.014],[90.743,29.016],[90.759,29.0],[90.782,28.986],[90.832,28.967],[90.832,28.974],[90.818,28.981],[90.823,28.993],[90.846,29.016],[90.839,29.016],[90.845,29.024],[90.846,29.029],[90.862,29.019],[90.874,29.02],[90.885,29.025],[90.898,29.029],[90.933,29.028],[90.945,29.024],[90.942,29.016],[90.954,29.002],[90.963,28.994],[91.013,28.968],[91.023,28.957],[91.018,28.947],[91.005,28.945],[90.991,28.951],[90.979,28.958],[90.97,28.96],[90.953,28.953],[90.952,28.944],[90.96,28.935],[90.97,28.926],[91.024,28.892],[91.042,28.875],[91.018,28.871]]]}},{"type":"Feature","properties":{"name":"Hoh Xil Hu"},"geometry":{"type":"Polygon","coordinates":[[[91.283,35.63],[91.298,35.609],[91.339,35.58],[91.307,35.568],[91.289,35.565],[91.271,35.565],[91.299,35.539],[91.3,35.529],[91.275,35.525],[91.233,35.527],[91.219,35.531],[91.202,35.539],[91.16,35.551],[91.072,35.558],[91.038,35.573],[91.019,35.589],[91.004,35.6],[90.985,35.606],[90.96,35.607],[90.942,35.615],[90.932,35.631],[90.935,35.648],[90.957,35.655],[90.968,35.653],[90.997,35.642],[90.998,35.64],[91.002,35.635],[91.007,35.63],[91.012,35.628],[91.016,35.632],[91.018,35.638],[91.021,35.646],[91.028,35.649],[91.094,35.647],[91.114,35.642],[91.139,35.629],[91.15,35.627],[91.223,35.635],[91.219,35.641],[91.217,35.647],[91.219,35.653],[91.223,35.662],[91.241,35.648],[91.263,35.64],[91.283,35.63]]]}},{"type":"Feature","properties":{"name":""},"geometry":{"type":"Polygon","coordinates":[[[85.895,30.955],[85.9,30.945],[85.903,30.934],[85.899,30.922],[85.886,30.914],[85.877,30.917],[85.873,30.926],[85.878,30.936],[85.871,30.932],[85.862,30.93],[85.852,30.93],[85.842,30.931],[85.856,30.914],[85.862,30.887],[85.862,30.856],[85.856,30.814],[85.844,30.777],[85.837,30.764],[85.816,30.748],[85.8,30.749],[85.784,30.756],[85.761,30.758],[85.766,30.766],[85.771,30.771],[85.778,30.772],[85.789,30.772],[85.789,30.779],[85.772,30.782],[85.769,30.789],[85.773,30.796],[85.776,30.796],[85.781,30.794],[85.792,30.8],[85.803,30.81],[85.81,30.819],[85.786,30.818],[85.762,30.831],[85.743,30.852],[85.734,30.874],[85.719,30.868],[85.705,30.871],[85.691,30.878],[85.675,30.882],[85.659,30.879],[85.611,30.861],[85.598,30.871],[85.59,30.865],[85.584,30.848],[85.583,30.83],[85.574,30.82],[85.555,30.826],[85.522,30.847],[85.413,30.87],[85.378,30.889],[85.369,30.896],[85.359,30.91],[85.331,30.957],[85.333,30.976],[85.342,30.993],[85.354,31.008],[85.397,31.036],[85.405,31.046],[85.406,31.055],[85.4,31.07],[85.402,31.076],[85.412,31.081],[85.424,31.081],[85.437,31.078],[85.447,31.073],[85.481,31.049],[85.497,31.042],[85.522,31.039],[85.537,31.034],[85.568,31.015],[85.587,31.011],[85.614,31.002],[85.629,30.999],[85.638,31.005],[85.635,31.015],[85.627,31.021],[85.628,31.027],[85.652,31.039],[85.656,31.032],[85.666,31.023],[85.675,31.019],[85.679,31.028],[85.685,31.038],[85.699,31.038],[85.747,31.027],[85.784,31.005],[85.803,30.997],[85.854,30.992],[85.881,30.984],[85.892,30.967],[85.895,30.955]]]}},{"type":"Feature","properties":{"name":""},"geometry":{"type":"Polygon","coordinates":[[[90.311,33.319],[90.291,33.314],[90.236,33.342],[90.213,33.35],[90.194,33.361],[90.16,33.39],[90.124,33.358],[90.086,33.362],[89.996,33.403],[90.015,33.426],[90.017,33.434],[90.014,33.446],[90.008,33.45],[90.001,33.452],[89.996,33.458],[89.995,33.475],[90.006,33.473],[90.023,33.463],[90.053,33.454],[90.091,33.435],[90.119,33.413],[90.138,33.404],[90.159,33.399],[90.181,33.397],[90.196,33.398],[90.207,33.403],[90.282,33.453],[90.294,33.458],[90.303,33.48],[90.293,33.529],[90.27,33.602],[90.278,33.602],[90.287,33.599],[90.293,33.613],[90.297,33.632],[90.298,33.725],[90.316,33.689],[90.319,33.681],[90.338,33.671],[90.342,33.664],[90.325,33.657],[90.336,33.624],[90.344,33.609],[90.356,33.602],[90.362,33.594],[90.378,33.556],[90.391,33.547],[90.402,33.531],[90.407,33.493],[90.408,33.42],[90.4,33.421],[90.364,33.415],[90.353,33.41],[90.348,33.401],[90.343,33.383],[90.34,33.376],[90.312,33.362],[90.312,33.349],[90.315,33.333],[90.311,33.319]]]}},{"type":"Feature","properties":{"name":""},"geometry":{"type":"Polygon","coordinates":[[[89.956,33.513],[89.973,33.492],[89.977,33.485],[89.973,33.472],[89.965,33.467],[89.956,33.464],[89.949,33.458],[89.947,33.438],[89.949,33.41],[89.947,33.386],[89.932,33.376],[89.917,33.37],[89.902,33.358],[89.892,33.344],[89.887,33.331],[89.882,33.308],[89.87,33.293],[89.853,33.282],[89.832,33.273],[89.848,33.26],[89.843,33.247],[89.825,33.243],[89.801,33.256],[89.794,33.266],[89.799,33.27],[89.808,33.272],[89.812,33.28],[89.807,33.286],[89.79,33.302],[89.784,33.314],[89.778,33.348],[89.777,33.383],[89.789,33.412],[89.818,33.423],[89.806,33.43],[89.753,33.43],[89.729,33.437],[89.674,33.478],[89.661,33.492],[89.668,33.499],[89.693,33.483],[89.739,33.465],[89.789,33.453],[89.822,33.461],[89.83,33.467],[89.838,33.47],[89.844,33.475],[89.846,33.488],[89.846,33.5],[89.847,33.509],[89.852,33.516],[89.863,33.519],[89.93,33.525],[89.949,33.519],[89.956,33.513]]]}},{"type":"Feature","properties":{"name":""},"geometry":{"type":"Polygon","coordinates":[[[75.915,32.109],[75.919,32.111],[75.921,32.114],[75.919,32.123],[75.919,32.127],[75.922,32.129],[75.935,32.131],[75.942,32.132],[75.946,32.135],[75.946,32.14],[75.945,32.144],[75.933,32.161],[75.931,32.166],[75.93,32.171],[75.933,32.175],[75.937,32.178],[75.943,32.179],[75.954,32.178],[75.974,32.168],[75.998,32.137],[76.006,32.133],[76.012,32.133],[76.015,32.137],[76.025,32.158],[76.03,32.162],[76.035,32.165],[76.042,32.167],[76.044,32.164],[76.043,32.141],[76.039,32.123],[76.039,32.115],[76.041,32.108],[76.046,32.1],[76.052,32.097],[76.058,32.098],[76.064,32.101],[76.071,32.101],[76.074,32.098],[76.076,32.092],[76.08,32.086],[76.086,32.083],[76.099,32.085],[76.107,32.085],[76.111,32.081],[76.112,32.077],[76.111,32.071],[76.105,32.055],[76.105,32.048],[76.107,32.04],[76.112,32.028],[76.117,32.022],[76.122,32.018],[76.128,32.015],[76.135,32.015],[76.142,32.015],[76.161,32.019],[76.169,32.018],[76.173,32.014],[76.173,32.009],[76.172,32.005],[76.17,32.002],[76.169,32.001],[76.169,32.001],[76.169,32.0],[76.169,32.0],[76.168,32.0],[76.168,32.0],[76.161,31.991],[76.158,31.986],[76.157,31.98],[76.159,31.974],[76.161,31.968],[76.187,31.925],[76.197,31.906],[76.2,31.896],[76.2,31.883],[76.2,31.878],[76.198,31.874],[76.194,31.87],[76.188,31.869],[76.182,31.869],[76.177,31.872],[76.172,31.874],[76.16,31.885],[76.155,31.887],[76.15,31.887],[76.145,31.884],[76.138,31.877],[76.134,31.874],[76.129,31.872],[76.124,31.873],[76.119,31.876],[76.117,31.881],[76.114,31.886],[76.112,31.89],[76.109,31.894],[76.102,31.895],[76.089,31.896],[76.083,31.899],[76.08,31.902],[76.08,31.913],[76.079,31.918],[76.076,31.922],[76.071,31.924],[76.051,31.927],[76.008,31.941],[76.004,31.944],[76.001,31.947],[75.998,31.949],[75.993,31.951],[75.98,31.954],[75.969,31.96],[75.963,31.961],[75.942,31.962],[75.937,31.963],[75.935,31.965],[75.935,31.965],[75.935,31.966],[75.934,31.967],[75.94,31.976],[75.944,31.987],[75.947,31.992],[75.954,32.0],[75.954,32.0],[75.954,32.0],[75.954,32.0],[75.958,32.037],[75.957,32.042],[75.952,32.045],[75.94,32.049],[75.935,32.052],[75.931,32.056],[75.93,32.06],[75.931,32.065],[75.932,32.07],[75.932,32.076],[75.933,32.081],[75.937,32.089],[75.935,32.093],[75.929,32.096],[75.918,32.1],[75.914,32.103],[75.912,32.106],[75.915,32.109]]]}},{"type":"Feature","properties":{"name":""},"geometry":{"type":"Polygon","coordinates":[[[91.527,32.119],[91.534,32.094],[91.534,32.068],[91.532,32.047],[91.516,31.999],[91.511,31.971],[91.518,31.95],[91.506,31.942],[91.463,31.929],[91.468,31.943],[91.464,31.952],[91.454,31.959],[91.443,31.964],[91.431,31.981],[91.424,32.013],[91.421,32.048],[91.422,32.073],[91.433,32.095],[91.456,32.119],[91.484,32.135],[91.511,32.136],[91.527,32.119]]]}},{"type":"Feature","properties":{"name":""},"geometry":{"type":"Polygon","coordinates":[[[87.606,31.954],[87.606,31.944],[87.617,31.922],[87.611,31.904],[87.598,31.887],[87.571,31.861],[87.555,31.851],[87.538,31.844],[87.519,31.841],[87.481,31.841],[87.463,31.839],[87.447,31.833],[87.417,31.844],[87.409,31.877],[87.419,31.913],[87.5,31.962],[87.539,31.979],[87.557,31.974],[87.581,31.965],[87.592,31.959],[87.601,31.959],[87.605,31.957],[87.606,31.954]]]}},{"type":"Feature","properties":{"name":"Banggong Co"},"geometry":{"type":"Polygon","coordinates":[[[78.962,33.74],[78.98,33.736],[78.985,33.721],[78.97,33.712],[78.948,33.707],[78.929,33.705],[78.862,33.689],[78.824,33.699],[78.8,33.69],[78.776,33.677],[78.758,33.67],[78.728,33.678],[78.692,33.704],[78.656,33.738],[78.628,33.773],[78.605,33.809],[78.591,33.827],[78.577,33.835],[78.564,33.84],[78.486,33.893],[78.457,33.921],[78.436,33.951],[78.436,33.979],[78.448,33.968],[78.457,33.969],[78.465,33.975],[78.474,33.979],[78.488,33.979],[78.497,33.978],[78.502,33.974],[78.503,33.955],[78.505,33.949],[78.511,33.938],[78.545,33.896],[78.552,33.908],[78.559,33.906],[78.577,33.886],[78.589,33.879],[78.601,33.875],[78.611,33.87],[78.618,33.846],[78.637,33.832],[78.642,33.824],[78.68,33.783],[78.729,33.745],[78.759,33.729],[78.786,33.725],[78.793,33.729],[78.805,33.742],[78.813,33.746],[78.821,33.745],[78.834,33.736],[78.84,33.732],[78.856,33.73],[78.868,33.732],[78.88,33.737],[78.896,33.746],[78.913,33.734],[78.962,33.74]]]}},{"type":"Feature","properties":{"name":""},"geometry":{"type":"Polygon","coordinates":[[[84.062,30.505],[84.091,30.463],[84.096,30.453],[84.095,30.427],[84.089,30.408],[84.087,30.393],[84.089,30.361],[84.086,30.35],[84.082,30.343],[84.082,30.338],[84.08,30.334],[84.072,30.332],[84.066,30.336],[84.062,30.343],[84.061,30.352],[84.062,30.36],[84.051,30.408],[84.038,30.413],[84.034,30.426],[84.035,30.456],[84.029,30.471],[84.01,30.496],[84.007,30.508],[84.014,30.517],[84.032,30.516],[84.051,30.51],[84.062,30.505]]]}},{"type":"Feature","properties":{"name":""},"geometry":{"type":"Polygon","coordinates":[[[91.21,24.362],[91.216,24.371],[91.239,24.337],[91.217,24.323],[91.183,24.309],[91.169,24.275],[91.161,24.268],[91.153,24.256],[91.14,24.248],[91.123,24.243],[91.103,24.241],[91.094,24.236],[91.094,24.226],[91.096,24.215],[91.094,24.207],[91.087,24.206],[91.079,24.208],[91.066,24.218],[91.033,24.176],[91.021,24.172],[91.01,24.169],[91.004,24.166],[91.008,24.146],[91.049,24.124],[91.059,24.107],[91.058,24.082],[91.056,24.072],[91.052,24.063],[91.023,24.044],[91.018,24.039],[91.015,24.034],[90.997,24.008],[90.976,23.96],[90.97,23.981],[90.973,24.009],[90.982,24.032],[90.993,24.042],[91.01,24.051],[91.03,24.072],[91.037,24.093],[91.018,24.104],[91.025,24.118],[91.007,24.142],[90.983,24.151],[90.97,24.125],[90.963,24.125],[90.963,24.142],[90.957,24.151],[90.951,24.148],[90.949,24.131],[90.937,24.139],[90.942,24.151],[90.956,24.161],[90.991,24.169],[90.997,24.179],[90.997,24.214],[91.005,24.21],[91.01,24.203],[91.013,24.193],[91.012,24.18],[91.018,24.18],[91.028,24.194],[91.041,24.205],[91.053,24.22],[91.059,24.241],[91.058,24.257],[91.054,24.273],[91.053,24.286],[91.059,24.295],[91.076,24.298],[91.091,24.289],[91.114,24.268],[91.128,24.264],[91.139,24.263],[91.149,24.267],[91.155,24.278],[91.155,24.289],[91.149,24.299],[91.141,24.308],[91.135,24.316],[91.131,24.333],[91.135,24.339],[91.144,24.343],[91.155,24.351],[91.156,24.351],[91.164,24.355],[91.169,24.351],[91.172,24.35],[91.176,24.349],[91.179,24.347],[91.182,24.344],[91.21,24.362]]]}},{"type":"Feature","properties":{"name":""},"geometry":{"type":"Polygon","coordinates":[[[87.349,34.627],[87.359,34.622],[87.364,34.608],[87.361,34.593],[87.353,34.582],[87.344,34.576],[87.324,34.57],[87.311,34.574],[87.299,34.583],[87.282,34.59],[87.245,34.592],[87.215,34.59],[87.207,34.584],[87.203,34.576],[87.198,34.569],[87.191,34.572],[87.189,34.577],[87.189,34.584],[87.191,34.591],[87.194,34.597],[87.181,34.59],[87.192,34.616],[87.215,34.62],[87.269,34.61],[87.287,34.626],[87.289,34.627],[87.293,34.631],[87.3,34.63],[87.313,34.624],[87.338,34.628],[87.349,34.627]]]}},{"type":"Feature","properties":{"name":"Elsen Nur"},"geometry":{"type":"Polygon","coordinates":[[[92.063,35.22],[92.036,35.211],[91.963,35.222],[91.936,35.217],[91.945,35.234],[91.968,35.244],[91.995,35.251],[92.039,35.271],[92.096,35.271],[92.121,35.278],[92.165,35.259],[92.191,35.253],[92.214,35.261],[92.234,35.264],[92.259,35.254],[92.282,35.236],[92.299,35.223],[92.272,35.2],[92.234,35.184],[92.194,35.179],[92.162,35.19],[92.158,35.176],[92.158,35.17],[92.162,35.162],[92.155,35.162],[92.141,35.177],[92.112,35.2],[92.082,35.218],[92.063,35.22]]]}},{"type":"Feature","properties":{"name":""},"geometry":{"type":"Polygon","coordinates":[[[81.142,7.999],[81.148,7.99],[81.15,7.979],[81.145,7.958],[81.088,7.89],[81.085,7.883],[81.08,7.879],[81.075,7.86],[81.071,7.856],[81.068,7.855],[81.044,7.846],[81.028,7.834],[81.014,7.828],[81.001,7.819],[80.992,7.801],[80.989,7.815],[80.995,7.831],[81.006,7.844],[81.016,7.849],[81.035,7.852],[81.048,7.859],[81.058,7.87],[81.142,7.999]]]}},{"type":"Feature","properties":{"name":""},"geometry":{"type":"Polygon","coordinates":[[[74.649,34.398],[74.661,34.4],[74.665,34.383],[74.663,34.375],[74.653,34.369],[74.642,34.37],[74.627,34.376],[74.614,34.383],[74.605,34.39],[74.597,34.381],[74.587,34.377],[74.578,34.377],[74.571,34.382],[74.564,34.366],[74.575,34.332],[74.571,34.314],[74.557,34.301],[74.541,34.299],[74.525,34.306],[74.516,34.321],[74.523,34.355],[74.521,34.381],[74.523,34.39],[74.53,34.403],[74.541,34.414],[74.555,34.42],[74.57,34.42],[74.593,34.411],[74.649,34.398]]]}},{"type":"Feature","properties":{"name":""},"geometry":{"type":"Polygon","coordinates":[[[73.848,33.163],[73.866,33.15],[73.87,33.138],[73.87,33.128],[73.864,33.123],[73.852,33.126],[73.846,33.128],[73.842,33.129],[73.831,33.129],[73.823,33.132],[73.821,33.138],[73.82,33.144],[73.818,33.15],[73.796,33.163],[73.728,33.191],[73.712,33.208],[73.704,33.21],[73.701,33.194],[73.702,33.185],[73.715,33.156],[73.669,33.135],[73.65,33.132],[73.639,33.15],[73.642,33.153],[73.647,33.161],[73.652,33.172],[73.652,33.184],[73.647,33.194],[73.639,33.2],[73.619,33.211],[73.615,33.216],[73.614,33.223],[73.613,33.229],[73.612,33.231],[73.607,33.232],[73.599,33.23],[73.592,33.227],[73.585,33.227],[73.581,33.227],[73.579,33.228],[73.577,33.239],[73.581,33.238],[73.587,33.24],[73.594,33.243],[73.598,33.246],[73.596,33.266],[73.593,33.285],[73.591,33.304],[73.598,33.321],[73.609,33.309],[73.614,33.297],[73.614,33.284],[73.605,33.273],[73.617,33.256],[73.637,33.234],[73.659,33.221],[73.677,33.231],[73.68,33.241],[73.681,33.251],[73.68,33.273],[73.685,33.284],[73.693,33.289],[73.699,33.294],[73.694,33.307],[73.717,33.309],[73.733,33.318],[73.745,33.323],[73.749,33.321],[73.753,33.298],[73.742,33.271],[73.722,33.246],[73.701,33.231],[73.715,33.226],[73.763,33.218],[73.789,33.208],[73.803,33.204],[73.818,33.205],[73.811,33.181],[73.825,33.17],[73.848,33.163]]]}},{"type":"Feature","properties":{"name":""},"geometry":{"type":"Polygon","coordinates":[[[75.561,24.819],[75.573,24.836],[75.578,24.854],[75.576,24.862],[75.567,24.875],[75.564,24.885],[75.571,24.91],[75.572,24.919],[75.577,24.922],[75.583,24.925],[75.59,24.926],[75.599,24.926],[75.594,24.903],[75.605,24.875],[75.622,24.847],[75.634,24.823],[75.639,24.793],[75.638,24.778],[75.63,24.765],[75.607,24.739],[75.592,24.731],[75.585,24.745],[75.555,24.757],[75.418,24.727],[75.38,24.755],[75.412,24.755],[75.435,24.758],[75.457,24.764],[75.472,24.772],[75.487,24.782],[75.531,24.796],[75.545,24.805],[75.561,24.819]]]}},{"type":"Feature","properties":{"name":"Aqqikkol Hu"},"geometry":{"type":"Polygon","coordinates":[[[88.405,36.984],[88.359,36.996],[88.335,37.015],[88.309,37.025],[88.288,37.051],[88.276,37.06],[88.342,37.144],[88.372,37.163],[88.416,37.173],[88.467,37.174],[88.515,37.165],[88.55,37.149],[88.556,37.127],[88.558,37.09],[88.552,37.055],[88.54,37.039],[88.525,37.043],[88.522,37.053],[88.518,37.062],[88.499,37.066],[88.471,37.068],[88.466,37.06],[88.455,37.01],[88.451,37.001],[88.44,36.992],[88.42,36.983],[88.405,36.984]]]}},{"type":"Feature","properties":{"name":""},"geometry":{"type":"Polygon","coordinates":[[[95.231,37.008],[95.295,36.963],[95.3,36.938],[95.294,36.907],[95.28,36.883],[95.259,36.877],[95.237,36.894],[95.201,36.948],[95.174,36.959],[95.148,36.967],[95.117,37.0],[95.091,37.008],[95.029,37.01],[95.0,37.016],[94.972,37.028],[94.983,37.034],[94.994,37.035],[95.006,37.034],[95.02,37.035],[95.03,37.039],[95.052,37.052],[95.064,37.055],[95.087,37.052],[95.13,37.038],[95.194,37.027],[95.231,37.008]]]}},{"type":"Feature","properties":{"name":"Gas Hu"},"geometry":{"type":"Polygon","coordinates":[[[90.802,38.17],[90.826,38.159],[90.899,38.122],[90.954,38.113],[90.986,38.1],[91.007,38.081],[91.004,38.056],[91.02,38.05],[91.009,38.049],[90.976,38.049],[90.973,38.044],[90.972,38.028],[90.97,38.021],[90.961,38.017],[90.94,38.009],[90.932,38.004],[90.914,37.997],[90.899,38.009],[90.881,38.043],[90.869,38.053],[90.851,38.061],[90.832,38.068],[90.815,38.07],[90.8,38.075],[90.781,38.084],[90.761,38.091],[90.738,38.086],[90.726,38.087],[90.714,38.091],[90.709,38.094],[90.708,38.104],[90.707,38.112],[90.706,38.12],[90.709,38.131],[90.729,38.153],[90.764,38.167],[90.802,38.17]]]}},{"type":"Feature","properties":{"name":"Hoh Sai Hu"},"geometry":{"type":"Polygon","coordinates":[[[92.974,35.733],[92.996,35.719],[93.039,35.7],[93.026,35.681],[93.007,35.671],[92.984,35.667],[92.914,35.666],[92.899,35.674],[92.827,35.737],[92.821,35.757],[92.807,35.772],[92.789,35.782],[92.709,35.81],[92.693,35.819],[92.674,35.828],[92.623,35.835],[92.607,35.843],[92.621,35.858],[92.674,35.86],[92.772,35.85],[92.777,35.852],[92.786,35.858],[92.81,35.831],[92.823,35.819],[92.841,35.809],[92.887,35.797],[92.902,35.789],[92.954,35.759],[92.964,35.744],[92.974,35.733]]]}},{"type":"Feature","properties":{"name":"Huiten Nur"},"geometry":{"type":"Polygon","coordinates":[[[92.039,35.575],[92.058,35.57],[92.1,35.563],[92.1,35.556],[92.089,35.552],[92.052,35.528],[92.048,35.534],[92.036,35.543],[92.032,35.549],[92.004,35.533],[91.97,35.519],[91.936,35.509],[91.908,35.507],[91.889,35.518],[91.881,35.521],[91.871,35.522],[91.85,35.52],[91.84,35.521],[91.826,35.529],[91.785,35.57],[91.795,35.575],[91.805,35.583],[91.811,35.595],[91.812,35.611],[91.862,35.639],[91.881,35.646],[91.904,35.646],[91.946,35.634],[91.967,35.631],[92.039,35.575]]]}},{"type":"Feature","properties":{"name":""},"geometry":{"type":"Polygon","coordinates":[[[90.215,35.704],[90.126,35.721],[90.084,35.736],[90.058,35.757],[90.06,35.788],[90.101,35.793],[90.188,35.785],[90.223,35.803],[90.245,35.807],[90.267,35.795],[90.284,35.794],[90.329,35.818],[90.346,35.813],[90.348,35.806],[90.346,35.798],[90.338,35.782],[90.324,35.741],[90.296,35.715],[90.259,35.703],[90.215,35.704]]]}},{"type":"Feature","properties":{"name":""},"geometry":{"type":"Polygon","coordinates":[[[90.401,35.165],[90.355,35.151],[90.24,35.161],[90.202,35.143],[90.197,35.152],[90.191,35.156],[90.183,35.156],[90.174,35.15],[90.164,35.159],[90.146,35.18],[90.134,35.191],[90.12,35.198],[90.109,35.201],[90.099,35.206],[90.092,35.219],[90.11,35.219],[90.116,35.228],[90.119,35.241],[90.126,35.253],[90.142,35.258],[90.153,35.252],[90.165,35.244],[90.181,35.24],[90.214,35.234],[90.212,35.223],[90.187,35.213],[90.154,35.212],[90.154,35.205],[90.171,35.199],[90.2,35.193],[90.225,35.191],[90.231,35.191],[90.237,35.19],[90.247,35.181],[90.255,35.177],[90.261,35.178],[90.267,35.184],[90.27,35.191],[90.264,35.192],[90.259,35.194],[90.255,35.196],[90.25,35.198],[90.258,35.212],[90.265,35.232],[90.275,35.245],[90.291,35.24],[90.291,35.252],[90.295,35.265],[90.304,35.276],[90.315,35.281],[90.322,35.282],[90.333,35.288],[90.34,35.288],[90.345,35.285],[90.353,35.276],[90.356,35.274],[90.365,35.264],[90.384,35.216],[90.401,35.205],[90.392,35.237],[90.386,35.253],[90.377,35.26],[90.374,35.267],[90.38,35.278],[90.39,35.28],[90.394,35.26],[90.4,35.264],[90.406,35.265],[90.418,35.264],[90.468,35.227],[90.484,35.219],[90.492,35.217],[90.521,35.219],[90.53,35.217],[90.537,35.212],[90.552,35.198],[90.555,35.212],[90.561,35.217],[90.567,35.215],[90.576,35.208],[90.586,35.206],[90.597,35.21],[90.61,35.216],[90.62,35.219],[90.631,35.217],[90.643,35.213],[90.649,35.205],[90.644,35.195],[90.576,35.188],[90.518,35.171],[90.5,35.173],[90.481,35.184],[90.466,35.2],[90.456,35.219],[90.438,35.166],[90.423,35.147],[90.401,35.165]]]}},{"type":"Feature","properties":{"name":""},"geometry":{"type":"Polygon","coordinates":[[[90.739,34.84],[90.733,34.835],[90.699,34.835],[90.689,34.838],[90.666,34.851],[90.654,34.855],[90.627,34.855],[90.58,34.839],[90.555,34.835],[90.487,34.835],[90.48,34.838],[90.477,34.842],[90.476,34.847],[90.476,34.849],[90.461,34.846],[90.456,34.838],[90.453,34.826],[90.442,34.815],[90.424,34.809],[90.386,34.804],[90.366,34.795],[90.366,34.787],[90.381,34.784],[90.42,34.782],[90.429,34.777],[90.435,34.77],[90.451,34.768],[90.469,34.768],[90.484,34.767],[90.499,34.757],[90.5,34.749],[90.494,34.737],[90.49,34.722],[90.483,34.715],[90.449,34.709],[90.435,34.705],[90.461,34.694],[90.46,34.684],[90.442,34.684],[90.414,34.698],[90.34,34.753],[90.323,34.745],[90.307,34.748],[90.295,34.759],[90.291,34.777],[90.298,34.791],[90.314,34.798],[90.353,34.801],[90.338,34.813],[90.257,34.835],[90.264,34.846],[90.266,34.854],[90.264,34.873],[90.269,34.88],[90.28,34.88],[90.292,34.878],[90.301,34.88],[90.319,34.895],[90.34,34.904],[90.363,34.908],[90.389,34.91],[90.398,34.908],[90.403,34.903],[90.407,34.897],[90.414,34.891],[90.428,34.883],[90.435,34.882],[90.47,34.886],[90.476,34.883],[90.487,34.873],[90.499,34.865],[90.506,34.872],[90.51,34.891],[90.532,34.897],[90.553,34.896],[90.65,34.881],[90.66,34.877],[90.668,34.872],[90.675,34.869],[90.685,34.869],[90.706,34.871],[90.716,34.869],[90.724,34.863],[90.734,34.851],[90.739,34.84]]]}},{"type":"Feature","properties":{"name":""},"geometry":{"type":"Polygon","coordinates":[[[90.389,34.91],[90.388,34.91],[90.388,34.91],[90.394,34.91],[90.389,34.91]]]}},{"type":"Feature","properties":{"name":""},"geometry":{"type":"Polygon","coordinates":[[[89.361,35.26],[89.375,35.266],[89.387,35.246],[89.386,35.224],[89.372,35.215],[89.353,35.218],[89.336,35.23],[89.32,35.237],[89.3,35.242],[89.291,35.251],[89.304,35.267],[89.284,35.271],[89.236,35.275],[89.203,35.294],[89.18,35.299],[89.157,35.3],[89.14,35.294],[89.135,35.304],[89.137,35.313],[89.154,35.329],[89.158,35.33],[89.177,35.329],[89.181,35.331],[89.181,35.334],[89.18,35.339],[89.181,35.343],[89.177,35.341],[89.174,35.347],[89.173,35.356],[89.174,35.362],[89.179,35.367],[89.186,35.371],[89.196,35.375],[89.28,35.384],[89.303,35.379],[89.31,35.367],[89.314,35.351],[89.336,35.32],[89.342,35.302],[89.344,35.283],[89.345,35.263],[89.35,35.252],[89.361,35.26]]]}},{"type":"Feature","properties":{"name":""},"geometry":{"type":"Polygon","coordinates":[[[89.23,34.592],[89.235,34.568],[89.236,34.558],[89.234,34.548],[89.23,34.539],[89.222,34.534],[89.205,34.534],[89.195,34.544],[89.189,34.556],[89.184,34.561],[89.164,34.565],[89.128,34.58],[89.106,34.582],[89.087,34.581],[89.082,34.577],[89.078,34.568],[89.08,34.565],[89.078,34.524],[89.07,34.504],[89.052,34.494],[89.03,34.491],[88.989,34.495],[88.964,34.501],[88.946,34.513],[88.942,34.534],[88.914,34.513],[88.917,34.567],[88.921,34.582],[88.888,34.575],[88.868,34.588],[88.838,34.63],[88.853,34.642],[88.876,34.646],[88.896,34.637],[88.9,34.616],[88.911,34.621],[88.924,34.621],[88.936,34.62],[88.934,34.616],[89.021,34.599],[89.065,34.598],[89.106,34.602],[89.113,34.606],[89.117,34.611],[89.124,34.616],[89.14,34.616],[89.151,34.611],[89.162,34.598],[89.171,34.596],[89.217,34.599],[89.23,34.592]]]}},{"type":"Feature","properties":{"name":""},"geometry":{"type":"Polygon","coordinates":[[[89.578,36.291],[89.603,36.274],[89.612,36.254],[89.589,36.244],[89.573,36.24],[89.563,36.234],[89.554,36.231],[89.537,36.238],[89.531,36.243],[89.527,36.248],[89.524,36.255],[89.523,36.262],[89.52,36.266],[89.501,36.266],[89.483,36.272],[89.455,36.277],[89.449,36.282],[89.444,36.288],[89.356,36.336],[89.328,36.346],[89.298,36.348],[89.299,36.362],[89.296,36.383],[89.289,36.401],[89.28,36.409],[89.278,36.42],[89.276,36.442],[89.283,36.457],[89.304,36.45],[89.339,36.424],[89.374,36.41],[89.449,36.389],[89.483,36.372],[89.51,36.351],[89.533,36.324],[89.551,36.293],[89.578,36.291]]]}},{"type":"Feature","properties":{"name":""},"geometry":{"type":"Polygon","coordinates":[[[90.633,31.333],[90.617,31.3],[90.612,31.282],[90.616,31.268],[90.628,31.25],[90.62,31.221],[90.627,31.203],[90.609,31.162],[90.607,31.152],[90.6,31.145],[90.584,31.139],[90.567,31.136],[90.555,31.138],[90.522,31.17],[90.521,31.176],[90.517,31.183],[90.535,31.241],[90.554,31.26],[90.559,31.271],[90.558,31.286],[90.55,31.31],[90.552,31.327],[90.556,31.342],[90.56,31.35],[90.569,31.353],[90.586,31.354],[90.601,31.355],[90.615,31.353],[90.627,31.347],[90.633,31.333]]]}},{"type":"Feature","properties":{"name":""},"geometry":{"type":"Polygon","coordinates":[[[88.328,31.811],[88.336,31.806],[88.345,31.803],[88.352,31.792],[88.339,31.791],[88.318,31.781],[88.308,31.779],[88.297,31.781],[88.268,31.791],[88.263,31.796],[88.259,31.805],[88.251,31.804],[88.225,31.786],[88.216,31.782],[88.207,31.78],[88.151,31.78],[88.135,31.787],[88.143,31.803],[88.159,31.818],[88.178,31.832],[88.199,31.839],[88.221,31.833],[88.266,31.821],[88.281,31.826],[88.283,31.855],[88.294,31.851],[88.308,31.844],[88.32,31.834],[88.325,31.823],[88.328,31.811]]]}},{"type":"Feature","properties":{"name":""},"geometry":{"type":"Polygon","coordinates":[[[88.126,31.69],[88.086,31.678],[87.997,31.662],[87.919,31.635],[87.899,31.63],[87.875,31.628],[87.833,31.618],[87.822,31.62],[87.831,31.641],[87.835,31.643],[87.841,31.643],[87.847,31.648],[87.851,31.663],[87.851,31.675],[87.846,31.695],[87.845,31.707],[87.852,31.723],[87.869,31.735],[87.907,31.751],[87.929,31.764],[87.94,31.769],[87.954,31.772],[87.979,31.766],[88.011,31.766],[88.041,31.772],[88.088,31.795],[88.108,31.781],[88.11,31.761],[88.085,31.751],[88.098,31.738],[88.142,31.753],[88.163,31.748],[88.173,31.728],[88.163,31.711],[88.143,31.698],[88.126,31.69]]]}},{"type":"Feature","properties":{"name":""},"geometry":{"type":"Polygon","coordinates":[[[82.439,34.145],[82.455,34.132],[82.458,34.116],[82.445,34.111],[82.422,34.115],[82.398,34.122],[82.383,34.129],[82.367,34.142],[82.353,34.155],[82.338,34.166],[82.318,34.17],[82.307,34.178],[82.284,34.211],[82.244,34.229],[82.212,34.256],[82.189,34.289],[82.191,34.321],[82.295,34.276],[82.322,34.254],[82.357,34.191],[82.379,34.167],[82.407,34.157],[82.42,34.154],[82.439,34.145]]]}},{"type":"Feature","properties":{"name":"Lumajangdong Co"},"geometry":{"type":"Polygon","coordinates":[[[81.797,34.034],[81.811,34.025],[81.815,34.006],[81.809,33.987],[81.797,33.979],[81.777,33.98],[81.768,33.984],[81.752,34.012],[81.741,34.025],[81.729,34.03],[81.717,34.027],[81.705,34.012],[81.695,33.982],[81.691,33.951],[81.683,33.925],[81.657,33.91],[81.651,33.932],[81.653,33.945],[81.659,33.958],[81.664,33.979],[81.639,33.972],[81.622,33.983],[81.607,33.998],[81.592,34.006],[81.58,34.009],[81.574,34.016],[81.57,34.023],[81.561,34.027],[81.548,34.026],[81.54,34.023],[81.495,33.992],[81.477,33.983],[81.455,33.979],[81.43,33.956],[81.416,33.95],[81.41,33.968],[81.415,33.981],[81.427,33.984],[81.441,33.984],[81.451,33.986],[81.456,33.992],[81.494,34.051],[81.509,34.068],[81.523,34.075],[81.533,34.077],[81.539,34.082],[81.54,34.089],[81.534,34.095],[81.523,34.096],[81.5,34.088],[81.493,34.088],[81.486,34.101],[81.505,34.112],[81.533,34.12],[81.554,34.122],[81.573,34.121],[81.591,34.11],[81.596,34.088],[81.633,34.095],[81.667,34.085],[81.701,34.069],[81.752,34.057],[81.779,34.038],[81.797,34.034]]]}},{"type":"Feature","properties":{"name":"Gozha Co"},"geometry":{"type":"Polygon","coordinates":[[[81.186,35.091],[81.231,35.07],[81.244,35.059],[81.244,35.051],[81.243,35.044],[81.241,35.037],[81.23,35.019],[81.225,35.015],[81.207,35.016],[81.147,35.007],[81.131,35.013],[81.102,35.021],[81.06,35.009],[81.018,34.991],[80.984,34.982],[80.966,34.984],[80.945,34.988],[80.929,34.998],[80.923,35.013],[80.927,35.033],[80.938,35.054],[80.952,35.072],[80.967,35.079],[81.018,35.087],[81.039,35.085],[81.057,35.082],[81.075,35.081],[81.087,35.087],[81.094,35.106],[81.101,35.106],[81.112,35.094],[81.138,35.097],[81.164,35.104],[81.176,35.103],[81.186,35.091]]]}},{"type":"Feature","properties":{"name":""},"geometry":{"type":"Polygon","coordinates":[[[91.219,33.942],[91.236,33.934],[91.243,33.921],[91.243,33.907],[91.239,33.891],[91.232,33.874],[91.219,33.858],[91.205,33.848],[91.187,33.841],[91.167,33.836],[91.148,33.835],[91.134,33.852],[91.144,33.874],[91.164,33.893],[91.182,33.903],[91.182,33.91],[91.161,33.911],[91.156,33.921],[91.164,33.935],[91.182,33.945],[91.199,33.946],[91.219,33.942]]]}},{"type":"Feature","properties":{"name":""},"geometry":{"type":"Polygon","coordinates":[[[90.048,32.492],[90.061,32.477],[90.064,32.448],[90.056,32.423],[90.038,32.423],[90.019,32.41],[90.017,32.406],[90.013,32.401],[90.003,32.405],[89.986,32.416],[89.94,32.409],[89.88,32.41],[89.873,32.413],[89.874,32.44],[89.877,32.452],[89.884,32.457],[89.894,32.458],[89.899,32.463],[89.903,32.469],[89.915,32.478],[89.927,32.484],[89.955,32.492],[89.969,32.498],[89.988,32.514],[89.999,32.522],[90.014,32.526],[90.025,32.521],[90.04,32.497],[90.048,32.492]]]}},{"type":"Feature","properties":{"name":""},"geometry":{"type":"Polygon","coordinates":[[[90.924,32.133],[90.935,32.111],[90.946,32.034],[90.942,32.023],[90.925,32.019],[90.91,32.019],[90.898,32.02],[90.888,32.025],[90.881,32.033],[90.881,32.025],[90.853,32.046],[90.761,32.05],[90.729,32.067],[90.741,32.076],[90.777,32.094],[90.785,32.103],[90.79,32.115],[90.799,32.125],[90.829,32.132],[90.836,32.14],[90.842,32.149],[90.853,32.155],[90.868,32.155],[90.892,32.145],[90.905,32.142],[90.924,32.133]]]}},{"type":"Feature","properties":{"name":""},"geometry":{"type":"Polygon","coordinates":[[[88.818,31.663],[88.827,31.648],[88.833,31.622],[88.831,31.597],[88.815,31.587],[88.814,31.574],[88.81,31.546],[88.8,31.518],[88.78,31.505],[88.755,31.503],[88.736,31.494],[88.727,31.475],[88.728,31.444],[88.741,31.418],[88.745,31.405],[88.739,31.392],[88.732,31.382],[88.715,31.34],[88.708,31.349],[88.703,31.369],[88.694,31.381],[88.713,31.399],[88.721,31.41],[88.719,31.419],[88.708,31.425],[88.698,31.429],[88.691,31.435],[88.694,31.444],[88.694,31.463],[88.688,31.488],[88.678,31.509],[88.656,31.523],[88.648,31.534],[88.642,31.547],[88.639,31.556],[88.634,31.559],[88.599,31.559],[88.611,31.574],[88.63,31.574],[88.648,31.567],[88.66,31.559],[88.665,31.55],[88.668,31.542],[88.672,31.533],[88.681,31.525],[88.691,31.521],[88.702,31.519],[88.725,31.519],[88.73,31.528],[88.72,31.549],[88.705,31.57],[88.691,31.58],[88.67,31.582],[88.628,31.592],[88.605,31.594],[88.621,31.612],[88.646,31.626],[88.674,31.634],[88.702,31.635],[88.686,31.658],[88.681,31.671],[88.691,31.676],[88.701,31.673],[88.711,31.667],[88.725,31.652],[88.743,31.647],[88.77,31.65],[88.818,31.663]]]}},{"type":"Feature","properties":{"name":"Gyaring Co"},"geometry":{"type":"Polygon","coordinates":[[[88.567,31.068],[88.576,31.053],[88.581,31.036],[88.575,31.022],[88.547,30.994],[88.54,30.99],[88.518,30.987],[88.509,30.984],[88.473,30.995],[88.468,31.001],[88.466,31.015],[88.458,31.025],[88.446,31.03],[88.4,31.036],[88.377,31.047],[88.364,31.07],[88.359,31.104],[88.347,31.116],[88.257,31.169],[88.245,31.171],[88.215,31.17],[88.19,31.165],[88.181,31.169],[88.173,31.183],[88.124,31.231],[88.109,31.238],[88.104,31.243],[88.079,31.277],[88.067,31.282],[88.053,31.287],[88.043,31.292],[88.032,31.312],[88.044,31.317],[88.11,31.309],[88.129,31.299],[88.16,31.278],[88.461,31.135],[88.536,31.096],[88.557,31.08],[88.567,31.068]]]}},{"type":"Feature","properties":{"name":"Ngangzi Co"},"geometry":{"type":"Polygon","coordinates":[[[87.291,31.073],[87.303,31.06],[87.308,31.01],[87.277,30.999],[87.194,31.011],[87.154,31.004],[87.12,30.988],[87.064,30.943],[87.042,30.92],[87.027,30.909],[87.008,30.902],[86.989,30.902],[86.972,30.908],[86.962,30.92],[86.968,30.936],[86.98,30.957],[86.981,30.964],[86.979,30.974],[86.97,30.989],[86.968,31.001],[86.972,31.026],[86.983,31.039],[87.046,31.061],[87.061,31.07],[87.097,31.105],[87.113,31.112],[87.122,31.118],[87.129,31.127],[87.134,31.136],[87.14,31.144],[87.153,31.148],[87.169,31.144],[87.208,31.12],[87.225,31.114],[87.243,31.107],[87.291,31.073]]]}},{"type":"Feature","properties":{"name":""},"geometry":{"type":"Polygon","coordinates":[[[86.333,30.582],[86.327,30.573],[86.319,30.571],[86.303,30.562],[86.292,30.56],[86.284,30.564],[86.277,30.573],[86.275,30.587],[86.263,30.614],[86.255,30.618],[86.207,30.624],[86.2,30.628],[86.192,30.638],[86.188,30.657],[86.175,30.68],[86.173,30.698],[86.176,30.715],[86.183,30.727],[86.229,30.721],[86.241,30.717],[86.253,30.702],[86.263,30.663],[86.275,30.648],[86.292,30.648],[86.312,30.655],[86.329,30.655],[86.337,30.638],[86.336,30.601],[86.333,30.582]]]}},{"type":"Feature","properties":{"name":""},"geometry":{"type":"Polygon","coordinates":[[[86.463,30.372],[86.467,30.36],[86.468,30.35],[86.463,30.332],[86.459,30.303],[86.434,30.24],[86.433,30.234],[86.436,30.2],[86.433,30.189],[86.42,30.169],[86.407,30.168],[86.392,30.176],[86.378,30.189],[86.361,30.199],[86.354,30.205],[86.351,30.213],[86.35,30.233],[86.348,30.242],[86.344,30.25],[86.34,30.262],[86.32,30.304],[86.32,30.316],[86.337,30.347],[86.349,30.361],[86.385,30.373],[86.406,30.383],[86.427,30.389],[86.443,30.384],[86.451,30.378],[86.458,30.376],[86.463,30.372]]]}},{"type":"Feature","properties":{"name":""},"geometry":{"type":"Polygon","coordinates":[[[83.951,31.288],[83.947,31.294],[83.945,31.302],[83.945,31.313],[83.983,31.309],[83.973,31.332],[83.957,31.361],[83.976,31.375],[84.01,31.392],[84.018,31.392],[84.048,31.381],[84.068,31.379],[84.085,31.382],[84.091,31.39],[84.076,31.402],[84.056,31.396],[84.033,31.404],[84.015,31.418],[84.007,31.433],[84.005,31.439],[84.0,31.442],[83.995,31.444],[83.993,31.446],[83.994,31.452],[83.997,31.456],[83.999,31.458],[84.014,31.498],[84.049,31.514],[84.078,31.491],[84.1,31.45],[84.11,31.409],[84.109,31.383],[84.11,31.375],[84.123,31.354],[84.126,31.342],[84.12,31.33],[84.1,31.322],[84.06,31.329],[84.041,31.32],[84.032,31.302],[84.031,31.281],[84.025,31.265],[84.003,31.258],[83.993,31.256],[83.983,31.252],[83.972,31.251],[83.963,31.255],[83.96,31.261],[83.963,31.276],[83.959,31.285],[83.951,31.288]]]}},{"type":"Feature","properties":{"name":""},"geometry":{"type":"Polygon","coordinates":[[[84.316,31.19],[84.33,31.183],[84.33,31.172],[84.322,31.159],[84.313,31.147],[84.303,31.127],[84.291,31.119],[84.261,31.107],[84.204,31.073],[84.176,31.066],[84.151,31.08],[84.127,31.071],[84.099,31.067],[84.055,31.066],[84.05,31.073],[84.045,31.078],[84.038,31.08],[84.031,31.079],[84.02,31.075],[83.978,31.065],[83.966,31.06],[83.965,31.068],[83.959,31.086],[83.931,31.126],[83.925,31.142],[83.943,31.188],[83.948,31.196],[84.013,31.208],[84.044,31.205],[84.069,31.183],[84.096,31.204],[84.129,31.21],[84.211,31.2],[84.241,31.192],[84.257,31.189],[84.296,31.192],[84.316,31.19]]]}},{"type":"Feature","properties":{"name":""},"geometry":{"type":"Polygon","coordinates":[[[83.642,30.936],[83.64,30.929],[83.644,30.878],[83.637,30.881],[83.621,30.875],[83.604,30.865],[83.592,30.857],[83.587,30.844],[83.578,30.807],[83.572,30.799],[83.555,30.801],[83.544,30.807],[83.536,30.817],[83.527,30.833],[83.519,30.866],[83.524,30.896],[83.538,30.922],[83.573,30.969],[83.584,30.976],[83.603,30.977],[83.616,30.968],[83.632,30.952],[83.642,30.936]]]}},{"type":"Feature","properties":{"name":""},"geometry":{"type":"Polygon","coordinates":[[[83.528,31.264],[83.5,31.244],[83.497,31.235],[83.499,31.226],[83.499,31.219],[83.49,31.217],[83.463,31.216],[83.452,31.217],[83.442,31.216],[83.433,31.219],[83.427,31.225],[83.422,31.243],[83.415,31.245],[83.406,31.246],[83.397,31.252],[83.398,31.256],[83.398,31.265],[83.395,31.274],[83.387,31.278],[83.376,31.276],[83.358,31.268],[83.349,31.265],[83.328,31.265],[83.325,31.272],[83.332,31.282],[83.358,31.305],[83.374,31.316],[83.449,31.348],[83.467,31.351],[83.487,31.347],[83.5,31.34],[83.518,31.327],[83.533,31.313],[83.541,31.299],[83.54,31.277],[83.528,31.264]]]}},{"type":"Feature","properties":{"name":""},"geometry":{"type":"Polygon","coordinates":[[[84.819,30.224],[84.856,30.201],[84.863,30.154],[84.848,30.113],[84.828,30.108],[84.801,30.122],[84.796,30.127],[84.793,30.139],[84.794,30.149],[84.796,30.159],[84.796,30.169],[84.779,30.209],[84.718,30.312],[84.705,30.348],[84.72,30.368],[84.731,30.358],[84.751,30.329],[84.761,30.319],[84.816,30.234],[84.819,30.224]]]}},{"type":"Feature","properties":{"name":""},"geometry":{"type":"Polygon","coordinates":[[[84.83,30.107],[84.823,30.107],[84.828,30.108],[84.83,30.107]]]}},{"type":"Feature","properties":{"name":""},"geometry":{"type":"Polygon","coordinates":[[[85.744,29.891],[85.754,29.875],[85.754,29.858],[85.741,29.795],[85.722,29.774],[85.696,29.759],[85.666,29.751],[85.672,29.785],[85.672,29.779],[85.688,29.85],[85.692,29.859],[85.694,29.868],[85.686,29.883],[85.682,29.893],[85.679,29.912],[85.674,29.924],[85.657,29.953],[85.658,29.963],[85.678,29.969],[85.691,29.954],[85.699,29.936],[85.7,29.929],[85.71,29.914],[85.72,29.906],[85.744,29.891]]]}},{"type":"Feature","properties":{"name":"Alesayqin Ha"},"geometry":{"type":"Polygon","coordinates":[[[79.884,35.268],[79.896,35.249],[79.91,35.223],[79.905,35.192],[79.889,35.166],[79.868,35.154],[79.853,35.155],[79.832,35.158],[79.813,35.164],[79.806,35.171],[79.804,35.176],[79.801,35.181],[79.799,35.187],[79.799,35.195],[79.802,35.201],[79.811,35.209],[79.812,35.215],[79.795,35.23],[79.767,35.243],[79.749,35.259],[79.765,35.284],[79.794,35.296],[79.835,35.3],[79.876,35.296],[79.902,35.284],[79.887,35.278],[79.881,35.277],[79.884,35.268]]]}},{"type":"Feature","properties":{"name":"Puma Yumco"},"geometry":{"type":"Polygon","coordinates":[[[90.266,28.625],[90.33,28.621],[90.348,28.625],[90.358,28.626],[90.366,28.623],[90.373,28.619],[90.38,28.616],[90.386,28.616],[90.397,28.626],[90.405,28.628],[90.437,28.626],[90.458,28.62],[90.5,28.593],[90.514,28.578],[90.519,28.576],[90.523,28.575],[90.527,28.572],[90.531,28.568],[90.532,28.564],[90.534,28.531],[90.532,28.527],[90.529,28.524],[90.524,28.522],[90.51,28.524],[90.472,28.519],[90.465,28.52],[90.46,28.523],[90.451,28.532],[90.446,28.532],[90.441,28.53],[90.427,28.518],[90.421,28.515],[90.415,28.513],[90.406,28.515],[90.397,28.517],[90.39,28.521],[90.389,28.524],[90.393,28.528],[90.396,28.532],[90.396,28.535],[90.392,28.536],[90.386,28.535],[90.382,28.535],[90.378,28.538],[90.373,28.545],[90.37,28.546],[90.366,28.546],[90.355,28.537],[90.352,28.538],[90.351,28.544],[90.347,28.551],[90.342,28.553],[90.335,28.551],[90.323,28.538],[90.317,28.534],[90.312,28.533],[90.302,28.538],[90.287,28.542],[90.283,28.543],[90.276,28.549],[90.274,28.552],[90.273,28.555],[90.273,28.557],[90.272,28.559],[90.259,28.568],[90.254,28.573],[90.244,28.589],[90.241,28.591],[90.237,28.592],[90.233,28.594],[90.233,28.597],[90.241,28.621],[90.249,28.625],[90.266,28.625]]]}},{"type":"Feature","properties":{"name":"Krishna Raja Sagar"},"geometry":{"type":"Polygon","coordinates":[[[76.555,12.447],[76.565,12.444],[76.57,12.436],[76.57,12.427],[76.565,12.42],[76.558,12.421],[76.511,12.441],[76.49,12.446],[76.471,12.444],[76.456,12.433],[76.454,12.448],[76.461,12.464],[76.463,12.477],[76.446,12.482],[76.432,12.492],[76.429,12.511],[76.435,12.522],[76.449,12.509],[76.454,12.498],[76.484,12.467],[76.494,12.461],[76.513,12.466],[76.521,12.465],[76.525,12.458],[76.53,12.457],[76.552,12.449],[76.555,12.447]]]}},{"type":"Feature","properties":{"name":""},"geometry":{"type":"Polygon","coordinates":[[[80.81,7.278],[80.814,7.28],[80.812,7.272],[80.812,7.266],[80.814,7.261],[80.809,7.249],[80.807,7.233],[80.796,7.237],[80.787,7.242],[80.773,7.253],[80.78,7.243],[80.793,7.212],[80.783,7.191],[80.776,7.183],[80.765,7.178],[80.778,7.203],[80.771,7.224],[80.757,7.229],[80.745,7.212],[80.736,7.214],[80.727,7.21],[80.718,7.212],[80.715,7.215],[80.713,7.221],[80.709,7.226],[80.697,7.226],[80.705,7.232],[80.712,7.236],[80.719,7.236],[80.725,7.233],[80.738,7.246],[80.747,7.241],[80.751,7.244],[80.751,7.25],[80.749,7.253],[80.738,7.254],[80.731,7.256],[80.725,7.259],[80.697,7.266],[80.678,7.274],[80.664,7.287],[80.656,7.308],[80.663,7.301],[80.675,7.292],[80.692,7.284],[80.743,7.266],[80.75,7.267],[80.752,7.277],[80.757,7.281],[80.768,7.276],[80.78,7.267],[80.787,7.261],[80.785,7.274],[80.78,7.281],[80.765,7.294],[80.76,7.303],[80.745,7.335],[80.752,7.334],[80.758,7.33],[80.763,7.325],[80.765,7.318],[80.767,7.31],[80.77,7.309],[80.774,7.31],[80.779,7.308],[80.789,7.301],[80.798,7.296],[80.802,7.289],[80.8,7.274],[80.81,7.278]]]}},{"type":"Feature","properties":{"name":"Bhadra Reservoir"},"geometry":{"type":"Polygon","coordinates":[[[75.627,13.716],[75.634,13.708],[75.647,13.667],[75.645,13.647],[75.616,13.677],[75.606,13.667],[75.596,13.672],[75.585,13.671],[75.573,13.668],[75.557,13.667],[75.557,13.66],[75.573,13.65],[75.577,13.632],[75.578,13.592],[75.584,13.566],[75.579,13.553],[75.557,13.545],[75.557,13.537],[75.572,13.53],[75.557,13.524],[75.546,13.516],[75.538,13.506],[75.531,13.496],[75.533,13.518],[75.542,13.539],[75.555,13.558],[75.572,13.571],[75.565,13.581],[75.562,13.588],[75.559,13.596],[75.557,13.606],[75.552,13.606],[75.545,13.596],[75.535,13.588],[75.51,13.571],[75.529,13.609],[75.525,13.619],[75.496,13.619],[75.496,13.627],[75.511,13.631],[75.527,13.642],[75.539,13.654],[75.544,13.664],[75.549,13.7],[75.555,13.716],[75.564,13.715],[75.571,13.724],[75.577,13.727],[75.583,13.726],[75.591,13.722],[75.607,13.723],[75.618,13.721],[75.627,13.716]]]}},{"type":"Feature","properties":{"name":"Tungabhadra"},"geometry":{"type":"Polygon","coordinates":[[[76.313,15.281],[76.333,15.256],[76.335,15.236],[76.322,15.226],[76.303,15.218],[76.284,15.209],[76.3,15.194],[76.291,15.19],[76.26,15.195],[76.248,15.19],[76.229,15.169],[76.215,15.161],[76.205,15.168],[76.2,15.178],[76.196,15.188],[76.188,15.195],[76.176,15.2],[76.171,15.198],[76.167,15.194],[76.161,15.189],[76.119,15.175],[76.115,15.166],[76.109,15.145],[76.103,15.14],[76.07,15.14],[76.065,15.137],[76.063,15.13],[76.059,15.122],[76.053,15.116],[76.048,15.113],[76.04,15.115],[76.026,15.125],[76.021,15.127],[76.01,15.126],[75.995,15.122],[75.983,15.12],[75.923,15.122],[75.914,15.12],[75.907,15.113],[75.898,15.096],[75.894,15.093],[75.884,15.097],[75.88,15.106],[75.88,15.13],[75.885,15.143],[75.894,15.145],[75.903,15.144],[75.908,15.15],[75.91,15.157],[75.918,15.16],[75.938,15.161],[75.941,15.163],[75.943,15.168],[75.946,15.172],[75.952,15.175],[75.955,15.173],[75.957,15.171],[75.96,15.169],[75.966,15.168],[75.974,15.172],[75.977,15.18],[75.977,15.191],[75.976,15.202],[75.983,15.202],[75.986,15.186],[75.992,15.172],[76.001,15.163],[76.017,15.161],[76.028,15.166],[76.059,15.184],[76.065,15.185],[76.069,15.195],[76.089,15.213],[76.093,15.226],[76.09,15.275],[76.093,15.284],[76.113,15.267],[76.119,15.264],[76.127,15.263],[76.174,15.264],[76.182,15.262],[76.187,15.258],[76.193,15.257],[76.202,15.264],[76.21,15.256],[76.219,15.256],[76.226,15.262],[76.229,15.274],[76.225,15.302],[76.228,15.311],[76.243,15.305],[76.264,15.29],[76.289,15.287],[76.313,15.281]]]}},{"type":"Feature","properties":{"name":"Tarbela Dam"},"geometry":{"type":"Polygon","coordinates":[[[73.004,34.083],[73.019,34.078],[73.02,34.063],[73.0,34.051],[72.958,34.037],[72.93,34.015],[72.914,34.012],[72.891,34.02],[72.88,34.031],[72.874,34.045],[72.871,34.061],[72.865,34.075],[72.851,34.089],[72.834,34.097],[72.814,34.101],[72.793,34.102],[72.775,34.096],[72.747,34.073],[72.731,34.067],[72.716,34.077],[72.697,34.096],[72.689,34.115],[72.757,34.139],[72.78,34.151],[72.789,34.167],[72.793,34.18],[72.813,34.19],[72.817,34.201],[72.816,34.225],[72.814,34.237],[72.81,34.246],[72.826,34.269],[72.834,34.293],[72.837,34.345],[72.834,34.352],[72.821,34.377],[72.817,34.39],[72.816,34.405],[72.817,34.419],[72.816,34.432],[72.81,34.445],[72.83,34.473],[72.831,34.487],[72.827,34.491],[72.82,34.491],[72.776,34.5],[72.768,34.506],[72.768,34.52],[72.775,34.531],[72.784,34.54],[72.79,34.554],[72.793,34.556],[72.795,34.559],[72.796,34.565],[72.794,34.571],[72.784,34.579],[72.775,34.602],[72.774,34.614],[72.782,34.623],[72.796,34.618],[72.811,34.597],[72.821,34.573],[72.82,34.558],[72.81,34.545],[72.801,34.528],[72.8,34.512],[72.813,34.506],[72.84,34.503],[72.851,34.495],[72.85,34.481],[72.844,34.459],[72.837,34.415],[72.838,34.392],[72.847,34.382],[72.859,34.373],[72.879,34.308],[72.863,34.278],[72.859,34.264],[72.857,34.243],[72.859,34.223],[72.863,34.209],[72.879,34.178],[72.869,34.157],[72.877,34.139],[72.894,34.129],[72.909,34.133],[72.924,34.143],[72.945,34.149],[72.965,34.148],[72.981,34.137],[72.968,34.12],[72.954,34.11],[72.944,34.101],[72.947,34.088],[72.964,34.078],[73.004,34.083]]]}},{"type":"Feature","properties":{"name":"Gobind Sagar Reservoir"},"geometry":{"type":"Polygon","coordinates":[[[76.766,31.261],[76.779,31.24],[76.784,31.217],[76.762,31.234],[76.726,31.293],[76.705,31.306],[76.703,31.3],[76.698,31.273],[76.696,31.265],[76.685,31.26],[76.671,31.257],[76.648,31.258],[76.639,31.262],[76.621,31.267],[76.613,31.271],[76.606,31.277],[76.599,31.286],[76.545,31.338],[76.538,31.35],[76.532,31.354],[76.494,31.388],[76.482,31.394],[76.47,31.406],[76.456,31.418],[76.435,31.422],[76.443,31.429],[76.407,31.498],[76.385,31.523],[76.373,31.532],[76.359,31.539],[76.371,31.551],[76.37,31.567],[76.362,31.585],[76.353,31.6],[76.372,31.592],[76.384,31.572],[76.392,31.548],[76.404,31.528],[76.429,31.5],[76.444,31.488],[76.462,31.484],[76.459,31.467],[76.467,31.458],[76.477,31.451],[76.483,31.44],[76.489,31.438],[76.516,31.411],[76.553,31.366],[76.562,31.361],[76.6,31.322],[76.606,31.31],[76.611,31.299],[76.622,31.289],[76.636,31.282],[76.648,31.278],[76.666,31.279],[76.678,31.286],[76.681,31.295],[76.672,31.299],[76.667,31.304],[76.612,31.351],[76.579,31.388],[76.586,31.395],[76.597,31.38],[76.617,31.365],[76.64,31.357],[76.661,31.361],[76.66,31.349],[76.664,31.34],[76.67,31.332],[76.675,31.32],[76.698,31.321],[76.721,31.313],[76.736,31.316],[76.736,31.347],[76.742,31.359],[76.742,31.365],[76.733,31.368],[76.725,31.369],[76.718,31.372],[76.715,31.378],[76.719,31.385],[76.729,31.394],[76.739,31.402],[76.751,31.407],[76.765,31.409],[76.757,31.402],[76.751,31.395],[76.746,31.388],[76.744,31.381],[76.752,31.387],[76.76,31.389],[76.769,31.387],[76.778,31.381],[76.761,31.361],[76.751,31.314],[76.736,31.299],[76.766,31.261]]]}},{"type":"Feature","properties":{"name":"Hinakud Dam"},"geometry":{"type":"Polygon","coordinates":[[[83.991,21.657],[84.018,21.628],[84.035,21.616],[83.977,21.566],[83.94,21.547],[83.911,21.555],[83.89,21.546],[83.87,21.534],[83.855,21.518],[83.85,21.496],[83.843,21.482],[83.826,21.481],[83.805,21.489],[83.788,21.499],[83.747,21.572],[83.721,21.606],[83.691,21.603],[83.685,21.603],[83.678,21.622],[83.686,21.628],[83.699,21.631],[83.706,21.64],[83.699,21.656],[83.671,21.679],[83.665,21.695],[83.59,21.719],[83.575,21.726],[83.54,21.709],[83.531,21.697],[83.527,21.675],[83.52,21.66],[83.484,21.625],[83.473,21.609],[83.456,21.63],[83.391,21.682],[83.377,21.684],[83.346,21.681],[83.314,21.683],[83.295,21.699],[83.397,21.701],[83.411,21.699],[83.427,21.689],[83.459,21.663],[83.476,21.658],[83.489,21.663],[83.499,21.676],[83.505,21.692],[83.507,21.702],[83.507,21.722],[83.506,21.734],[83.498,21.742],[83.479,21.754],[83.492,21.76],[83.507,21.759],[83.519,21.754],[83.527,21.747],[83.536,21.764],[83.547,21.781],[83.558,21.768],[83.611,21.769],[83.63,21.76],[83.637,21.76],[83.644,21.781],[83.653,21.776],[83.664,21.762],[83.675,21.754],[83.695,21.752],[83.702,21.746],[83.708,21.737],[83.719,21.726],[83.73,21.732],[83.738,21.731],[83.746,21.728],[83.757,21.726],[83.768,21.722],[83.765,21.715],[83.754,21.702],[83.759,21.684],[83.771,21.661],[83.784,21.649],[83.795,21.664],[83.819,21.642],[83.829,21.636],[83.836,21.644],[83.821,21.655],[83.812,21.664],[83.809,21.671],[83.815,21.677],[83.85,21.692],[83.852,21.674],[83.863,21.673],[83.872,21.682],[83.871,21.699],[83.881,21.697],[83.891,21.694],[83.898,21.689],[83.905,21.685],[83.901,21.674],[83.897,21.636],[83.894,21.636],[83.886,21.629],[83.882,21.62],[83.887,21.616],[83.897,21.616],[83.901,21.615],[83.905,21.603],[83.916,21.609],[83.927,21.614],[83.935,21.612],[83.938,21.599],[83.942,21.598],[83.947,21.603],[83.95,21.615],[83.945,21.63],[83.958,21.646],[83.951,21.682],[83.925,21.747],[83.923,21.751],[83.915,21.757],[83.909,21.765],[83.905,21.774],[83.918,21.777],[83.934,21.775],[83.947,21.768],[83.952,21.757],[83.958,21.74],[83.97,21.732],[83.984,21.726],[83.993,21.713],[84.013,21.717],[84.019,21.705],[84.015,21.693],[84.003,21.695],[83.987,21.706],[83.983,21.697],[83.983,21.68],[83.98,21.664],[83.991,21.657]]]}},{"type":"Feature","properties":{"name":"Nagarjuna Sagar Dam"},"geometry":{"type":"Polygon","coordinates":[[[79.314,16.596],[79.321,16.58],[79.313,16.58],[79.319,16.56],[79.305,16.549],[79.269,16.535],[79.265,16.527],[79.267,16.506],[79.265,16.497],[79.256,16.491],[79.246,16.49],[79.235,16.491],[79.224,16.49],[79.224,16.484],[79.23,16.482],[79.239,16.479],[79.245,16.477],[79.24,16.466],[79.227,16.45],[79.224,16.439],[79.225,16.416],[79.222,16.405],[79.217,16.395],[79.225,16.378],[79.235,16.364],[79.259,16.34],[79.232,16.315],[79.227,16.271],[79.214,16.228],[79.166,16.209],[79.153,16.211],[79.121,16.223],[79.083,16.223],[79.073,16.226],[79.048,16.24],[79.039,16.244],[79.026,16.243],[79.017,16.24],[78.997,16.23],[79.005,16.248],[79.014,16.253],[79.042,16.251],[79.051,16.249],[79.066,16.239],[79.073,16.237],[79.082,16.237],[79.097,16.243],[79.104,16.244],[79.136,16.238],[79.163,16.228],[79.188,16.226],[79.211,16.244],[79.221,16.267],[79.226,16.297],[79.224,16.327],[79.214,16.35],[79.202,16.359],[79.156,16.381],[79.121,16.413],[79.107,16.422],[79.152,16.405],[79.171,16.392],[79.19,16.374],[79.194,16.384],[79.196,16.415],[79.209,16.448],[79.211,16.456],[79.209,16.47],[79.203,16.472],[79.197,16.472],[79.19,16.477],[79.184,16.492],[79.186,16.498],[79.192,16.501],[79.196,16.511],[79.198,16.52],[79.199,16.521],[79.195,16.519],[79.142,16.518],[79.124,16.522],[79.108,16.531],[79.102,16.543],[79.115,16.559],[79.105,16.568],[79.056,16.594],[79.048,16.601],[79.032,16.621],[79.057,16.617],[79.081,16.603],[79.104,16.594],[79.128,16.6],[79.134,16.589],[79.144,16.581],[79.156,16.575],[79.169,16.573],[79.166,16.584],[79.164,16.602],[79.165,16.617],[79.173,16.617],[79.181,16.604],[79.185,16.576],[79.19,16.565],[79.2,16.561],[79.208,16.569],[79.221,16.59],[79.231,16.596],[79.255,16.6],[79.265,16.606],[79.259,16.617],[79.236,16.625],[79.224,16.634],[79.234,16.634],[79.24,16.636],[79.251,16.642],[79.237,16.655],[79.245,16.662],[79.259,16.657],[79.275,16.657],[79.288,16.654],[79.293,16.638],[79.296,16.623],[79.314,16.596]]]}},{"type":"Feature","properties":{"name":"Kaptai Lake"},"geometry":{"type":"Polygon","coordinates":[[[92.329,22.711],[92.334,22.706],[92.388,22.665],[92.369,22.653],[92.357,22.65],[92.347,22.651],[92.347,22.657],[92.337,22.686],[92.334,22.689],[92.328,22.692],[92.298,22.693],[92.288,22.695],[92.276,22.703],[92.264,22.704],[92.254,22.699],[92.244,22.692],[92.244,22.685],[92.258,22.676],[92.274,22.659],[92.299,22.623],[92.291,22.624],[92.284,22.626],[92.278,22.628],[92.272,22.631],[92.278,22.644],[92.261,22.653],[92.251,22.656],[92.238,22.658],[92.24,22.645],[92.245,22.635],[92.258,22.617],[92.254,22.618],[92.242,22.622],[92.238,22.623],[92.238,22.61],[92.226,22.615],[92.219,22.612],[92.22,22.606],[92.234,22.603],[92.24,22.596],[92.234,22.58],[92.224,22.563],[92.217,22.555],[92.231,22.548],[92.242,22.551],[92.25,22.56],[92.252,22.575],[92.258,22.575],[92.261,22.554],[92.271,22.54],[92.274,22.53],[92.258,22.521],[92.275,22.518],[92.287,22.525],[92.298,22.537],[92.313,22.548],[92.31,22.543],[92.31,22.54],[92.309,22.538],[92.305,22.535],[92.305,22.528],[92.325,22.528],[92.343,22.509],[92.361,22.507],[92.352,22.5],[92.346,22.486],[92.339,22.476],[92.33,22.477],[92.318,22.484],[92.31,22.488],[92.303,22.493],[92.299,22.507],[92.285,22.5],[92.287,22.499],[92.289,22.499],[92.29,22.498],[92.292,22.494],[92.284,22.497],[92.267,22.506],[92.258,22.507],[92.251,22.502],[92.246,22.495],[92.246,22.487],[92.252,22.48],[92.252,22.473],[92.239,22.47],[92.225,22.472],[92.218,22.478],[92.225,22.487],[92.219,22.495],[92.214,22.499],[92.207,22.501],[92.197,22.5],[92.197,22.507],[92.205,22.508],[92.218,22.513],[92.23,22.516],[92.237,22.521],[92.239,22.526],[92.234,22.528],[92.224,22.531],[92.21,22.536],[92.197,22.543],[92.19,22.548],[92.185,22.562],[92.185,22.575],[92.181,22.585],[92.166,22.589],[92.159,22.596],[92.149,22.63],[92.142,22.644],[92.152,22.636],[92.159,22.626],[92.169,22.603],[92.176,22.603],[92.178,22.62],[92.172,22.647],[92.176,22.658],[92.179,22.653],[92.19,22.644],[92.188,22.656],[92.181,22.663],[92.17,22.666],[92.155,22.665],[92.155,22.685],[92.164,22.683],[92.169,22.682],[92.173,22.679],[92.176,22.672],[92.183,22.685],[92.181,22.693],[92.173,22.697],[92.159,22.699],[92.15,22.701],[92.137,22.716],[92.128,22.72],[92.134,22.721],[92.155,22.726],[92.148,22.734],[92.146,22.739],[92.146,22.742],[92.148,22.747],[92.136,22.75],[92.123,22.749],[92.113,22.75],[92.108,22.761],[92.114,22.761],[92.114,22.767],[92.094,22.767],[92.094,22.775],[92.114,22.782],[92.114,22.788],[92.111,22.794],[92.105,22.801],[92.097,22.806],[92.086,22.808],[92.088,22.813],[92.092,22.825],[92.094,22.83],[92.086,22.831],[92.073,22.835],[92.066,22.836],[92.066,22.843],[92.077,22.849],[92.079,22.857],[92.074,22.865],[92.066,22.87],[92.066,22.877],[92.073,22.877],[92.073,22.884],[92.07,22.889],[92.061,22.903],[92.06,22.908],[92.058,22.912],[92.047,22.913],[92.042,22.915],[92.038,22.921],[92.04,22.925],[92.043,22.93],[92.045,22.935],[92.044,22.95],[92.033,22.991],[92.025,23.008],[92.03,23.011],[92.032,23.015],[92.031,23.021],[92.032,23.028],[92.037,22.992],[92.05,22.944],[92.071,22.902],[92.1,22.884],[92.088,22.868],[92.094,22.857],[92.107,22.847],[92.114,22.833],[92.118,22.82],[92.129,22.807],[92.143,22.796],[92.155,22.788],[92.141,22.782],[92.134,22.782],[92.142,22.772],[92.162,22.759],[92.169,22.747],[92.167,22.743],[92.162,22.733],[92.182,22.727],[92.199,22.71],[92.211,22.687],[92.217,22.665],[92.228,22.666],[92.238,22.665],[92.238,22.679],[92.232,22.687],[92.224,22.692],[92.217,22.699],[92.213,22.706],[92.204,22.733],[92.21,22.733],[92.219,22.714],[92.227,22.706],[92.238,22.699],[92.247,22.708],[92.256,22.712],[92.262,22.717],[92.265,22.73],[92.262,22.737],[92.248,22.75],[92.244,22.761],[92.252,22.761],[92.256,22.758],[92.257,22.757],[92.26,22.756],[92.265,22.754],[92.256,22.767],[92.254,22.773],[92.252,22.782],[92.238,22.774],[92.234,22.784],[92.234,22.802],[92.23,22.816],[92.225,22.816],[92.221,22.81],[92.218,22.808],[92.214,22.806],[92.21,22.802],[92.219,22.824],[92.225,22.83],[92.214,22.834],[92.203,22.833],[92.193,22.829],[92.182,22.823],[92.188,22.83],[92.195,22.836],[92.202,22.84],[92.21,22.843],[92.182,22.843],[92.182,22.849],[92.2,22.853],[92.199,22.862],[92.189,22.874],[92.176,22.884],[92.181,22.891],[92.187,22.903],[92.188,22.913],[92.179,22.918],[92.173,22.923],[92.166,22.945],[92.162,22.953],[92.173,22.953],[92.178,22.947],[92.182,22.938],[92.19,22.932],[92.202,22.933],[92.203,22.939],[92.198,22.948],[92.19,22.953],[92.19,22.959],[92.204,22.971],[92.197,22.981],[92.18,22.99],[92.162,22.994],[92.162,23.0],[92.176,23.0],[92.17,23.006],[92.166,23.013],[92.165,23.02],[92.169,23.028],[92.175,23.027],[92.196,23.018],[92.197,23.014],[92.198,23.014],[92.206,23.014],[92.21,23.014],[92.21,23.018],[92.217,23.041],[92.222,23.042],[92.224,23.04],[92.224,23.038],[92.225,23.035],[92.227,23.024],[92.233,23.021],[92.242,23.023],[92.252,23.028],[92.244,23.003],[92.241,22.997],[92.233,22.993],[92.225,22.994],[92.219,22.993],[92.217,22.983],[92.221,22.966],[92.229,22.963],[92.24,22.964],[92.252,22.959],[92.238,22.953],[92.238,22.946],[92.242,22.942],[92.252,22.932],[92.234,22.94],[92.229,22.935],[92.232,22.924],[92.238,22.912],[92.244,22.912],[92.247,22.914],[92.254,22.916],[92.258,22.918],[92.253,22.898],[92.258,22.882],[92.266,22.865],[92.272,22.843],[92.272,22.812],[92.271,22.805],[92.268,22.797],[92.267,22.787],[92.272,22.775],[92.278,22.775],[92.279,22.781],[92.285,22.795],[92.299,22.761],[92.302,22.77],[92.302,22.78],[92.299,22.802],[92.305,22.802],[92.307,22.787],[92.314,22.776],[92.334,22.761],[92.334,22.754],[92.319,22.749],[92.307,22.74],[92.299,22.726],[92.299,22.706],[92.307,22.711],[92.317,22.713],[92.329,22.711]]]}},{"type":"Feature","properties":{"name":"Stanley Reservoir"},"geometry":{"type":"Polygon","coordinates":[[[77.892,11.929],[77.901,11.934],[77.909,11.927],[77.906,11.925],[77.905,11.924],[77.903,11.923],[77.901,11.92],[77.902,11.911],[77.889,11.901],[77.853,11.885],[77.848,11.875],[77.836,11.861],[77.831,11.845],[77.847,11.83],[77.835,11.826],[77.826,11.821],[77.817,11.817],[77.805,11.816],[77.791,11.821],[77.779,11.836],[77.765,11.844],[77.775,11.849],[77.794,11.862],[77.802,11.865],[77.812,11.872],[77.817,11.885],[77.814,11.894],[77.799,11.885],[77.797,11.89],[77.793,11.894],[77.792,11.899],[77.777,11.888],[77.763,11.889],[77.73,11.899],[77.736,11.91],[77.737,11.92],[77.733,11.927],[77.723,11.934],[77.707,11.928],[77.691,11.933],[77.674,11.942],[77.655,11.947],[77.66,11.963],[77.669,11.971],[77.679,11.97],[77.69,11.961],[77.692,11.957],[77.703,11.954],[77.714,11.955],[77.723,11.961],[77.735,11.956],[77.74,11.955],[77.747,11.955],[77.755,11.952],[77.757,11.947],[77.757,11.942],[77.758,11.94],[77.765,11.939],[77.774,11.939],[77.78,11.943],[77.784,11.955],[77.792,11.955],[77.793,11.944],[77.799,11.937],[77.812,11.927],[77.819,11.927],[77.829,11.938],[77.843,11.935],[77.859,11.93],[77.874,11.934],[77.88,11.928],[77.885,11.927],[77.892,11.929]]]}},{"type":"Feature","properties":{"name":"Gandhi Sagar Dam"},"geometry":{"type":"Polygon","coordinates":[[[75.61,24.647],[75.635,24.638],[75.647,24.618],[75.638,24.621],[75.628,24.623],[75.619,24.622],[75.612,24.618],[75.609,24.607],[75.614,24.601],[75.622,24.596],[75.626,24.59],[75.626,24.526],[75.622,24.517],[75.588,24.477],[75.588,24.465],[75.607,24.423],[75.612,24.406],[75.594,24.416],[75.58,24.431],[75.571,24.447],[75.564,24.461],[75.554,24.456],[75.547,24.45],[75.53,24.431],[75.527,24.427],[75.525,24.422],[75.525,24.416],[75.522,24.408],[75.516,24.407],[75.509,24.408],[75.503,24.406],[75.468,24.347],[75.452,24.337],[75.437,24.333],[75.433,24.325],[75.432,24.316],[75.428,24.309],[75.417,24.306],[75.383,24.309],[75.366,24.299],[75.374,24.277],[75.4,24.241],[75.387,24.241],[75.388,24.237],[75.392,24.231],[75.393,24.227],[75.382,24.224],[75.372,24.226],[75.361,24.225],[75.346,24.214],[75.338,24.225],[75.341,24.233],[75.349,24.241],[75.353,24.251],[75.35,24.262],[75.343,24.267],[75.336,24.27],[75.332,24.275],[75.333,24.285],[75.336,24.296],[75.337,24.305],[75.328,24.309],[75.31,24.31],[75.304,24.312],[75.298,24.316],[75.304,24.321],[75.31,24.325],[75.317,24.328],[75.344,24.334],[75.37,24.353],[75.408,24.363],[75.422,24.377],[75.428,24.395],[75.421,24.413],[75.456,24.426],[75.464,24.435],[75.448,24.447],[75.464,24.454],[75.508,24.483],[75.517,24.491],[75.52,24.502],[75.528,24.511],[75.544,24.523],[75.549,24.525],[75.561,24.535],[75.568,24.545],[75.561,24.549],[75.55,24.562],[75.547,24.591],[75.55,24.621],[75.557,24.639],[75.581,24.648],[75.61,24.647]]]}},{"type":"Feature","properties":{"name":"Senanayake Samudra"},"geometry":{"type":"Polygon","coordinates":[[[81.49,7.221],[81.537,7.219],[81.547,7.215],[81.545,7.205],[81.53,7.176],[81.528,7.172],[81.527,7.169],[81.527,7.161],[81.525,7.156],[81.519,7.138],[81.516,7.133],[81.506,7.128],[81.504,7.138],[81.506,7.174],[81.504,7.182],[81.498,7.181],[81.486,7.171],[81.48,7.16],[81.474,7.13],[81.468,7.12],[81.448,7.115],[81.434,7.114],[81.424,7.116],[81.435,7.125],[81.459,7.152],[81.468,7.157],[81.472,7.165],[81.469,7.181],[81.457,7.195],[81.438,7.198],[81.428,7.194],[81.408,7.18],[81.4,7.178],[81.389,7.181],[81.383,7.188],[81.382,7.195],[81.386,7.198],[81.406,7.201],[81.437,7.211],[81.458,7.212],[81.45,7.225],[81.447,7.239],[81.451,7.251],[81.464,7.261],[81.464,7.246],[81.472,7.229],[81.49,7.221]]]}}]}