{"type":"FeatureCollection","features":[{"type":"Feature","properties":{"ID_0":105,"ISO":"IND","NAME_0":"India","ID_1":6,"NAME_1":"Chandigarh","ID_2":101,"NAME_2":"Chandigarh","NL_NAME_2":null,"VARNAME_2":null,"TYPE_2":"District","ENGTYPE_2":"District","STATE":"Chandigarh","DISTRICT":"Chandigarh"},"geometry":{"type":"Polygon","coordinates":[[[76.81981,30.68583],[76.81051,30.68495],[76.80592,30.68026],[76.80293,30.67548],[76.79437,30.66932],[76.78931,30.67058],[76.77069,30.67794],[76.74503,30.69046],[76.73848,30.68915],[76.73289,30.69716],[76.73045,30.6975],[76.72749,30.69566],[76.7263,30.69591],[76.72459,30.70379],[76.7261,30.70492],[76.72691,30.70755],[76.72546,30.70999],[76.72155,30.71209],[76.7152,30.7133],[76.71534,30.71498],[76.7176,30.71747],[76.71796,30.72063],[76.71614,30.72863],[76.71116,30.73229],[76.70992,30.73548],[76.70127,30.74529],[76.69546,30.74409],[76.69267,30.74471],[76.69068,30.74666],[76.69332,30.75266],[76.69293,30.75739],[76.69063,30.76008],[76.70786,30.77011],[76.71832,30.76909],[76.72275,30.77072],[76.72924,30.77625],[76.73123,30.77702],[76.73051,30.78101],[76.73515,30.783],[76.73923,30.78608],[76.73822,30.78985],[76.73999,30.79108],[76.74299,30.79148],[76.74575,30.79464],[76.75092,30.79685],[76.75934,30.79904],[76.7676,30.79512],[76.77335,30.7879],[76.77733,30.78546],[76.77629,30.78404],[76.77267,30.78308],[76.7693,30.77698],[76.77557,30.77605],[76.78094,30.77387],[76.78873,30.78097],[76.79613,30.78577],[76.79777,30.78527],[76.80217,30.78183],[76.80388,30.77902],[76.80345,30.7776],[76.79137,30.7695],[76.79314,30.76652],[76.80145,30.76277],[76.81199,30.76664],[76.82819,30.76379],[76.82275,30.74008],[76.82481,30.73082],[76.83438,30.7244],[76.8363,30.71427],[76.82829,30.70595],[76.82111,30.69678],[76.8177,30.69063],[76.81981,30.68583]]]}}],"state":"Chandigarh","source":"geohacker/india (Datameet-derived), Census 2011 boundaries"}