{"type":"FeatureCollection","features":[{"type":"Feature","properties":{"ID_0":105,"ISO":"IND","NAME_0":"India","ID_1":8,"NAME_1":"Dadra and Nagar Haveli","ID_2":118,"NAME_2":"Dadra and Nagar Haveli","NL_NAME_2":null,"VARNAME_2":null,"TYPE_2":"District","ENGTYPE_2":"District","STATE":"Dadra and Nagar Haveli","DISTRICT":"Dadra and Nagar Haveli"},"geometry":{"type":"Polygon","coordinates":[[[72.99046,20.29209],[73.00357,20.29314],[73.01048,20.29237],[73.01729,20.29053],[73.02049,20.2909],[73.0218,20.29275],[73.02217,20.29707],[73.02057,20.30208],[73.02054,20.30752],[73.0176,20.31549],[73.01984,20.3174],[73.02226,20.31585],[73.0247,20.3128],[73.02696,20.3038],[73.02652,20.29412],[73.02979,20.29226],[73.03727,20.2906],[73.04198,20.29023],[73.04417,20.29111],[73.04586,20.29243],[73.04758,20.30445],[73.04768,20.31661],[73.05048,20.323],[73.05512,20.32524],[73.06204,20.32574],[73.06668,20.32608],[73.07151,20.32717],[73.07526,20.32963],[73.08273,20.32912],[73.08629,20.32611],[73.08863,20.32648],[73.0909,20.32684],[73.09741,20.3351],[73.09917,20.33994],[73.10133,20.35604],[73.10213,20.35846],[73.10253,20.35967],[73.10339,20.36036],[73.10542,20.36054],[73.10738,20.36071],[73.11138,20.3561],[73.11425,20.35279],[73.11639,20.34716],[73.11801,20.34287],[73.12146,20.33643],[73.12196,20.33288],[73.11888,20.3262],[73.11651,20.31271],[73.1144,20.31063],[73.11287,20.30494],[73.11566,20.30404],[73.12913,20.30578],[73.13429,20.30533],[73.13931,20.30958],[73.14015,20.31469],[73.14179,20.31746],[73.14732,20.31683],[73.15242,20.31747],[73.1614,20.31719],[73.16552,20.31593],[73.16838,20.3138],[73.17074,20.31053],[73.1771,20.31232],[73.17802,20.31071],[73.17754,20.30907],[73.17711,20.3076],[73.17699,20.30088],[73.17954,20.28986],[73.17888,20.28646],[73.17579,20.28417],[73.17195,20.2825],[73.1691,20.28232],[73.1668,20.28341],[73.16541,20.28703],[73.16129,20.29179],[73.1582,20.29048],[73.15626,20.28743],[73.1552,20.28542],[73.15514,20.28236],[73.15425,20.27935],[73.15356,20.27702],[73.15254,20.27668],[73.14987,20.28012],[73.14696,20.28105],[73.14629,20.28053],[73.14271,20.27529],[73.1426,20.26863],[73.14095,20.26523],[73.13685,20.26047],[73.12804,20.2585],[73.12458,20.25672],[73.11331,20.24418],[73.10852,20.23855],[73.11047,20.23213],[73.10193,20.22894],[73.08755,20.23397],[73.08188,20.23281],[73.07686,20.2298],[73.07037,20.22145],[73.06424,20.20316],[73.06663,20.19788],[73.07031,20.19745],[73.07048,20.19737],[73.07304,20.19613],[73.07436,20.19252],[73.07423,20.17728],[73.07245,20.16345],[73.07553,20.16008],[73.08244,20.15659],[73.08649,20.157],[73.08791,20.16576],[73.08991,20.17043],[73.09348,20.17389],[73.09616,20.17424],[73.09791,20.17335],[73.09949,20.17257],[73.10183,20.16411],[73.10334,20.16135],[73.10514,20.15997],[73.1091,20.1592],[73.11303,20.15843],[73.1168,20.15879],[73.11974,20.15907],[73.1226,20.15775],[73.12495,20.15666],[73.12803,20.15712],[73.12556,20.16109],[73.12606,20.16363],[73.13261,20.16777],[73.13583,20.17232],[73.13947,20.17312],[73.14703,20.17105],[73.15007,20.17284],[73.15238,20.17606],[73.15213,20.17974],[73.1484,20.18548],[73.14603,20.18739],[73.14157,20.20187],[73.14218,20.20439],[73.14575,20.20698],[73.14982,20.2056],[73.15224,20.20319],[73.15285,20.20276],[73.15364,20.20222],[73.16351,20.20147],[73.16895,20.19969],[73.17298,20.20132],[73.18018,20.20861],[73.18114,20.2024],[73.18854,20.20062],[73.19133,20.1986],[73.19587,20.19752],[73.20441,20.19832],[73.20993,20.19735],[73.21616,20.19279],[73.21937,20.19044],[73.22778,20.18705],[73.22916,20.1843],[73.22833,20.1801],[73.22673,20.17636],[73.2221,20.17142],[73.21775,20.16813],[73.19924,20.16164],[73.1961,20.15611],[73.19533,20.15094],[73.19598,20.13994],[73.20069,20.1297],[73.21095,20.1236],[73.21632,20.122],[73.21774,20.10634],[73.21912,20.0975],[73.21394,20.09064],[73.20692,20.08371],[73.2029,20.08105],[73.19804,20.07781],[73.19891,20.06227],[73.18587,20.0529],[73.1838,20.0523],[73.18144,20.05162],[73.17539,20.05805],[73.17023,20.0656],[73.1633,20.07311],[73.15675,20.07396],[73.14449,20.07786],[73.13954,20.08427],[73.1367,20.08525],[73.1314,20.07943],[73.12968,20.07884],[73.12774,20.07816],[73.12612,20.07809],[73.12313,20.07794],[73.11755,20.07881],[73.11183,20.08301],[73.11038,20.08461],[73.10794,20.08732],[73.10517,20.08722],[73.09845,20.09367],[73.08832,20.09447],[73.07823,20.09527],[73.06064,20.09906],[73.05799,20.09673],[73.05921,20.06793],[73.05281,20.06767],[73.04527,20.07178],[73.03853,20.0781],[73.03178,20.08442],[73.02468,20.0963],[73.01955,20.10502],[73.01021,20.1104],[73.01499,20.12486],[73.01667,20.13049],[73.01702,20.13245],[73.01748,20.13496],[73.01051,20.14022],[73.00876,20.13701],[73.00764,20.13247],[73.00771,20.1294],[73.00778,20.12639],[73.00728,20.12412],[73.00665,20.12125],[73.00431,20.11792],[72.99419,20.1139],[72.98924,20.11321],[72.98532,20.11345],[72.97963,20.1253],[72.97323,20.1308],[72.98596,20.15753],[72.98624,20.16272],[72.98669,20.17131],[72.98604,20.17655],[72.9762,20.18002],[72.97592,20.1896],[72.97043,20.21233],[72.97437,20.21497],[72.97543,20.2192],[72.97449,20.22584],[72.96963,20.23394],[72.96535,20.23718],[72.95779,20.24115],[72.95147,20.24357],[72.94367,20.24488],[72.94085,20.24682],[72.92375,20.2682],[72.92231,20.2744],[72.92459,20.27866],[72.93034,20.28398],[72.93811,20.28801],[72.94142,20.29213],[72.94598,20.29343],[72.95078,20.29202],[72.9575,20.2877],[72.96978,20.27474],[72.97449,20.27178],[72.98006,20.27075],[72.98409,20.27168],[72.98779,20.27467],[72.98947,20.27753],[72.99046,20.29209]]]}}],"state":"Dadra and Nagar Haveli","source":"geohacker/india (Datameet-derived), Census 2011 boundaries"}