{"type":"FeatureCollection","features":[{"type":"Feature","properties":{"ID_0":105,"ISO":"IND","NAME_0":"India","ID_1":9,"NAME_1":"Daman and Diu","ID_2":119,"NAME_2":"Daman","NL_NAME_2":null,"VARNAME_2":null,"TYPE_2":"District","ENGTYPE_2":"District","STATE":"Daman and Diu","DISTRICT":"Daman"},"geometry":{"type":"Polygon","coordinates":[[[72.82153,20.37108],[72.82153,20.37125],[72.82125,20.37125],[72.82125,20.37153],[72.82153,20.37152],[72.82153,20.37292],[72.8218,20.37292],[72.8218,20.37375],[72.82208,20.37375],[72.82208,20.37431],[72.82236,20.37431],[72.82236,20.37486],[72.82264,20.37486],[72.82264,20.37542],[72.82291,20.37542],[72.82291,20.37625],[72.8232,20.37625],[72.8232,20.37708],[72.82347,20.37708],[72.82347,20.37819],[72.82375,20.37819],[72.82375,20.37903],[72.82403,20.37903],[72.82403,20.37986],[72.8243,20.37986],[72.8243,20.38042],[72.82458,20.38042],[72.82458,20.38125],[72.82486,20.38125],[72.82486,20.38208],[72.82514,20.38208],[72.82514,20.38264],[72.82542,20.38264],[72.82542,20.38347],[72.82569,20.38346],[72.82569,20.38403],[72.82597,20.38403],[72.82597,20.38458],[72.82625,20.38458],[72.82625,20.38514],[72.82653,20.38514],[72.82653,20.38569],[72.82681,20.38569],[72.82681,20.3868],[72.82708,20.38681],[72.82708,20.38736],[72.82764,20.38736],[72.82764,20.38764],[72.82792,20.38764],[72.82792,20.38847],[72.82764,20.38847],[72.82764,20.38903],[72.82736,20.38903],[72.82736,20.39014],[72.82764,20.39014],[72.82764,20.39069],[72.82792,20.39069],[72.82792,20.39208],[72.82819,20.39208],[72.82819,20.39458],[72.82848,20.39458],[72.82848,20.40042],[72.82875,20.40042],[72.82875,20.40347],[72.82848,20.40347],[72.82848,20.40514],[72.82875,20.40514],[72.82875,20.40625],[72.82903,20.40625],[72.82903,20.40708],[72.82931,20.40708],[72.82931,20.40819],[72.82958,20.40819],[72.82958,20.40847],[72.82986,20.40847],[72.82986,20.40903],[72.83014,20.40903],[72.83014,20.40958],[72.83041,20.40958],[72.83041,20.40986],[72.8307,20.40986],[72.8307,20.41014],[72.83097,20.41014],[72.83097,20.41042],[72.83125,20.41042],[72.83125,20.41123],[72.83125,20.41264],[72.8307,20.41264],[72.8307,20.41319],[72.83041,20.41319],[72.83041,20.41347],[72.83014,20.41347],[72.83014,20.41375],[72.82986,20.41375],[72.82986,20.4143],[72.82958,20.4143],[72.82958,20.41542],[72.82931,20.41542],[72.82931,20.42125],[72.82903,20.42125],[72.82903,20.42569],[72.82875,20.4257],[72.82875,20.42958],[72.82848,20.42958],[72.82848,20.42986],[72.82819,20.42986],[72.82819,20.43208],[72.82848,20.43208],[72.82848,20.43375],[72.82875,20.43375],[72.82875,20.43431],[72.82903,20.43431],[72.82903,20.43514],[72.82931,20.43514],[72.82931,20.43625],[72.82958,20.43625],[72.82958,20.43708],[72.82986,20.43708],[72.82986,20.43875],[72.83014,20.43875],[72.83014,20.43958],[72.83041,20.43958],[72.83041,20.44042],[72.8307,20.44042],[72.8307,20.44097],[72.83097,20.44097],[72.83097,20.44153],[72.83125,20.44153],[72.83125,20.44208],[72.83153,20.44208],[72.83153,20.44264],[72.8318,20.44264],[72.8318,20.44347],[72.83208,20.44347],[72.83208,20.44403],[72.83236,20.44403],[72.83236,20.44486],[72.83264,20.44486],[72.83264,20.44597],[72.83292,20.44597],[72.83292,20.44625],[72.83347,20.44625],[72.83347,20.44653],[72.83375,20.44653],[72.83375,20.44681],[72.83403,20.4468],[72.83403,20.44736],[72.83459,20.44736],[72.83459,20.44792],[72.83486,20.44792],[72.83486,20.44819],[72.83514,20.44819],[72.83514,20.44875],[72.83542,20.44875],[72.83542,20.44903],[72.83569,20.44903],[72.83569,20.44986],[72.83598,20.44986],[72.83598,20.45014],[72.83625,20.45014],[72.83625,20.45042],[72.83652,20.45042],[72.83652,20.45125],[72.8368,20.45125],[72.8368,20.45153],[72.83708,20.45153],[72.83708,20.45181],[72.83736,20.45181],[72.83736,20.45236],[72.83764,20.45236],[72.83764,20.45264],[72.83791,20.45264],[72.83791,20.45319],[72.8382,20.45319],[72.8382,20.45347],[72.83847,20.45347],[72.83847,20.45375],[72.83903,20.45375],[72.83903,20.45403],[72.8393,20.45403],[72.8393,20.45431],[72.83958,20.45431],[72.83958,20.45486],[72.84014,20.45486],[72.84014,20.45514],[72.84042,20.45514],[72.84042,20.45542],[72.8407,20.45542],[72.8407,20.4557],[72.84097,20.45569],[72.84097,20.45597],[72.84124,20.45597],[72.84125,20.45625],[72.84153,20.45625],[72.84153,20.45635],[72.84153,20.45653],[72.84167,20.45653],[72.8418,20.45653],[72.8418,20.4567],[72.8418,20.45681],[72.84191,20.45681],[72.84209,20.4568],[72.84209,20.45708],[72.84236,20.45708],[72.84236,20.45736],[72.84264,20.45736],[72.84264,20.45775],[72.84264,20.45792],[72.84277,20.45792],[72.84292,20.45792],[72.84292,20.45819],[72.84348,20.45819],[72.84348,20.45847],[72.84402,20.45847],[72.84402,20.45903],[72.84431,20.45903],[72.84431,20.4593],[72.84458,20.4593],[72.84458,20.45958],[72.84541,20.45958],[72.84541,20.45986],[72.84597,20.45986],[72.84597,20.45958],[72.84625,20.45958],[72.84625,20.46014],[72.8468,20.46014],[72.84681,20.46042],[72.84764,20.46042],[72.84764,20.4607],[72.84792,20.4607],[72.84792,20.46097],[72.84847,20.46097],[72.84847,20.46125],[72.84903,20.46125],[72.84903,20.46153],[72.8493,20.46153],[72.8493,20.46181],[72.84986,20.46181],[72.84986,20.46208],[72.85014,20.46208],[72.85014,20.46264],[72.85042,20.46264],[72.85042,20.46292],[72.85125,20.46292],[72.85125,20.46319],[72.85152,20.46319],[72.85152,20.46347],[72.85208,20.46347],[72.85208,20.46319],[72.85236,20.46319],[72.85236,20.46347],[72.85291,20.46347],[72.85291,20.46375],[72.8532,20.46375],[72.8532,20.46403],[72.85347,20.46403],[72.85347,20.46458],[72.85375,20.46458],[72.85375,20.46487],[72.85403,20.46487],[72.85403,20.46514],[72.85431,20.46514],[72.85431,20.46569],[72.85514,20.46569],[72.85514,20.46597],[72.85597,20.46597],[72.85597,20.46569],[72.85625,20.46569],[72.85625,20.46542],[72.8568,20.46542],[72.8568,20.46514],[72.85709,20.46514],[72.85709,20.46487],[72.85875,20.46487],[72.85875,20.46458],[72.85902,20.46458],[72.85902,20.46487],[72.85931,20.46487],[72.85931,20.46542],[72.85902,20.46542],[72.85902,20.46569],[72.85875,20.46569],[72.85875,20.46597],[72.85847,20.46597],[72.85847,20.46681],[72.85875,20.46681],[72.85875,20.46708],[72.85902,20.46708],[72.85902,20.46764],[72.85931,20.46764],[72.85931,20.4682],[72.85958,20.4682],[72.85958,20.46875],[72.85986,20.46875],[72.85986,20.47042],[72.86014,20.47042],[72.86014,20.47096],[72.8634,20.46884],[72.8659,20.46751],[72.86238,20.46228],[72.85117,20.45485],[72.84874,20.45325],[72.84434,20.4484],[72.84216,20.44496],[72.83895,20.43906],[72.8386,20.43821],[72.83818,20.43726],[72.83657,20.42839],[72.83706,20.42233],[72.8392,20.41848],[72.8406,20.41768],[72.84162,20.41709],[72.84277,20.41644],[72.84403,20.41572],[72.84491,20.4153],[72.84597,20.41479],[72.85106,20.41231],[72.85201,20.41196],[72.86202,20.41047],[72.86893,20.40593],[72.86948,20.40399],[72.8701,20.40185],[72.87293,20.39574],[72.87446,20.39346],[72.87553,20.38105],[72.87281,20.3816],[72.87209,20.38215],[72.87011,20.39124],[72.86082,20.40325],[72.85106,20.40819],[72.84508,20.40712],[72.84303,20.40306],[72.84254,20.3992],[72.83236,20.37069],[72.83133,20.36874],[72.82153,20.37108]]]}},{"type":"Feature","properties":{"ID_0":105,"ISO":"IND","NAME_0":"India","ID_1":9,"NAME_1":"Daman and Diu","ID_2":120,"NAME_2":"Junagadh","NL_NAME_2":null,"VARNAME_2":null,"TYPE_2":"District","ENGTYPE_2":"District","STATE":"Daman and Diu","DISTRICT":"Junagadh"},"geometry":{"type":"MultiPolygon","coordinates":[[[[70.88853,20.70976],[70.88853,20.70903],[70.88764,20.70903],[70.88764,20.70931],[70.8857,20.70931],[70.8857,20.70958],[70.88541,20.70958],[70.88541,20.70931],[70.88431,20.70931],[70.88431,20.70958],[70.88069,20.70958],[70.88069,20.70931],[70.87681,20.70931],[70.87681,20.70903],[70.87458,20.70903],[70.87458,20.70931],[70.87403,20.70931],[70.87403,20.70958],[70.87375,20.70958],[70.87375,20.70983],[70.88396,20.71381],[70.88781,20.71114],[70.88853,20.70976]]],[[[70.94855,20.73374],[70.96204,20.72921],[70.96264,20.72938],[70.96264,20.72903],[70.96236,20.72903],[70.96236,20.72847],[70.96208,20.72847],[70.96208,20.72792],[70.9618,20.72792],[70.9618,20.72708],[70.96152,20.72708],[70.96152,20.72597],[70.96125,20.72597],[70.96125,20.72319],[70.96152,20.72319],[70.96152,20.72264],[70.9618,20.72264],[70.9618,20.72236],[70.96208,20.72236],[70.96208,20.72208],[70.96236,20.72209],[70.96236,20.72181],[70.96291,20.72181],[70.96291,20.72153],[70.96347,20.72153],[70.96347,20.72181],[70.96375,20.72181],[70.96375,20.72153],[70.96403,20.72153],[70.96403,20.72181],[70.96514,20.72181],[70.96514,20.72209],[70.96542,20.72208],[70.96542,20.72292],[70.96347,20.72292],[70.96347,20.72319],[70.96291,20.72319],[70.96291,20.72347],[70.96264,20.72347],[70.96264,20.72514],[70.96291,20.72514],[70.96291,20.72569],[70.9632,20.72569],[70.9632,20.72597],[70.96347,20.72597],[70.96347,20.72653],[70.96375,20.72653],[70.96375,20.7268],[70.96403,20.7268],[70.96403,20.72708],[70.9643,20.72708],[70.9643,20.72736],[70.96458,20.72736],[70.96458,20.72764],[70.96486,20.72764],[70.96486,20.72792],[70.96514,20.72792],[70.96514,20.7282],[70.96542,20.7282],[70.96542,20.72847],[70.96764,20.72847],[70.96764,20.7282],[70.96819,20.7282],[70.96819,20.72792],[70.96902,20.72792],[70.96902,20.72764],[70.9707,20.72764],[70.9707,20.72708],[70.9718,20.72708],[70.9718,20.7268],[70.97236,20.7268],[70.97236,20.72653],[70.97292,20.72653],[70.97292,20.72625],[70.97375,20.72625],[70.97374,20.72597],[70.97459,20.72597],[70.97459,20.72569],[70.97542,20.72569],[70.97542,20.72542],[70.97569,20.72542],[70.97569,20.72514],[70.97598,20.72514],[70.97598,20.72486],[70.97625,20.72486],[70.97625,20.72431],[70.97652,20.72431],[70.97652,20.72403],[70.9768,20.72403],[70.9768,20.72375],[70.97708,20.72375],[70.97708,20.72319],[70.97736,20.72319],[70.97736,20.72292],[70.97764,20.72292],[70.97764,20.72264],[70.97791,20.72264],[70.97791,20.72236],[70.9782,20.72236],[70.9782,20.72209],[70.97875,20.72209],[70.97875,20.72181],[70.97903,20.72181],[70.97903,20.72153],[70.97931,20.72153],[70.97931,20.72125],[70.97958,20.72125],[70.97958,20.72069],[70.97986,20.72069],[70.97986,20.72042],[70.98153,20.72042],[70.98153,20.72014],[70.98236,20.72014],[70.98236,20.71986],[70.98347,20.71986],[70.98347,20.72014],[70.98597,20.72014],[70.98597,20.71986],[70.98625,20.71986],[70.98625,20.71958],[70.98653,20.71958],[70.98653,20.71931],[70.98764,20.71931],[70.98764,20.71903],[70.98959,20.71903],[70.98959,20.71875],[70.99014,20.71875],[70.99014,20.71847],[70.99069,20.71847],[70.99069,20.71819],[70.99097,20.7182],[70.99097,20.71792],[70.99125,20.71792],[70.99125,20.71736],[70.99153,20.71736],[70.99153,20.71708],[70.99208,20.71708],[70.99208,20.71681],[70.99319,20.71681],[70.99319,20.71653],[70.99403,20.71653],[70.99403,20.71625],[70.99709,20.71625],[70.99709,20.71597],[70.99736,20.71597],[70.99736,20.71569],[70.99764,20.71569],[70.99764,20.71442],[70.99764,20.71403],[70.99736,20.71403],[70.99736,20.71347],[70.99709,20.71347],[70.99709,20.71319],[70.9968,20.71319],[70.9968,20.71292],[70.99625,20.71292],[70.99625,20.71236],[70.99597,20.71236],[70.99597,20.71208],[70.99514,20.71208],[70.99514,20.71181],[70.99487,20.71181],[70.99487,20.71125],[70.99458,20.71125],[70.99458,20.71097],[70.99431,20.71097],[70.99431,20.7107],[70.99347,20.7107],[70.99347,20.71042],[70.99292,20.71042],[70.99292,20.71014],[70.99153,20.71014],[70.99153,20.70986],[70.99042,20.70986],[70.99042,20.70931],[70.99014,20.70931],[70.99014,20.70903],[70.98986,20.70903],[70.98986,20.70875],[70.98959,20.70875],[70.98959,20.70846],[70.98903,20.70846],[70.98903,20.70875],[70.98874,20.70875],[70.98874,20.70903],[70.98847,20.70903],[70.98847,20.70931],[70.98792,20.70931],[70.98792,20.70958],[70.98681,20.70958],[70.98681,20.70931],[70.98569,20.70931],[70.98569,20.70903],[70.98514,20.70903],[70.98514,20.70846],[70.98486,20.70847],[70.98486,20.70792],[70.98458,20.70792],[70.98458,20.70764],[70.98347,20.70764],[70.98347,20.70736],[70.98209,20.70736],[70.98209,20.70708],[70.98153,20.70708],[70.98153,20.70681],[70.98097,20.70681],[70.98097,20.70653],[70.98042,20.70653],[70.98042,20.70625],[70.98014,20.70625],[70.98014,20.70597],[70.97931,20.70597],[70.97931,20.70569],[70.97903,20.70569],[70.97903,20.70542],[70.97875,20.70542],[70.97875,20.70458],[70.97847,20.70458],[70.97847,20.70431],[70.9782,20.70431],[70.9782,20.70403],[70.97791,20.70403],[70.97791,20.70375],[70.97764,20.70375],[70.97764,20.70347],[70.97736,20.70347],[70.97736,20.70205],[70.97736,20.70181],[70.97708,20.70181],[70.97708,20.70153],[70.97625,20.70153],[70.97625,20.70181],[70.97598,20.70181],[70.97598,20.70197],[70.97598,20.70208],[70.97569,20.70208],[70.97569,20.70292],[70.97598,20.70292],[70.97598,20.70319],[70.97625,20.70319],[70.97625,20.70403],[70.9743,20.70403],[70.9743,20.70375],[70.97292,20.70375],[70.97292,20.70403],[70.97264,20.70403],[70.97264,20.70458],[70.97236,20.70458],[70.97236,20.70431],[70.97208,20.70431],[70.97208,20.70403],[70.97153,20.70403],[70.97153,20.70431],[70.9707,20.70431],[70.9707,20.70458],[70.97041,20.70458],[70.97041,20.70486],[70.96986,20.70486],[70.96986,20.70542],[70.97014,20.70542],[70.97014,20.70569],[70.97041,20.70569],[70.97041,20.70681],[70.97014,20.70681],[70.97014,20.70708],[70.96736,20.70708],[70.96736,20.70681],[70.9668,20.70681],[70.9668,20.70653],[70.96625,20.70653],[70.96625,20.70625],[70.96597,20.70625],[70.96597,20.70597],[70.9657,20.70597],[70.96569,20.70569],[70.96542,20.70569],[70.96542,20.70542],[70.96403,20.70542],[70.96403,20.70569],[70.96236,20.70569],[70.96236,20.70625],[70.96151,20.70625],[70.96151,20.70653],[70.96042,20.70653],[70.96042,20.70681],[70.96014,20.70681],[70.96014,20.70625],[70.95986,20.70625],[70.95986,20.70597],[70.95903,20.70597],[70.95903,20.70569],[70.95792,20.70569],[70.95792,20.70542],[70.95775,20.70542],[70.95764,20.70542],[70.95764,20.70514],[70.95736,20.70514],[70.95736,20.70486],[70.9568,20.70486],[70.9568,20.70458],[70.95625,20.70458],[70.95625,20.70431],[70.95597,20.70431],[70.95597,20.70403],[70.95541,20.70403],[70.95541,20.70375],[70.95181,20.70375],[70.95181,20.70403],[70.95097,20.70403],[70.95097,20.70431],[70.95042,20.70431],[70.95042,20.70458],[70.94986,20.70458],[70.94986,20.70486],[70.94875,20.70486],[70.94875,20.70514],[70.94764,20.70514],[70.94764,20.70542],[70.94597,20.70542],[70.94597,20.70569],[70.94375,20.70569],[70.94375,20.70597],[70.94319,20.70597],[70.94319,20.70625],[70.94236,20.70625],[70.94236,20.70653],[70.94153,20.70653],[70.94153,20.70681],[70.94097,20.70681],[70.94097,20.70708],[70.93931,20.70708],[70.93931,20.70736],[70.93903,20.70736],[70.93903,20.70764],[70.93875,20.70764],[70.93875,20.70792],[70.93847,20.70792],[70.93847,20.70819],[70.93792,20.70819],[70.93792,20.70903],[70.93764,20.70903],[70.93764,20.70931],[70.93736,20.70931],[70.93736,20.70958],[70.93708,20.70958],[70.93708,20.70986],[70.93653,20.70986],[70.93653,20.71014],[70.93597,20.71014],[70.93597,20.71042],[70.93542,20.71042],[70.93542,20.7107],[70.93459,20.7107],[70.93459,20.71097],[70.93291,20.71097],[70.93291,20.71125],[70.93182,20.71125],[70.93182,20.71153],[70.92931,20.71153],[70.92931,20.71181],[70.92514,20.71181],[70.92514,20.71153],[70.92347,20.71153],[70.92347,20.71125],[70.92263,20.71125],[70.92263,20.71097],[70.92181,20.71097],[70.92181,20.7107],[70.92042,20.7107],[70.92042,20.71042],[70.9193,20.71042],[70.9193,20.71014],[70.91875,20.71014],[70.91875,20.70986],[70.91847,20.70986],[70.91847,20.70958],[70.91764,20.70958],[70.91764,20.70931],[70.91736,20.70931],[70.91736,20.70875],[70.91708,20.70875],[70.91708,20.70846],[70.91653,20.70847],[70.91653,20.70819],[70.91625,20.70819],[70.91625,20.70764],[70.91597,20.70764],[70.91597,20.70653],[70.9157,20.70653],[70.9157,20.70569],[70.91541,20.70569],[70.91541,20.70486],[70.9157,20.70486],[70.9157,20.70347],[70.91597,20.70347],[70.91597,20.70264],[70.91625,20.70265],[70.91625,20.70236],[70.9182,20.70236],[70.9182,20.70208],[70.91792,20.70208],[70.91792,20.70153],[70.91708,20.70153],[70.91708,20.70125],[70.91653,20.70125],[70.91653,20.70097],[70.9157,20.70097],[70.9157,20.7007],[70.91541,20.7007],[70.91541,20.70042],[70.91514,20.70042],[70.91514,20.70014],[70.91486,20.70014],[70.91486,20.69986],[70.91431,20.69986],[70.91431,20.69958],[70.91402,20.69959],[70.91402,20.69903],[70.91264,20.69903],[70.91264,20.69931],[70.9118,20.69931],[70.9118,20.70042],[70.91153,20.70042],[70.91153,20.70152],[70.91153,20.70181],[70.91064,20.70181],[70.91014,20.70181],[70.91014,20.70153],[70.90986,20.70153],[70.90986,20.70097],[70.9093,20.70097],[70.9093,20.7007],[70.90765,20.7007],[70.90765,20.70042],[70.90736,20.70042],[70.90736,20.7007],[70.90625,20.7007],[70.90625,20.70042],[70.90514,20.70042],[70.90514,20.70014],[70.90347,20.70014],[70.90347,20.69986],[70.90264,20.69986],[70.90264,20.69958],[70.90152,20.69959],[70.90152,20.69931],[70.90125,20.69931],[70.90125,20.69903],[70.90014,20.69903],[70.90014,20.69875],[70.89931,20.69875],[70.89931,20.69903],[70.89902,20.69903],[70.89902,20.69931],[70.89875,20.69931],[70.89875,20.69959],[70.89848,20.69958],[70.89848,20.69986],[70.89792,20.69986],[70.89792,20.70014],[70.89736,20.70014],[70.89736,20.70042],[70.89709,20.70042],[70.89709,20.70097],[70.89736,20.70097],[70.89736,20.70125],[70.89764,20.70125],[70.89764,20.70208],[70.89792,20.70208],[70.89792,20.70375],[70.89764,20.70375],[70.89764,20.70431],[70.89736,20.70431],[70.89736,20.70486],[70.89653,20.70486],[70.89653,20.70514],[70.89625,20.70514],[70.89625,20.70569],[70.89597,20.70569],[70.89597,20.70597],[70.89577,20.70597],[70.89542,20.70597],[70.89542,20.70625],[70.89514,20.70625],[70.89514,20.70653],[70.89486,20.70653],[70.89486,20.70681],[70.89458,20.70681],[70.89458,20.70708],[70.8943,20.70708],[70.8943,20.70736],[70.89375,20.70736],[70.89375,20.70764],[70.89291,20.70764],[70.89291,20.70792],[70.89208,20.70792],[70.89208,20.70819],[70.89296,20.71302],[70.8969,20.72],[70.89965,20.72389],[70.90488,20.72653],[70.92094,20.72891],[70.92966,20.73192],[70.93404,20.73595],[70.9389,20.73649],[70.94855,20.73374]]],[[[70.76803,20.96196],[70.77103,20.96093],[70.77303,20.96117],[70.77679,20.96851],[70.77927,20.96701],[70.78381,20.96221],[70.78918,20.95991],[70.79353,20.95945],[70.80334,20.96016],[70.80789,20.96444],[70.81661,20.96001],[70.82154,20.95973],[70.82499,20.9604],[70.82761,20.96527],[70.83277,20.96853],[70.8383,20.97006],[70.84602,20.97055],[70.84941,20.96682],[70.8513,20.96313],[70.85505,20.96125],[70.8621,20.96079],[70.86911,20.95709],[70.8802,20.95538],[70.88699,20.94521],[70.88969,20.93585],[70.89242,20.92998],[70.90161,20.90333],[70.90279,20.8972],[70.90024,20.8857],[70.89706,20.88224],[70.88435,20.87324],[70.87514,20.86891],[70.8652,20.86538],[70.84643,20.86058],[70.84053,20.85778],[70.82584,20.85894],[70.81975,20.85771],[70.81696,20.8512],[70.82021,20.84916],[70.82902,20.84888],[70.83624,20.84777],[70.83812,20.84428],[70.83792,20.83664],[70.84166,20.83239],[70.85028,20.8315],[70.87304,20.83497],[70.88334,20.83535],[70.89056,20.83293],[70.89618,20.82479],[70.89725,20.81619],[70.89597,20.80439],[70.89385,20.7947],[70.88296,20.79282],[70.87649,20.78881],[70.86742,20.79505],[70.86485,20.79004],[70.8629,20.78176],[70.86448,20.77353],[70.86721,20.76947],[70.86729,20.76463],[70.86372,20.76366],[70.849,20.76564],[70.84615,20.76494],[70.84484,20.76412],[70.84358,20.76039],[70.8544,20.75373],[70.85442,20.75347],[70.85375,20.75347],[70.85375,20.75376],[70.85347,20.75376],[70.85347,20.75403],[70.85291,20.75403],[70.85291,20.75319],[70.8532,20.75319],[70.8532,20.75292],[70.85347,20.75292],[70.85347,20.75264],[70.85375,20.75264],[70.85375,20.75236],[70.85431,20.75236],[70.85431,20.75208],[70.85456,20.75208],[70.85465,20.75125],[70.85434,20.75003],[70.85098,20.74454],[70.84007,20.73026],[70.84035,20.72845],[70.84457,20.72634],[70.84507,20.72476],[70.84521,20.72352],[70.84665,20.72287],[70.84983,20.72392],[70.8553,20.7249],[70.8588,20.72384],[70.86154,20.72359],[70.86164,20.72461],[70.86189,20.72553],[70.8653,20.72704],[70.86628,20.72592],[70.86694,20.72174],[70.87041,20.71872],[70.87041,20.71542],[70.87014,20.71542],[70.87014,20.71486],[70.86931,20.71486],[70.86931,20.71459],[70.86875,20.71459],[70.86875,20.71403],[70.86848,20.71403],[70.86848,20.71375],[70.86819,20.71375],[70.86819,20.71319],[70.86792,20.71319],[70.86792,20.71264],[70.86848,20.71264],[70.86848,20.71153],[70.86903,20.71153],[70.86903,20.71125],[70.86875,20.71125],[70.86875,20.7107],[70.86903,20.7107],[70.86903,20.70875],[70.86875,20.70875],[70.86875,20.70736],[70.86903,20.70736],[70.86903,20.70625],[70.86931,20.70625],[70.86931,20.70597],[70.87209,20.70597],[70.87209,20.70569],[70.87375,20.70569],[70.87375,20.70542],[70.87403,20.70542],[70.87403,20.70513],[70.87403,20.70486],[70.87375,20.70486],[70.87375,20.70458],[70.87292,20.70458],[70.87292,20.70431],[70.87264,20.70431],[70.87264,20.70403],[70.87014,20.70403],[70.87014,20.70375],[70.86792,20.70375],[70.86792,20.70403],[70.86708,20.70403],[70.86708,20.70431],[70.86653,20.70431],[70.86653,20.70458],[70.86625,20.70458],[70.86625,20.70486],[70.86541,20.70486],[70.86541,20.70514],[70.86486,20.70514],[70.86486,20.70542],[70.86375,20.70542],[70.86375,20.70569],[70.86153,20.70569],[70.86153,20.70597],[70.85875,20.70597],[70.85875,20.70625],[70.85819,20.70625],[70.85819,20.70653],[70.85736,20.70653],[70.85736,20.70681],[70.8568,20.70681],[70.8568,20.70708],[70.85653,20.70708],[70.85654,20.70764],[70.85625,20.70764],[70.85625,20.70792],[70.85486,20.70792],[70.85486,20.70819],[70.85125,20.70819],[70.85125,20.70792],[70.84959,20.70792],[70.84959,20.70764],[70.84735,20.70764],[70.84735,20.70736],[70.84486,20.70736],[70.84486,20.70715],[70.84458,20.70708],[70.84458,20.70681],[70.84348,20.70681],[70.84348,20.70653],[70.84292,20.70653],[70.84292,20.70625],[70.84209,20.70625],[70.84209,20.70597],[70.84125,20.70597],[70.84125,20.70569],[70.84097,20.70569],[70.84097,20.70542],[70.84042,20.70542],[70.84042,20.70514],[70.83958,20.70514],[70.83958,20.70486],[70.83903,20.70486],[70.83903,20.70458],[70.83875,20.70458],[70.83875,20.70431],[70.83847,20.70431],[70.83847,20.70403],[70.8382,20.70403],[70.8382,20.70375],[70.83791,20.70375],[70.83791,20.70347],[70.83764,20.70347],[70.83764,20.70319],[70.83681,20.70319],[70.83681,20.70292],[70.83652,20.70292],[70.83652,20.70265],[70.83625,20.70265],[70.83625,20.70208],[70.83598,20.70208],[70.83598,20.70153],[70.83569,20.70153],[70.83569,20.70125],[70.83541,20.70125],[70.83541,20.70097],[70.83514,20.70097],[70.83514,20.7007],[70.83486,20.7007],[70.83486,20.70014],[70.83459,20.70014],[70.83459,20.69959],[70.8343,20.69959],[70.8343,20.69931],[70.83403,20.69931],[70.83403,20.69875],[70.8343,20.69875],[70.8343,20.69764],[70.83459,20.69764],[70.83459,20.69733],[70.83459,20.69653],[70.83486,20.69653],[70.83486,20.69625],[70.83541,20.69625],[70.83541,20.69458],[70.83569,20.69459],[70.83569,20.69403],[70.83598,20.69403],[70.83598,20.6932],[70.83681,20.6932],[70.83681,20.69292],[70.83791,20.69292],[70.83791,20.69264],[70.8382,20.69264],[70.8382,20.6918],[70.83847,20.6918],[70.83847,20.69042],[70.8382,20.69042],[70.8382,20.69014],[70.83708,20.69014],[70.83708,20.69042],[70.83652,20.69042],[70.83649,20.69014],[70.83625,20.69014],[70.83625,20.69025],[70.83625,20.69042],[70.83598,20.69042],[70.83598,20.69125],[70.83486,20.69125],[70.83486,20.69097],[70.83347,20.69097],[70.83347,20.69069],[70.8318,20.69069],[70.8318,20.69097],[70.82986,20.69097],[70.82986,20.69069],[70.82958,20.69069],[70.82958,20.69042],[70.82903,20.69042],[70.82903,20.69014],[70.82764,20.69014],[70.82764,20.69042],[70.82597,20.69042],[70.82597,20.69069],[70.82542,20.69069],[70.82542,20.69097],[70.82486,20.69097],[70.82486,20.69125],[70.82375,20.69125],[70.82375,20.69097],[70.82236,20.69097],[70.82236,20.69125],[70.82181,20.69125],[70.82181,20.69153],[70.82153,20.69153],[70.82153,20.69236],[70.82181,20.69236],[70.82181,20.6932],[70.82153,20.6932],[70.82153,20.69375],[70.82014,20.69375],[70.82014,20.69403],[70.81958,20.69403],[70.81958,20.69375],[70.81903,20.69375],[70.81903,20.69403],[70.81875,20.69403],[70.81875,20.69431],[70.81847,20.69431],[70.81847,20.69459],[70.81819,20.69458],[70.81819,20.69486],[70.81764,20.69486],[70.81764,20.69514],[70.81737,20.69514],[70.81737,20.69542],[70.81709,20.69542],[70.81709,20.69625],[70.8168,20.69625],[70.8168,20.69653],[70.81653,20.69652],[70.81653,20.69681],[70.81597,20.6968],[70.81597,20.69708],[70.81541,20.69708],[70.81541,20.69736],[70.81514,20.69736],[70.81514,20.69764],[70.81486,20.69764],[70.81486,20.69792],[70.81431,20.69792],[70.81431,20.69819],[70.81403,20.69819],[70.81403,20.69847],[70.81375,20.69847],[70.81375,20.69875],[70.81292,20.69875],[70.81292,20.69903],[70.81264,20.69903],[70.81264,20.69931],[70.81236,20.69931],[70.81236,20.69959],[70.81208,20.69958],[70.81208,20.69986],[70.81124,20.69986],[70.81124,20.70014],[70.8093,20.70014],[70.8093,20.69986],[70.80903,20.69986],[70.80903,20.69958],[70.80847,20.69958],[70.80847,20.69986],[70.80764,20.69986],[70.80764,20.70014],[70.80736,20.70014],[70.80736,20.7007],[70.80764,20.7007],[70.80764,20.70097],[70.81014,20.70097],[70.81014,20.70125],[70.81069,20.70125],[70.81069,20.70153],[70.81124,20.70153],[70.81124,20.70125],[70.81236,20.70125],[70.81236,20.70153],[70.81487,20.70153],[70.81514,20.70153],[70.81514,20.70181],[70.8157,20.70181],[70.8157,20.70153],[70.81737,20.70153],[70.81737,20.70181],[70.82014,20.70181],[70.82014,20.70153],[70.82043,20.70153],[70.82043,20.70125],[70.82069,20.70125],[70.82069,20.69986],[70.82042,20.69986],[70.82042,20.69958],[70.82014,20.69959],[70.82014,20.69931],[70.81958,20.69931],[70.81956,20.69903],[70.81931,20.69903],[70.81931,20.69819],[70.82042,20.69819],[70.82042,20.69847],[70.82403,20.69847],[70.82403,20.69819],[70.82514,20.69819],[70.82514,20.69792],[70.82542,20.69792],[70.82542,20.69764],[70.82597,20.69764],[70.82597,20.69736],[70.82736,20.69736],[70.82736,20.69792],[70.82764,20.69792],[70.82764,20.69875],[70.82708,20.69875],[70.82708,20.70153],[70.82736,20.70153],[70.82736,20.70181],[70.82764,20.70181],[70.82764,20.70265],[70.82792,20.70265],[70.82792,20.70431],[70.82819,20.70431],[70.82819,20.70708],[70.82848,20.70708],[70.82848,20.70847],[70.82875,20.70847],[70.82875,20.70931],[70.82819,20.70931],[70.82819,20.70958],[70.82792,20.70958],[70.82792,20.71014],[70.82764,20.71014],[70.82764,20.71042],[70.82792,20.71042],[70.82792,20.71097],[70.82764,20.71097],[70.82764,20.71125],[70.82736,20.71125],[70.82736,20.71153],[70.82708,20.71153],[70.82708,20.71208],[70.82681,20.71208],[70.82681,20.71236],[70.82403,20.71236],[70.82403,20.71264],[70.82375,20.71264],[70.82375,20.71292],[70.82347,20.71292],[70.82347,20.71319],[70.82125,20.71319],[70.82125,20.71347],[70.82042,20.71347],[70.82043,20.71375],[70.81958,20.71375],[70.81958,20.71403],[70.81903,20.71403],[70.81903,20.71431],[70.81792,20.71431],[70.81792,20.71459],[70.81709,20.71458],[70.81709,20.71486],[70.81541,20.71486],[70.81541,20.71514],[70.81514,20.71514],[70.81514,20.71542],[70.81541,20.71542],[70.81541,20.71569],[70.8157,20.71569],[70.8157,20.71597],[70.81597,20.71597],[70.81597,20.71653],[70.81625,20.71653],[70.81625,20.71708],[70.81653,20.71708],[70.81653,20.71736],[70.8168,20.71736],[70.8168,20.71847],[70.81653,20.71847],[70.81653,20.71903],[70.8157,20.71903],[70.8157,20.71931],[70.81486,20.71931],[70.81486,20.71903],[70.81403,20.71903],[70.81403,20.71875],[70.81347,20.71875],[70.81347,20.71847],[70.81332,20.71847],[70.81319,20.71847],[70.81319,20.71819],[70.81292,20.7182],[70.81292,20.71765],[70.81264,20.71765],[70.81264,20.71708],[70.81292,20.71708],[70.81292,20.71625],[70.81319,20.71625],[70.81319,20.71597],[70.81347,20.71597],[70.81347,20.71514],[70.81319,20.71514],[70.81319,20.71486],[70.81097,20.71486],[70.81097,20.71459],[70.81069,20.71459],[70.81069,20.71431],[70.81042,20.71431],[70.81042,20.71375],[70.81014,20.71375],[70.81014,20.71181],[70.80986,20.71181],[70.80986,20.71097],[70.80959,20.71097],[70.80959,20.7107],[70.8093,20.7107],[70.8093,20.71042],[70.80903,20.71042],[70.80903,20.71014],[70.80875,20.71014],[70.80875,20.71042],[70.80847,20.71042],[70.80847,20.7107],[70.80653,20.7107],[70.80653,20.71042],[70.80597,20.71042],[70.80597,20.70875],[70.80625,20.70875],[70.80625,20.70846],[70.80653,20.70847],[70.80653,20.70819],[70.80597,20.70819],[70.80597,20.70736],[70.80569,20.70736],[70.80569,20.70653],[70.80597,20.70653],[70.80597,20.70625],[70.80625,20.70625],[70.80625,20.70597],[70.80653,20.70597],[70.80653,20.70581],[70.80653,20.70569],[70.80675,20.70569],[70.80736,20.70569],[70.80736,20.70542],[70.8082,20.70542],[70.8082,20.70514],[70.80847,20.70514],[70.80847,20.70486],[70.81014,20.70486],[70.81014,20.70458],[70.81069,20.70458],[70.81069,20.70431],[70.81097,20.70431],[70.81097,20.70375],[70.81069,20.70375],[70.81069,20.70347],[70.81014,20.70347],[70.81014,20.70319],[70.80959,20.70319],[70.80959,20.70292],[70.8093,20.70292],[70.8093,20.70265],[70.80903,20.70265],[70.80903,20.70236],[70.80791,20.70236],[70.80791,20.70181],[70.80708,20.70181],[70.80708,20.70208],[70.80625,20.70208],[70.80625,20.70236],[70.80542,20.70236],[70.80542,20.70208],[70.80458,20.70208],[70.80458,20.7007],[70.80375,20.7007],[70.80375,20.70097],[70.80347,20.70097],[70.80347,20.70125],[70.80319,20.70125],[70.80319,20.70153],[70.80292,20.70153],[70.80292,20.70181],[70.80236,20.70181],[70.80236,20.70208],[70.8018,20.70208],[70.8018,20.70236],[70.80125,20.70236],[70.80125,20.70292],[70.80097,20.70292],[70.80097,20.70319],[70.8007,20.70319],[70.8007,20.70347],[70.80042,20.70347],[70.80042,20.70375],[70.79986,20.70375],[70.79986,20.70403],[70.7993,20.70403],[70.7993,20.70431],[70.79903,20.70431],[70.79903,20.70458],[70.79875,20.70458],[70.79875,20.70486],[70.79847,20.70486],[70.79847,20.70514],[70.79792,20.70514],[70.79792,20.70542],[70.79764,20.70542],[70.79764,20.70569],[70.79736,20.70569],[70.79736,20.70597],[70.79708,20.70597],[70.79708,20.70625],[70.79681,20.70625],[70.79681,20.70653],[70.79652,20.70653],[70.79652,20.70681],[70.79625,20.70681],[70.79625,20.70708],[70.79597,20.70708],[70.79597,20.70736],[70.79569,20.70736],[70.79569,20.70792],[70.79542,20.70792],[70.79542,20.70819],[70.79514,20.70819],[70.79514,20.70903],[70.79486,20.70903],[70.79486,20.70931],[70.79459,20.70931],[70.79459,20.70958],[70.7943,20.70958],[70.7943,20.70986],[70.79403,20.70986],[70.79403,20.71042],[70.79375,20.71042],[70.79375,20.71097],[70.79347,20.71097],[70.79347,20.71125],[70.7932,20.71125],[70.7932,20.71153],[70.79292,20.71153],[70.79292,20.71181],[70.79264,20.71181],[70.79264,20.71208],[70.79208,20.71208],[70.79208,20.71236],[70.79197,20.71236],[70.7907,20.71236],[70.7907,20.71264],[70.78848,20.71264],[70.78848,20.71292],[70.78625,20.71292],[70.78625,20.71319],[70.78597,20.71319],[70.78597,20.71375],[70.7857,20.71375],[70.7857,20.71403],[70.78558,20.71403],[70.7843,20.71403],[70.7843,20.71375],[70.78347,20.71375],[70.78347,20.71403],[70.78291,20.71403],[70.78291,20.71431],[70.78236,20.71431],[70.78236,20.71459],[70.77986,20.71459],[70.77986,20.71486],[70.7793,20.71486],[70.7793,20.71514],[70.77847,20.71514],[70.77847,20.71542],[70.77792,20.71542],[70.77792,20.71569],[70.77736,20.71569],[70.77736,20.71581],[70.77736,20.71597],[70.77653,20.71597],[70.77653,20.71625],[70.77625,20.71625],[70.77625,20.71653],[70.77375,20.71653],[70.77375,20.71681],[70.77319,20.71681],[70.77319,20.71708],[70.77264,20.71708],[70.77264,20.71736],[70.77236,20.71736],[70.77236,20.71765],[70.7718,20.71765],[70.7718,20.71792],[70.77153,20.71792],[70.77153,20.7182],[70.77125,20.71819],[70.77125,20.71847],[70.77069,20.71847],[70.77069,20.71875],[70.76958,20.71875],[70.76958,20.71903],[70.76903,20.71903],[70.76903,20.71931],[70.76875,20.71931],[70.76875,20.71958],[70.76847,20.71958],[70.76847,20.71986],[70.7682,20.71986],[70.7682,20.72014],[70.76764,20.72014],[70.76764,20.72042],[70.76736,20.72042],[70.76736,20.72069],[70.76653,20.72069],[70.76653,20.72097],[70.76625,20.72097],[70.76625,20.72125],[70.76486,20.72125],[70.76486,20.72153],[70.76208,20.72153],[70.76208,20.72181],[70.76097,20.72181],[70.76097,20.72209],[70.7607,20.72209],[70.7607,20.72181],[70.76041,20.72181],[70.76041,20.72209],[70.75931,20.72208],[70.75931,20.72236],[70.75847,20.72236],[70.75847,20.72264],[70.75653,20.72264],[70.75653,20.72236],[70.75542,20.72236],[70.75542,20.72208],[70.75514,20.72209],[70.75514,20.72181],[70.75486,20.72181],[70.75486,20.72153],[70.75347,20.72153],[70.75347,20.72126],[70.75264,20.72125],[70.75264,20.72097],[70.75236,20.72097],[70.75236,20.72069],[70.75181,20.72069],[70.75181,20.72042],[70.75042,20.72042],[70.75042,20.72014],[70.74986,20.72014],[70.74986,20.71986],[70.74958,20.71986],[70.74958,20.71958],[70.74931,20.71958],[70.74931,20.71931],[70.74709,20.71931],[70.74709,20.71958],[70.7468,20.71958],[70.7468,20.71986],[70.74653,20.71986],[70.74653,20.72014],[70.74515,20.72014],[70.74515,20.71986],[70.74486,20.71986],[70.74486,20.72014],[70.74431,20.72014],[70.74431,20.71986],[70.74375,20.71986],[70.74375,20.72014],[70.74347,20.72014],[70.74347,20.72042],[70.74319,20.72042],[70.74319,20.72069],[70.74236,20.72069],[70.74236,20.72097],[70.74208,20.72097],[70.74209,20.72125],[70.74181,20.72125],[70.74181,20.72153],[70.74097,20.72153],[70.74097,20.72181],[70.74014,20.72181],[70.74014,20.72209],[70.73986,20.72208],[70.73986,20.72236],[70.7393,20.72236],[70.7393,20.72264],[70.73847,20.72264],[70.73847,20.72292],[70.73792,20.72292],[70.73792,20.72319],[70.73736,20.72319],[70.73736,20.72347],[70.73681,20.72347],[70.73681,20.72375],[70.73625,20.72375],[70.73625,20.72403],[70.73542,20.72403],[70.73542,20.72431],[70.73514,20.72431],[70.73514,20.72486],[70.73486,20.72486],[70.73486,20.72514],[70.73431,20.72514],[70.73431,20.72542],[70.73402,20.72542],[70.73402,20.72569],[70.73375,20.72569],[70.73375,20.72597],[70.73347,20.72597],[70.73347,20.72625],[70.73319,20.72625],[70.73319,20.72653],[70.73292,20.72653],[70.73292,20.7268],[70.73236,20.7268],[70.73236,20.72708],[70.7318,20.72708],[70.7318,20.72736],[70.73153,20.72736],[70.73153,20.72764],[70.73097,20.72764],[70.73097,20.72792],[70.7307,20.72792],[70.7307,20.7282],[70.73014,20.7282],[70.73014,20.72847],[70.72875,20.72847],[70.72875,20.72875],[70.72847,20.72875],[70.72847,20.72847],[70.7282,20.72847],[70.7282,20.72875],[70.72736,20.72875],[70.72736,20.72903],[70.72681,20.72903],[70.72681,20.72931],[70.72625,20.72931],[70.72625,20.72959],[70.72459,20.72959],[70.72459,20.72986],[70.72402,20.72986],[70.72402,20.73014],[70.72347,20.73014],[70.72347,20.73042],[70.7232,20.73042],[70.7232,20.73069],[70.72264,20.73069],[70.72264,20.73097],[70.72208,20.73097],[70.72208,20.73125],[70.72181,20.73125],[70.7218,20.73153],[70.72098,20.73153],[70.72098,20.73181],[70.71986,20.73181],[70.71986,20.73208],[70.71958,20.73208],[70.71958,20.73236],[70.71902,20.73236],[70.71902,20.73264],[70.71848,20.73263],[70.71848,20.73292],[70.71792,20.73292],[70.71792,20.73319],[70.71736,20.73319],[70.71736,20.73347],[70.7168,20.73347],[70.7168,20.73375],[70.71625,20.73375],[70.71625,20.73403],[70.7157,20.73403],[70.7157,20.73431],[70.71486,20.73431],[70.71486,20.73458],[70.7143,20.73458],[70.7143,20.73486],[70.71403,20.73486],[70.71403,20.73514],[70.71347,20.73514],[70.71347,20.73542],[70.7132,20.73542],[70.7132,20.73569],[70.71291,20.73569],[70.71291,20.73597],[70.71208,20.73597],[70.71208,20.73625],[70.71125,20.73625],[70.71125,20.73653],[70.71098,20.73653],[70.71098,20.73681],[70.71014,20.73681],[70.71014,20.73708],[70.70959,20.73708],[70.70959,20.73736],[70.7093,20.73736],[70.7093,20.73764],[70.70819,20.73764],[70.70819,20.73792],[70.70708,20.73792],[70.70708,20.73819],[70.70514,20.73819],[70.70514,20.73792],[70.70348,20.73792],[70.70348,20.73819],[70.70319,20.7382],[70.70319,20.73876],[70.70264,20.73876],[70.70264,20.73903],[70.70236,20.73903],[70.70236,20.73931],[70.70208,20.73931],[70.70208,20.73958],[70.70181,20.73958],[70.70181,20.74014],[70.70125,20.74014],[70.70125,20.74042],[70.70097,20.74042],[70.70097,20.74069],[70.70069,20.74069],[70.70069,20.74125],[70.70014,20.74125],[70.70014,20.74153],[70.69958,20.74153],[70.69958,20.74182],[70.6993,20.74181],[70.6993,20.74208],[70.69903,20.74208],[70.69903,20.74236],[70.69875,20.74236],[70.69875,20.74264],[70.6982,20.74264],[70.6982,20.74292],[70.69791,20.74292],[70.69791,20.74319],[70.69764,20.74319],[70.69764,20.74347],[70.69736,20.74347],[70.69736,20.74375],[70.69681,20.74375],[70.69681,20.74403],[70.69625,20.74403],[70.69625,20.7443],[70.69597,20.7443],[70.69597,20.74486],[70.69569,20.74486],[70.69569,20.74514],[70.69514,20.74514],[70.69514,20.74542],[70.69458,20.74542],[70.69458,20.7457],[70.69403,20.7457],[70.69403,20.74597],[70.69347,20.74597],[70.69347,20.74625],[70.69319,20.74625],[70.69319,20.74653],[70.69292,20.74653],[70.69292,20.74681],[70.69236,20.74681],[70.69236,20.74708],[70.69153,20.74708],[70.69153,20.74736],[70.69097,20.74736],[70.69097,20.74764],[70.68931,20.74763],[70.68931,20.74792],[70.68847,20.74792],[70.68847,20.7482],[70.68792,20.7482],[70.68792,20.74847],[70.68736,20.74847],[70.68736,20.74875],[70.68681,20.74875],[70.68681,20.74903],[70.68625,20.74903],[70.68625,20.74931],[70.68597,20.74931],[70.68597,20.74958],[70.68569,20.74958],[70.68569,20.74986],[70.68514,20.74986],[70.68514,20.75014],[70.68487,20.75014],[70.68487,20.75042],[70.6843,20.75042],[70.6843,20.7507],[70.68403,20.75069],[70.68403,20.75097],[70.68347,20.75097],[70.68347,20.75125],[70.6832,20.75125],[70.6832,20.75153],[70.68291,20.75153],[70.68291,20.75181],[70.68236,20.75181],[70.68236,20.75208],[70.68208,20.75208],[70.68208,20.75264],[70.68181,20.75264],[70.68181,20.75292],[70.68153,20.75292],[70.68153,20.75319],[70.68125,20.75319],[70.68125,20.75338],[70.68125,20.75347],[70.68097,20.75347],[70.68097,20.75376],[70.68069,20.75376],[70.68069,20.75403],[70.68042,20.75403],[70.68042,20.7543],[70.68014,20.7543],[70.68014,20.75458],[70.67903,20.75458],[70.67903,20.75486],[70.67819,20.75486],[70.67819,20.75514],[70.67764,20.75514],[70.67764,20.75542],[70.67736,20.75542],[70.67736,20.7557],[70.67709,20.7557],[70.67709,20.75597],[70.6768,20.75597],[70.6768,20.75625],[70.67653,20.75625],[70.67653,20.75653],[70.67625,20.75653],[70.67625,20.75681],[70.67542,20.75681],[70.67542,20.75708],[70.67514,20.75708],[70.67514,20.75736],[70.67458,20.75736],[70.67458,20.75764],[70.67431,20.75764],[70.67431,20.75819],[70.67403,20.75819],[70.67403,20.75931],[70.67431,20.75931],[70.67431,20.75986],[70.67403,20.75986],[70.67403,20.76014],[70.67375,20.76014],[70.67375,20.76097],[70.67347,20.76097],[70.67347,20.7618],[70.67375,20.76181],[70.67375,20.76347],[70.67604,20.76328],[70.67762,20.76484],[70.67842,20.76638],[70.67677,20.76864],[70.67522,20.77047],[70.67693,20.77151],[70.68295,20.78413],[70.68478,20.7918],[70.68197,20.80111],[70.67759,20.80943],[70.67632,20.81882],[70.67828,20.8263],[70.6774,20.83516],[70.67903,20.84404],[70.68448,20.85097],[70.69417,20.88296],[70.70274,20.89501],[70.71315,20.90563],[70.71758,20.91213],[70.71764,20.91595],[70.71938,20.93695],[70.72188,20.94416],[70.73072,20.96014],[70.73862,20.9687],[70.74052,20.97398],[70.7404,20.97683],[70.73452,20.98601],[70.73385,20.98844],[70.73551,20.98983],[70.74166,20.9901],[70.74649,20.98897],[70.75554,20.97384],[70.76228,20.96558],[70.76803,20.96196]]]]}}],"state":"Daman and Diu","source":"geohacker/india (Datameet-derived), Census 2011 boundaries"}