{"type":"FeatureCollection","features":[{"type":"Feature","properties":{"ID_0":105,"ISO":"IND","NAME_0":"India","ID_1":10,"NAME_1":"Delhi","ID_2":121,"NAME_2":"Delhi","NL_NAME_2":null,"VARNAME_2":null,"TYPE_2":"District","ENGTYPE_2":"District","STATE":"Delhi","DISTRICT":"Delhi"},"geometry":{"type":"Polygon","coordinates":[[[77.21732,28.83528],[77.21365,28.8135],[77.19461,28.81536],[77.19444,28.80229],[77.19692,28.79528],[77.20269,28.78941],[77.20845,28.78719],[77.21305,28.78644],[77.21827,28.78763],[77.22468,28.78763],[77.22207,28.78374],[77.2171,28.78168],[77.22091,28.7779],[77.22904,28.77244],[77.23799,28.75922],[77.24586,28.75735],[77.24847,28.75753],[77.2532,28.75279],[77.25188,28.7455],[77.25617,28.73992],[77.25992,28.73812],[77.26637,28.73928],[77.27112,28.73819],[77.27686,28.7344],[77.28069,28.73002],[77.28442,28.72393],[77.28365,28.71898],[77.2849,28.71246],[77.29295,28.70977],[77.29563,28.71304],[77.30146,28.71673],[77.30622,28.71767],[77.31716,28.71722],[77.32349,28.71587],[77.32168,28.71183],[77.31984,28.70364],[77.32092,28.69967],[77.32758,28.69184],[77.32713,28.68516],[77.32539,28.6825],[77.31792,28.67934],[77.31757,28.67162],[77.31543,28.66327],[77.31533,28.65137],[77.31308,28.64667],[77.31121,28.64464],[77.31358,28.6432],[77.32095,28.63602],[77.33046,28.63141],[77.33422,28.62699],[77.33708,28.6219],[77.33753,28.61749],[77.33618,28.60887],[77.33315,28.60671],[77.32784,28.60488],[77.31694,28.59996],[77.30992,28.59896],[77.30714,28.59691],[77.29491,28.58243],[77.29365,28.57972],[77.2938,28.56673],[77.29519,28.5612],[77.30306,28.55045],[77.3107,28.54369],[77.31489,28.54149],[77.32151,28.53585],[77.33051,28.5241],[77.33397,28.5207],[77.33682,28.51568],[77.33774,28.50897],[77.33447,28.51109],[77.32899,28.50832],[77.32668,28.50345],[77.3217,28.49939],[77.31488,28.49457],[77.30687,28.49068],[77.30095,28.49012],[77.29627,28.49115],[77.28579,28.49627],[77.27805,28.49815],[77.27111,28.49703],[77.2601,28.48843],[77.25397,28.48554],[77.24265,28.4846],[77.23673,28.47969],[77.2324,28.4758],[77.22763,28.46975],[77.22575,28.46401],[77.22643,28.46026],[77.23312,28.45945],[77.23987,28.45361],[77.24328,28.44749],[77.2443,28.44167],[77.24319,28.43368],[77.24062,28.42886],[77.22275,28.41897],[77.21531,28.41574],[77.20591,28.4134],[77.19522,28.41253],[77.17949,28.41237],[77.16577,28.40846],[77.15434,28.4213],[77.15186,28.42832],[77.14243,28.43571],[77.13139,28.4387],[77.12408,28.43924],[77.1183,28.44243],[77.11251,28.45023],[77.10875,28.45735],[77.10605,28.4659],[77.10274,28.47045],[77.10155,28.47648],[77.10334,28.48311],[77.10767,28.49387],[77.10352,28.49746],[77.09032,28.50545],[77.08598,28.51086],[77.07248,28.52028],[77.06747,28.52065],[77.05696,28.51386],[77.04877,28.51524],[77.04166,28.51896],[77.03314,28.52834],[77.01964,28.53327],[77.01566,28.53332],[77.0061,28.54278],[77.00021,28.542],[76.99595,28.5369],[76.99821,28.53215],[77.005,28.52874],[77.0114,28.52411],[77.01093,28.51803],[77.00555,28.51444],[76.99027,28.51978],[76.97653,28.52381],[76.96847,28.52758],[76.94463,28.51363],[76.93322,28.51604],[76.92265,28.51927],[76.90848,28.51491],[76.89745,28.51777],[76.89372,28.51614],[76.88681,28.51123],[76.87937,28.50905],[76.87381,28.51439],[76.87946,28.524],[76.87631,28.5284],[76.85921,28.54192],[76.85674,28.54782],[76.83762,28.55699],[76.83292,28.58251],[76.83503,28.5914],[76.85023,28.59012],[76.85481,28.59235],[76.8609,28.60251],[76.87794,28.63763],[76.89368,28.63275],[76.89727,28.6328],[76.90401,28.63794],[76.91035,28.63783],[76.92366,28.62865],[76.92598,28.62925],[76.93391,28.63765],[76.91821,28.65327],[76.91749,28.65727],[76.9231,28.66921],[76.92973,28.67442],[76.94255,28.67511],[76.94725,28.67716],[76.94595,28.68348],[76.94839,28.68799],[76.95,28.69413],[76.95422,28.70053],[76.9546,28.70537],[76.95096,28.70976],[76.94126,28.71703],[76.95066,28.73646],[76.9492,28.7415],[76.95032,28.74665],[76.94744,28.75113],[76.93821,28.75962],[76.94657,28.77403],[76.94397,28.77853],[76.94234,28.78776],[76.94309,28.79512],[76.93747,28.8035],[76.93736,28.80915],[76.94231,28.82068],[76.94823,28.81766],[76.95578,28.82002],[76.95801,28.83033],[76.96083,28.83167],[76.97057,28.8251],[76.97369,28.82583],[76.97955,28.8367],[76.9835,28.83908],[76.98972,28.83916],[77.00663,28.83526],[77.01881,28.83706],[77.02467,28.83628],[77.03154,28.83679],[77.03767,28.85278],[77.04976,28.87319],[77.06566,28.873],[77.07014,28.88001],[77.07585,28.88451],[77.08335,28.87462],[77.09946,28.87244],[77.10713,28.86845],[77.1097,28.86613],[77.12854,28.86539],[77.13509,28.85849],[77.13559,28.85269],[77.13381,28.84472],[77.1392,28.84167],[77.14238,28.84247],[77.15065,28.84845],[77.1596,28.85744],[77.16459,28.86063],[77.18364,28.8623],[77.18687,28.86682],[77.19349,28.86535],[77.19965,28.86494],[77.2048,28.86291],[77.20783,28.86022],[77.21147,28.85493],[77.21062,28.84529],[77.21732,28.83528]]]}}],"state":"Delhi","source":"geohacker/india (Datameet-derived), Census 2011 boundaries"}