{"type":"FeatureCollection","features":[{"type":"Feature","properties":{"ID_0":105,"ISO":"IND","NAME_0":"India","ID_1":15,"NAME_1":"Jammu and Kashmir","ID_2":180,"NAME_2":"Anantnag (Kashmir South)","NL_NAME_2":null,"VARNAME_2":null,"TYPE_2":"District","ENGTYPE_2":"District","STATE":"Jammu & Kashmir","DISTRICT":"Anantnag (Kashmir South)"},"geometry":{"type":"Polygon","coordinates":[[[75.74289,34.19158],[75.73353,34.1789],[75.71396,34.16147],[75.69825,34.13861],[75.68258,34.10507],[75.65948,34.06616],[75.64092,34.04876],[75.6156,34.04366],[75.59918,34.04446],[75.57614,34.02458],[75.55737,34.00161],[75.54018,33.9773],[75.53627,33.95394],[75.52503,33.93357],[75.53974,33.90624],[75.56097,33.87172],[75.57836,33.84218],[75.58678,33.81786],[75.61768,33.78418],[75.63123,33.74984],[75.63013,33.73124],[75.62429,33.70548],[75.62227,33.67522],[75.63853,33.65771],[75.64822,33.64831],[75.66196,33.62002],[75.65572,33.60215],[75.65121,33.58016],[75.63985,33.55235],[75.61868,33.52604],[75.60955,33.4946],[75.59174,33.45263],[75.58406,33.43284],[75.57175,33.39339],[75.55889,33.37481],[75.5498,33.3714],[75.54382,33.36916],[75.52041,33.37666],[75.49107,33.37977],[75.46248,33.39822],[75.44192,33.41977],[75.42124,33.44363],[75.40294,33.46107],[75.37849,33.47874],[75.35738,33.49097],[75.33028,33.51043],[75.30581,33.51836],[75.29095,33.5285],[75.28906,33.53538],[75.29541,33.5514],[75.30547,33.56478],[75.31427,33.58274],[75.30331,33.59674],[75.28172,33.59874],[75.26151,33.59336],[75.24348,33.58574],[75.23463,33.5687],[75.24042,33.54569],[75.25137,33.5317],[75.24107,33.51321],[75.21609,33.50116],[75.19514,33.50039],[75.18639,33.4815],[75.18504,33.46489],[75.15742,33.46745],[75.131,33.47345],[75.11205,33.4839],[75.09436,33.48929],[75.06884,33.4879],[75.04023,33.48685],[75.01624,33.48552],[74.98998,33.47852],[74.96996,33.47965],[74.94089,33.49763],[74.91387,33.51522],[74.87717,33.52224],[74.84017,33.52507],[74.81527,33.51163],[74.79619,33.50443],[74.77157,33.5054],[74.75321,33.50788],[74.73909,33.50978],[74.7277,33.50367],[74.71629,33.52519],[74.71063,33.54543],[74.70303,33.56419],[74.69514,33.58804],[74.6948,33.6145],[74.6939,33.63211],[74.69711,33.64941],[74.70235,33.66678],[74.71096,33.68845],[74.71622,33.69561],[74.72356,33.68647],[74.75211,33.68057],[74.80955,33.64609],[74.8756,33.64035],[74.93591,33.66332],[74.979,33.68057],[75.05654,33.74087],[75.12835,33.7581],[75.21451,33.81553],[75.20877,33.85001],[75.22025,33.89597],[75.21451,33.93905],[75.22025,33.99074],[75.23749,34.03382],[75.24261,34.04773],[75.25759,34.08839],[75.26046,34.13435],[75.25185,34.14871],[75.28344,34.19753],[75.30642,34.22051],[75.38396,34.25497],[75.40407,34.28083],[75.41556,34.32391],[75.43854,34.34688],[75.47751,34.37376],[75.49643,34.36018],[75.51286,34.33941],[75.5289,34.32607],[75.55209,34.30323],[75.57753,34.2763],[75.6068,34.25461],[75.63408,34.23146],[75.65652,34.22346],[75.67297,34.2222],[75.68766,34.21484],[75.70853,34.20724],[75.72187,34.2068],[75.73843,34.20322],[75.74289,34.19158]]]}},{"type":"Feature","properties":{"ID_0":105,"ISO":"IND","NAME_0":"India","ID_1":15,"NAME_1":"Jammu and Kashmir","ID_2":181,"NAME_2":"Bagdam","NL_NAME_2":null,"VARNAME_2":null,"TYPE_2":"District","ENGTYPE_2":"District","STATE":"Jammu & Kashmir","DISTRICT":"Bagdam"},"geometry":{"type":"Polygon","coordinates":[[[74.99674,34.04249],[74.99953,34.02957],[74.99638,34.01088],[75.00354,33.99118],[75.0079,33.97601],[74.99287,33.95968],[74.98608,33.9325],[74.9829,33.91474],[74.98362,33.90084],[74.98009,33.87981],[74.96916,33.85341],[74.95413,33.83708],[74.93011,33.82645],[74.90678,33.82235],[74.88084,33.81908],[74.86086,33.80953],[74.8154,33.77769],[74.78774,33.75811],[74.76771,33.73927],[74.73469,33.71486],[74.72356,33.68647],[74.71893,33.71243],[74.70465,33.72165],[74.69019,33.73413],[74.67593,33.7624],[74.66664,33.78388],[74.65678,33.79652],[74.63975,33.81912],[74.62578,33.84183],[74.61894,33.86526],[74.6147,33.89808],[74.61089,33.9323],[74.60348,33.9571],[74.59149,33.97106],[74.57413,33.98018],[74.55735,33.98792],[74.54156,34.00639],[74.52974,34.02772],[74.55967,34.0453],[74.63148,34.05106],[74.65445,34.07404],[74.69466,34.08552],[74.74636,34.10563],[74.77221,34.11999],[74.83826,34.11424],[74.87273,34.12859],[74.88601,34.1525],[74.89592,34.14281],[74.93332,34.10238],[74.95716,34.07678],[74.97643,34.0603],[74.99615,34.04523],[74.99674,34.04249]]]}},{"type":"Feature","properties":{"ID_0":105,"ISO":"IND","NAME_0":"India","ID_1":15,"NAME_1":"Jammu and Kashmir","ID_2":182,"NAME_2":"Baramula (Kashmir North)","NL_NAME_2":null,"VARNAME_2":null,"TYPE_2":"District","ENGTYPE_2":"District","STATE":"Jammu & Kashmir","DISTRICT":"Baramula (Kashmir North)"},"geometry":{"type":"Polygon","coordinates":[[[74.64799,34.72262],[74.65806,34.7106],[74.6713,34.7007],[74.703,34.69308],[74.72807,34.68858],[74.73932,34.68722],[74.76312,34.68434],[74.7664,34.68519],[74.77214,34.68271],[74.78659,34.68273],[74.8356,34.67755],[74.8539,34.6782],[74.88982,34.68387],[74.89375,34.68449],[74.91051,34.68321],[74.92781,34.67831],[74.94672,34.66635],[74.9978,34.65108],[75.0,34.64946],[75.00365,34.64676],[75.01875,34.6415],[75.02991,34.64147],[75.0418,34.64142],[75.0508,34.64392],[75.0545,34.64662],[75.08472,34.65538],[75.10555,34.65566],[75.1112,34.65799],[75.1423,34.66241],[75.16467,34.66045],[75.17728,34.65746],[75.1785,34.65718],[75.20672,34.64629],[75.23576,34.64829],[75.24971,34.64731],[75.25964,34.64408],[75.26606,34.63955],[75.26694,34.63454],[75.25808,34.6176],[75.26186,34.61088],[75.27915,34.60175],[75.3352,34.57213],[75.35055,34.56224],[75.37782,34.55242],[75.39497,34.54881],[75.41396,34.54734],[75.46464,34.54339],[75.4636,34.53078],[75.45187,34.50992],[75.44127,34.48725],[75.4461,34.46281],[75.45205,34.44678],[75.45935,34.43405],[75.46815,34.42228],[75.47505,34.40769],[75.4765,34.39938],[75.4825,34.39217],[75.47751,34.37376],[75.47289,34.37975],[75.46494,34.37528],[75.4482,34.37234],[75.42516,34.37244],[75.40033,34.37757],[75.38343,34.38764],[75.35284,34.39534],[75.32854,34.38981],[75.31432,34.37769],[75.3046,34.35783],[75.28239,34.36166],[75.26415,34.36796],[75.24207,34.37923],[75.21992,34.39189],[75.20019,34.40742],[75.17696,34.42097],[75.15113,34.44557],[75.10614,34.46436],[75.07379,34.46643],[75.05273,34.45777],[75.04855,34.43951],[75.04325,34.41331],[75.04156,34.38633],[75.02529,34.37412],[74.99997,34.36901],[74.96042,34.35179],[74.93317,34.33408],[74.91367,34.33521],[74.89011,34.34551],[74.86283,34.34823],[74.83698,34.35332],[74.80695,34.34991],[74.79568,34.34021],[74.79464,34.32067],[74.79895,34.30643],[74.79127,34.28666],[74.78702,34.26978],[74.79347,34.25377],[74.80511,34.23655],[74.8137,34.21875],[74.83463,34.20001],[74.85214,34.17789],[74.87167,34.16653],[74.88601,34.1525],[74.87273,34.12859],[74.83826,34.11424],[74.77221,34.11999],[74.74636,34.10563],[74.69466,34.08552],[74.65445,34.07404],[74.63148,34.05106],[74.55967,34.0453],[74.52974,34.02772],[74.51699,34.02023],[74.51036,34.02568],[74.48948,34.01377],[74.46507,34.00081],[74.44251,34.00138],[74.41022,34.00207],[74.38858,34.00499],[74.3706,34.00619],[74.36531,34.0034],[74.32513,34.00257],[74.28121,34.00456],[74.26524,34.02054],[74.23928,34.04649],[74.20534,34.07844],[74.17638,34.08144],[74.12347,34.09541],[74.07555,34.08942],[74.05459,34.0994],[74.02876,34.10424],[74.01441,34.10419],[73.98071,34.10296],[73.94783,34.105],[73.92315,34.09714],[73.91342,34.07729],[73.90079,34.06429],[73.88432,34.06136],[73.88565,34.07512],[73.90438,34.09689],[73.90408,34.12225],[73.91708,34.14211],[73.94477,34.17019],[73.97658,34.2118],[73.98203,34.23908],[73.97623,34.26481],[73.94097,34.30174],[73.91993,34.34231],[73.91335,34.34793],[73.96722,34.35027],[74.00845,34.34652],[74.05341,34.33903],[74.09464,34.3053],[74.13586,34.3053],[74.16584,34.33903],[74.21831,34.33528],[74.25314,34.32795],[74.26124,34.32121],[74.26868,34.31408],[74.33448,34.30155],[74.40193,34.31654],[74.44315,34.3765],[74.45815,34.41772],[74.45815,34.4477],[74.51436,34.47019],[74.52185,34.47394],[74.52935,34.50017],[74.5256,34.5264],[74.50311,34.55638],[74.50311,34.58636],[74.55183,34.61634],[74.58556,34.65007],[74.61179,34.71003],[74.64799,34.72262]]]}},{"type":"Feature","properties":{"ID_0":105,"ISO":"IND","NAME_0":"India","ID_1":15,"NAME_1":"Jammu and Kashmir","ID_2":183,"NAME_2":"Doda","NL_NAME_2":null,"VARNAME_2":null,"TYPE_2":"District","ENGTYPE_2":"District","STATE":"Jammu & Kashmir","DISTRICT":"Doda"},"geometry":{"type":"Polygon","coordinates":[[[75.74289,34.19158],[75.76947,34.17696],[75.79289,34.14949],[75.8084,34.10687],[75.83478,34.07161],[75.85943,34.05022],[75.88332,34.0237],[75.90896,34.00281],[75.93825,33.98065],[75.96658,33.9673],[75.9991,33.96198],[76.02975,33.9631],[76.06161,33.97075],[76.09663,33.98643],[76.10876,33.97945],[76.13157,33.96402],[76.16042,33.93071],[76.17954,33.90726],[76.19716,33.8833],[76.22832,33.86447],[76.24279,33.84178],[76.25824,33.82006],[76.27812,33.79199],[76.2935,33.77165],[76.30433,33.75023],[76.32639,33.72921],[76.33324,33.70532],[76.33492,33.69283],[76.33345,33.67188],[76.32725,33.64287],[76.3169,33.6151],[76.3093,33.58371],[76.30685,33.5618],[76.32356,33.55544],[76.34463,33.56363],[76.36736,33.56957],[76.38574,33.58046],[76.40035,33.59492],[76.42149,33.59198],[76.4463,33.56734],[76.46207,33.54934],[76.47309,33.53442],[76.49042,33.52577],[76.50971,33.52879],[76.53397,33.53478],[76.55416,33.51044],[76.5774,33.48668],[76.60106,33.47454],[76.6217,33.46136],[76.63459,33.43954],[76.6561,33.42919],[76.67107,33.42694],[76.68719,33.42197],[76.70676,33.40967],[76.70293,33.39467],[76.70709,33.37348],[76.71459,33.35703],[76.72748,33.34542],[76.75014,33.34253],[76.75877,33.33402],[76.77,33.32468],[76.77678,33.31239],[76.77423,33.29233],[76.77435,33.28027],[76.78416,33.26855],[76.79475,33.25175],[76.80795,33.24389],[76.80846,33.24232],[76.8063,33.23623],[76.80276,33.23666],[76.79694,33.24121],[76.78544,33.25359],[76.77827,33.25571],[76.76356,33.25433],[76.75997,33.25298],[76.75688,33.25054],[76.75534,33.24949],[76.7552,33.24741],[76.75757,33.24312],[76.76236,33.23954],[76.75988,33.22467],[76.75605,33.21982],[76.75056,33.21013],[76.74558,33.20435],[76.74213,33.19749],[76.73435,33.19312],[76.73061,33.18528],[76.72987,33.17943],[76.71419,33.17744],[76.70847,33.1813],[76.69672,33.18148],[76.69366,33.1776],[76.68527,33.17404],[76.66948,33.17332],[76.66055,33.17135],[76.65945,33.17111],[76.65874,33.17117],[76.65111,33.17183],[76.64075,33.16468],[76.62701,33.16248],[76.61256,33.16597],[76.59959,33.17376],[76.59847,33.17651],[76.59886,33.18391],[76.59733,33.18803],[76.59254,33.19063],[76.588,33.19],[76.58404,33.19307],[76.5847,33.19956],[76.58619,33.20422],[76.5819,33.20687],[76.57674,33.2058],[76.56762,33.20705],[76.56295,33.20618],[76.55589,33.20685],[76.54748,33.20953],[76.54196,33.20677],[76.53418,33.19935],[76.52023,33.20041],[76.50576,33.19578],[76.49883,33.19669],[76.49597,33.19603],[76.48878,33.19016],[76.46906,33.17991],[76.46614,33.17988],[76.45555,33.18332],[76.4502,33.18292],[76.44181,33.18047],[76.42977,33.18281],[76.42178,33.18181],[76.40769,33.18842],[76.40067,33.18656],[76.39168,33.18669],[76.38456,33.18289],[76.37985,33.17646],[76.37351,33.17346],[76.36616,33.16804],[76.36081,33.16275],[76.35886,33.1575],[76.35579,33.1546],[76.35213,33.15484],[76.33559,33.14627],[76.31554,33.1302],[76.30692,33.12722],[76.29195,33.12021],[76.288,33.11316],[76.275,33.10399],[76.27687,33.10063],[76.27584,33.09803],[76.27123,33.09636],[76.26752,33.08611],[76.25524,33.05228],[76.23729,33.03259],[76.22979,33.03083],[76.22947,33.03026],[76.21616,33.02857],[76.1883,33.02758],[76.15224,33.0229],[76.14389,33.01648],[76.1282,33.01008],[76.12049,33.01042],[76.11597,33.00859],[76.10732,33.00789],[76.09369,33.00483],[76.09456,33.00032],[76.09124,32.99275],[76.08567,32.97501],[76.08221,32.9688],[76.07835,32.96607],[76.07,32.96222],[76.06588,32.95798],[76.05447,32.95097],[76.0504,32.94427],[76.0426,32.94024],[76.02808,32.93744],[76.02365,32.93158],[76.02117,32.92443],[76.01719,32.91764],[76.01351,32.91594],[76.00463,32.91401],[75.99753,32.90937],[75.98742,32.90058],[75.9832,32.9004],[75.94577,32.88514],[75.93955,32.88422],[75.93378,32.88431],[75.92323,32.89809],[75.91357,32.90621],[75.90012,32.9157],[75.8809,32.92477],[75.86712,32.93021],[75.85007,32.93116],[75.83389,32.9346],[75.82812,32.93408],[75.82143,32.93347],[75.80795,32.92979],[75.80332,32.92355],[75.79831,32.91942],[75.80176,32.91027],[75.8,32.90392],[75.79836,32.90216],[75.77938,32.90488],[75.69884,32.92882],[75.66619,32.93753],[75.63572,32.94841],[75.58784,32.97018],[75.55301,33.00065],[75.51165,33.03112],[75.45941,33.05724],[75.41152,33.07683],[75.3484,33.10295],[75.29181,33.12472],[75.2327,33.13026],[75.23203,33.13166],[75.22594,33.15048],[75.23236,33.17487],[75.25607,33.21148],[75.27049,33.22965],[75.28006,33.25275],[75.2833,33.28909],[75.2719,33.31189],[75.24741,33.34024],[75.23218,33.34758],[75.20208,33.36552],[75.18085,33.38007],[75.17131,33.39644],[75.17089,33.41454],[75.17062,33.44006],[75.17427,33.45831],[75.18504,33.46489],[75.18639,33.4815],[75.19514,33.50039],[75.21609,33.50116],[75.24107,33.51321],[75.25137,33.5317],[75.24042,33.54569],[75.23463,33.5687],[75.24348,33.58574],[75.26151,33.59336],[75.28172,33.59874],[75.30331,33.59674],[75.31427,33.58274],[75.30547,33.56478],[75.29541,33.5514],[75.28906,33.53538],[75.29095,33.5285],[75.30581,33.51836],[75.33028,33.51043],[75.35738,33.49097],[75.37849,33.47874],[75.40294,33.46107],[75.42124,33.44363],[75.44192,33.41977],[75.46248,33.39822],[75.49107,33.37977],[75.52041,33.37666],[75.54382,33.36916],[75.5498,33.3714],[75.55889,33.37481],[75.57175,33.39339],[75.58406,33.43284],[75.59174,33.45263],[75.60955,33.4946],[75.61868,33.52604],[75.63985,33.55235],[75.65121,33.58016],[75.65572,33.60215],[75.66196,33.62002],[75.64822,33.64831],[75.63853,33.65771],[75.62227,33.67522],[75.62429,33.70548],[75.63013,33.73124],[75.63123,33.74984],[75.61768,33.78418],[75.58678,33.81786],[75.57836,33.84218],[75.56097,33.87172],[75.53974,33.90624],[75.52503,33.93357],[75.53627,33.95394],[75.54018,33.9773],[75.55737,34.00161],[75.57614,34.02458],[75.59918,34.04446],[75.6156,34.04366],[75.64092,34.04876],[75.65948,34.06616],[75.68258,34.10507],[75.69825,34.13861],[75.71396,34.16147],[75.73353,34.1789],[75.74289,34.19158]]]}},{"type":"Feature","properties":{"ID_0":105,"ISO":"IND","NAME_0":"India","ID_1":15,"NAME_1":"Jammu and Kashmir","ID_2":184,"NAME_2":"Jammu","NL_NAME_2":null,"VARNAME_2":null,"TYPE_2":"District","ENGTYPE_2":"District","STATE":"Jammu & Kashmir","DISTRICT":"Jammu"},"geometry":{"type":"Polygon","coordinates":[[[74.67561,33.00067],[74.67673,33.00045],[74.70885,32.99327],[74.73644,32.98406],[74.75632,32.97597],[74.77455,32.96966],[74.78549,32.97609],[74.79397,32.99033],[74.79717,33.00763],[74.79831,33.02531],[74.80075,33.03748],[74.81689,33.04224],[74.85526,33.04271],[74.87214,33.04287],[74.89034,33.04724],[74.90343,33.05143],[74.9213,33.05256],[74.9402,33.05324],[74.95071,33.03783],[74.96082,33.02056],[74.96326,32.99279],[74.96529,32.97336],[74.95651,32.95493],[74.95776,32.93083],[74.97076,32.91691],[74.98579,32.91328],[75.00105,32.91523],[75.01617,32.92971],[75.033,32.93079],[75.04449,32.90659],[75.05763,32.88989],[75.06888,32.88009],[75.08253,32.88337],[75.10068,32.87892],[75.11822,32.87631],[75.13403,32.87735],[75.14444,32.87402],[75.1584,32.87128],[75.16851,32.86578],[75.18745,32.85376],[75.20972,32.83878],[75.2261,32.82917],[75.24106,32.81671],[75.25142,32.79433],[75.25462,32.77216],[75.24821,32.74732],[75.23627,32.72088],[75.23878,32.70192],[75.25438,32.68718],[75.28915,32.66802],[75.3177,32.66024],[75.34064,32.64203],[75.36409,32.63408],[75.37839,32.63459],[75.40693,32.62727],[75.41976,32.62681],[75.42137,32.62426],[75.4257,32.61747],[75.4311,32.60899],[75.42739,32.58762],[75.40801,32.57623],[75.38824,32.57272],[75.37547,32.56205],[75.35228,32.55516],[75.31889,32.54745],[75.29713,32.55269],[75.28254,32.53777],[75.2701,32.53081],[75.25407,32.51397],[75.2402,32.51486],[75.22881,32.50748],[75.21506,32.4963],[75.20868,32.471],[75.1974,32.40409],[75.19547,32.40531],[75.19273,32.41807],[75.19234,32.41984],[75.18853,32.42448],[75.17954,32.42544],[75.17196,32.42191],[75.1604,32.41651],[75.14764,32.41338],[75.13945,32.4146],[75.12793,32.42117],[75.1209,32.44149],[75.11888,32.44377],[75.11444,32.44878],[75.10979,32.45404],[75.10675,32.45504],[75.09818,32.46587],[75.08263,32.48005],[75.07161,32.48296],[75.06268,32.48213],[75.0614,32.48201],[75.03664,32.49207],[75.03017,32.49176],[75.02141,32.48537],[75.01175,32.47618],[75.00609,32.46904],[75.00154,32.4633],[75.0,32.45912],[74.98787,32.44956],[74.97935,32.44777],[74.97311,32.44793],[74.96387,32.45253],[74.9489,32.45409],[74.94357,32.46071],[74.93363,32.46757],[74.92412,32.46825],[74.89966,32.46613],[74.89681,32.46742],[74.891,32.47006],[74.88523,32.47841],[74.88292,32.48175],[74.88287,32.48182],[74.88274,32.4819],[74.8792,32.48408],[74.87666,32.48564],[74.86151,32.48948],[74.85642,32.49267],[74.84618,32.49439],[74.83533,32.49621],[74.81857,32.49606],[74.79886,32.48406],[74.76138,32.48217],[74.75803,32.47994],[74.74823,32.47924],[74.74699,32.47915],[74.74358,32.4815],[74.7211,32.48174],[74.69842,32.48494],[74.68674,32.49307],[74.68226,32.50205],[74.68138,32.50381],[74.67918,32.51541],[74.68303,32.5296],[74.68051,32.53819],[74.66196,32.55147],[74.66,32.55325],[74.6524,32.56016],[74.64803,32.57187],[74.6433,32.59595],[74.64221,32.61105],[74.64925,32.62587],[74.65845,32.63736],[74.66921,32.64594],[74.67621,32.658],[74.67564,32.66578],[74.675,32.66673],[74.66928,32.67509],[74.66211,32.68047],[74.65419,32.69245],[74.65014,32.71841],[74.66188,32.75482],[74.66805,32.7634],[74.66753,32.76659],[74.67776,32.78157],[74.68768,32.79608],[74.69458,32.80952],[74.70039,32.82703],[74.69702,32.83971],[74.68083,32.8382],[74.66146,32.82803],[74.642,32.8229],[74.638,32.8181],[74.63723,32.81081],[74.64154,32.79189],[74.6328,32.77766],[74.61423,32.75773],[74.60831,32.75747],[74.59414,32.75684],[74.57919,32.75331],[74.5736,32.75555],[74.56711,32.75521],[74.54311,32.74544],[74.54121,32.74467],[74.53153,32.74073],[74.50269,32.75987],[74.47974,32.77267],[74.47792,32.77533],[74.47195,32.77836],[74.46606,32.78136],[74.46202,32.79089],[74.46167,32.79171],[74.45749,32.80157],[74.45423,32.80507],[74.45064,32.81682],[74.44523,32.82557],[74.44321,32.82882],[74.43006,32.84465],[74.42635,32.85777],[74.42934,32.87951],[74.42849,32.8836],[74.42506,32.89306],[74.41389,32.90395],[74.40605,32.90697],[74.38868,32.90841],[74.3858,32.90865],[74.36832,32.90845],[74.36472,32.90841],[74.34775,32.90821],[74.32722,32.91331],[74.31803,32.9197],[74.31614,32.93016],[74.32072,32.94143],[74.33489,32.95476],[74.37366,32.94582],[74.39946,32.94582],[74.41666,32.97377],[74.44892,32.99958],[74.47258,32.99743],[74.49838,32.97807],[74.53279,32.95872],[74.56505,32.95872],[74.58466,32.96525],[74.58007,32.96907],[74.5958,32.98172],[74.61498,32.99728],[74.6312,32.98428],[74.65088,33.00555],[74.67561,33.00067]]]}},{"type":"Feature","properties":{"ID_0":105,"ISO":"IND","NAME_0":"India","ID_1":15,"NAME_1":"Jammu and Kashmir","ID_2":185,"NAME_2":"Kargil","NL_NAME_2":null,"VARNAME_2":null,"TYPE_2":"District","ENGTYPE_2":"District","STATE":"Jammu & Kashmir","DISTRICT":"Kargil"},"geometry":{"type":"Polygon","coordinates":[[[75.46464,34.54339],[75.47851,34.53935],[75.5061,34.53733],[75.51688,34.53779],[75.5212,34.53959],[75.5518,34.53814],[75.56464,34.53875],[75.57889,34.53944],[75.59189,34.54007],[75.61556,34.53854],[75.64415,34.53354],[75.69231,34.52153],[75.71384,34.5184],[75.72923,34.51616],[75.74921,34.51583],[75.76878,34.52214],[75.79303,34.53392],[75.81048,34.54817],[75.82065,34.55891],[75.84108,34.5731],[75.84328,34.57463],[75.88146,34.59074],[75.91193,34.60113],[75.91865,34.60484],[75.93221,34.62443],[75.94625,34.63118],[75.96721,34.6336],[75.96822,34.63334],[75.98328,34.62941],[75.99185,34.62997],[76.00039,34.63581],[76.01437,34.65357],[76.02543,34.6641],[76.03646,34.67027],[76.05502,34.67603],[76.07444,34.67631],[76.08582,34.67146],[76.09296,34.66656],[76.12193,34.64665],[76.13075,34.64352],[76.13909,34.64248],[76.15791,34.64341],[76.19279,34.65527],[76.19785,34.65913],[76.22738,34.67214],[76.2343,34.6731],[76.26005,34.68437],[76.27512,34.69364],[76.2833,34.70152],[76.28995,34.71232],[76.30151,34.72444],[76.31614,34.73163],[76.32872,34.73306],[76.33857,34.63132],[76.34338,34.55914],[76.36745,34.51101],[76.37226,34.41957],[76.36745,34.34737],[76.42039,34.25594],[76.44445,34.23187],[76.47333,34.23668],[76.53107,34.19818],[76.58883,34.17412],[76.6514,34.15487],[76.68508,34.13562],[76.75246,34.07786],[76.82465,33.95755],[76.89203,33.91423],[76.96903,33.88535],[77.03642,33.88054],[77.14229,33.84684],[77.25298,33.78429],[77.31074,33.77947],[77.43106,33.72172],[77.50807,33.63028],[77.561,33.52921],[77.5225,33.43296],[77.46956,33.36077],[77.4118,33.35114],[77.36368,33.27414],[77.37812,33.19232],[77.4455,33.08644],[77.48399,33.01425],[77.50807,32.92763],[77.5232,32.88978],[77.51956,32.88738],[77.51129,32.88543],[77.50623,32.88307],[77.49435,32.88151],[77.48455,32.88654],[77.47318,32.87879],[77.45522,32.86174],[77.44835,32.86168],[77.43617,32.86589],[77.43224,32.87045],[77.43122,32.87582],[77.42572,32.88367],[77.41775,32.87921],[77.41013,32.87822],[77.40312,32.88145],[77.39918,32.88393],[77.39733,32.88699],[77.39542,32.88733],[77.38747,32.88552],[77.37939,32.88083],[77.37125,32.86742],[77.36307,32.86353],[77.35968,32.85958],[77.35872,32.8564],[77.35981,32.85162],[77.36267,32.8466],[77.36185,32.84261],[77.35955,32.83816],[77.35648,32.82527],[77.3484,32.8212],[77.34046,32.82054],[77.33596,32.81891],[77.3279,32.81988],[77.32162,32.82239],[77.32066,32.8281],[77.31651,32.82975],[77.31087,32.83767],[77.3125,32.84631],[77.30516,32.85405],[77.29796,32.85401],[77.28874,32.85262],[77.28128,32.85565],[77.27434,32.85976],[77.2701,32.8664],[77.25832,32.87636],[77.24758,32.86493],[77.23888,32.86516],[77.23803,32.86901],[77.23627,32.8723],[77.22783,32.87697],[77.22482,32.88002],[77.22408,32.8827],[77.22746,32.88393],[77.2293,32.8868],[77.22826,32.89557],[77.21799,32.89731],[77.20454,32.90637],[77.18896,32.91006],[77.1818,32.91545],[77.17386,32.93113],[77.16658,32.92805],[77.16373,32.92511],[77.16157,32.92112],[77.16043,32.91608],[77.15743,32.91324],[77.14619,32.91402],[77.15073,32.92023],[77.14695,32.93438],[77.14855,32.93791],[77.14878,32.94138],[77.14611,32.94277],[77.14613,32.95639],[77.13638,32.95777],[77.13528,32.96094],[77.13554,32.96468],[77.13431,32.96949],[77.13586,32.97445],[77.13639,32.98046],[77.1275,32.98384],[77.12007,32.98271],[77.11238,32.98413],[77.10316,32.9872],[77.09712,32.97758],[77.08418,32.97367],[77.0749,32.97335],[77.07167,32.97623],[77.06593,32.98553],[77.05847,32.98608],[77.05238,32.99089],[77.03532,32.99968],[77.02442,32.99696],[77.01992,32.99175],[77.01124,32.99324],[76.99847,32.98957],[76.99402,32.99229],[76.99147,32.99286],[76.98694,32.99592],[76.98083,33.00146],[76.96652,33.00721],[76.96371,33.01004],[76.96213,33.01393],[76.95678,33.01674],[76.94833,33.01849],[76.93266,33.02845],[76.92415,33.02897],[76.91751,33.03368],[76.91461,33.03882],[76.91332,33.04421],[76.91025,33.05021],[76.90012,33.06414],[76.89694,33.07099],[76.89639,33.07581],[76.89075,33.08076],[76.89093,33.0846],[76.89499,33.09142],[76.89431,33.09514],[76.88477,33.09744],[76.87742,33.10722],[76.8772,33.11424],[76.86869,33.12022],[76.86044,33.11638],[76.85257,33.11155],[76.84444,33.1123],[76.83916,33.1153],[76.83411,33.12056],[76.8374,33.12639],[76.82809,33.13168],[76.82917,33.13772],[76.82297,33.14129],[76.81725,33.142],[76.81496,33.14617],[76.80949,33.14855],[76.80346,33.15569],[76.80144,33.16154],[76.80202,33.16603],[76.79926,33.16946],[76.79813,33.1733],[76.80042,33.1778],[76.80518,33.18226],[76.80661,33.18473],[76.80331,33.19385],[76.81859,33.20557],[76.81716,33.21223],[76.81108,33.21546],[76.81305,33.22272],[76.81786,33.23114],[76.8232,33.23738],[76.82887,33.24255],[76.82835,33.2464],[76.82717,33.24675],[76.82355,33.24786],[76.82192,33.24835],[76.81728,33.2485],[76.81394,33.24744],[76.80917,33.2443],[76.80846,33.24232],[76.80795,33.24389],[76.79475,33.25175],[76.78416,33.26855],[76.77435,33.28027],[76.77423,33.29233],[76.77678,33.31239],[76.77,33.32468],[76.75877,33.33402],[76.75014,33.34253],[76.72748,33.34542],[76.71459,33.35703],[76.70709,33.37348],[76.70293,33.39467],[76.70676,33.40967],[76.68719,33.42197],[76.67107,33.42694],[76.6561,33.42919],[76.63459,33.43954],[76.6217,33.46136],[76.60106,33.47454],[76.5774,33.48668],[76.55416,33.51044],[76.53397,33.53478],[76.50971,33.52879],[76.49042,33.52577],[76.47309,33.53442],[76.46207,33.54934],[76.4463,33.56734],[76.42149,33.59198],[76.40035,33.59492],[76.38574,33.58046],[76.36736,33.56957],[76.34463,33.56363],[76.32356,33.55544],[76.30685,33.5618],[76.3093,33.58371],[76.3169,33.6151],[76.32725,33.64287],[76.33345,33.67188],[76.33492,33.69283],[76.33324,33.70532],[76.32639,33.72921],[76.30433,33.75023],[76.2935,33.77165],[76.27812,33.79199],[76.25824,33.82006],[76.24279,33.84178],[76.22832,33.86447],[76.19716,33.8833],[76.17954,33.90726],[76.16042,33.93071],[76.13157,33.96402],[76.10876,33.97945],[76.09663,33.98643],[76.06161,33.97075],[76.02975,33.9631],[75.9991,33.96198],[75.96658,33.9673],[75.93825,33.98065],[75.90896,34.00281],[75.88332,34.0237],[75.85943,34.05022],[75.83478,34.07161],[75.8084,34.10687],[75.79289,34.14949],[75.76947,34.17696],[75.74289,34.19158],[75.73843,34.20322],[75.72187,34.2068],[75.70853,34.20724],[75.68766,34.21484],[75.67297,34.2222],[75.65652,34.22346],[75.63408,34.23146],[75.6068,34.25461],[75.57753,34.2763],[75.55209,34.30323],[75.5289,34.32607],[75.51286,34.33941],[75.49643,34.36018],[75.47751,34.37376],[75.4825,34.39217],[75.4765,34.39938],[75.47505,34.40769],[75.46815,34.42228],[75.45935,34.43405],[75.45205,34.44678],[75.4461,34.46281],[75.44127,34.48725],[75.45187,34.50992],[75.4636,34.53078],[75.46464,34.54339]]]}},{"type":"Feature","properties":{"ID_0":105,"ISO":"IND","NAME_0":"India","ID_1":15,"NAME_1":"Jammu and Kashmir","ID_2":186,"NAME_2":"Kathua","NL_NAME_2":null,"VARNAME_2":null,"TYPE_2":"District","ENGTYPE_2":"District","STATE":"Jammu & Kashmir","DISTRICT":"Kathua"},"geometry":{"type":"Polygon","coordinates":[[[75.90459,32.61522],[75.88629,32.59192],[75.87254,32.57619],[75.87177,32.57529],[75.85654,32.55842],[75.83784,32.53761],[75.83055,32.52451],[75.82893,32.51997],[75.82504,32.50922],[75.82358,32.50764],[75.8157,32.49922],[75.80434,32.48706],[75.79015,32.47879],[75.77887,32.47504],[75.77247,32.4751],[75.75296,32.47524],[75.74593,32.47635],[75.74506,32.47426],[75.74374,32.46911],[75.73532,32.45469],[75.72971,32.44506],[75.72515,32.43832],[75.71975,32.43032],[75.71535,32.42383],[75.71153,32.41816],[75.69823,32.40953],[75.68496,32.40062],[75.66274,32.39351],[75.64807,32.38881],[75.63698,32.38738],[75.59264,32.3817],[75.567,32.37184],[75.55732,32.36696],[75.54515,32.36082],[75.52921,32.34888],[75.52427,32.34005],[75.51582,32.29799],[75.5056,32.28134],[75.5045,32.27953],[75.50124,32.27605],[75.49895,32.27533],[75.49472,32.27691],[75.49002,32.28798],[75.49213,32.3028],[75.49112,32.30672],[75.49023,32.31021],[75.48476,32.31029],[75.47993,32.31035],[75.47142,32.31465],[75.46776,32.31756],[75.47353,32.3392],[75.47224,32.34005],[75.46661,32.33885],[75.45635,32.33352],[75.45179,32.33176],[75.44859,32.33132],[75.43258,32.32669],[75.43108,32.32649],[75.41499,32.32427],[75.39745,32.32625],[75.38596,32.32769],[75.37853,32.3288],[75.37347,32.33057],[75.35919,32.33492],[75.34527,32.33916],[75.34401,32.34021],[75.33178,32.3447],[75.3253,32.34284],[75.3244,32.34166],[75.32233,32.33733],[75.31149,32.34484],[75.28906,32.35757],[75.28033,32.36726],[75.27823,32.36826],[75.26676,32.37366],[75.25331,32.38001],[75.23715,32.39578],[75.23153,32.39919],[75.23051,32.39929],[75.22385,32.39996],[75.20025,32.40232],[75.1974,32.40409],[75.20868,32.471],[75.21506,32.4963],[75.22881,32.50748],[75.2402,32.51486],[75.25407,32.51397],[75.2701,32.53081],[75.28254,32.53777],[75.29713,32.55269],[75.31889,32.54745],[75.35228,32.55516],[75.37547,32.56205],[75.38824,32.57272],[75.40801,32.57623],[75.42739,32.58762],[75.4311,32.60899],[75.4388,32.63447],[75.46346,32.6428],[75.47808,32.64704],[75.49603,32.65652],[75.53252,32.66342],[75.5571,32.66339],[75.57688,32.66689],[75.60029,32.66961],[75.62234,32.67876],[75.62414,32.70344],[75.61917,32.72044],[75.62179,32.73911],[75.63882,32.75645],[75.66373,32.75967],[75.70731,32.75848],[75.73347,32.76732],[75.75799,32.77797],[75.77852,32.79683],[75.78582,32.81427],[75.78458,32.83837],[75.78942,32.86362],[75.79537,32.86926],[75.80551,32.85614],[75.80831,32.8532],[75.81581,32.84706],[75.82106,32.84276],[75.82753,32.84037],[75.83739,32.83677],[75.85524,32.82614],[75.87379,32.81369],[75.88568,32.79548],[75.90006,32.76986],[75.91248,32.75712],[75.91405,32.74202],[75.90984,32.72094],[75.90486,32.70936],[75.89906,32.70025],[75.89658,32.69106],[75.89886,32.68062],[75.9054,32.67225],[75.91476,32.66593],[75.92406,32.65822],[75.92544,32.65427],[75.92362,32.6437],[75.90776,32.61914],[75.90459,32.61522]]]}},{"type":"Feature","properties":{"ID_0":105,"ISO":"IND","NAME_0":"India","ID_1":15,"NAME_1":"Jammu and Kashmir","ID_2":187,"NAME_2":"Kupwara (Muzaffarabad)","NL_NAME_2":null,"VARNAME_2":null,"TYPE_2":"District","ENGTYPE_2":"District","STATE":"Jammu & Kashmir","DISTRICT":"Kupwara (Muzaffarabad)"},"geometry":{"type":"Polygon","coordinates":[[[73.78966,34.42704],[73.80726,34.44195],[73.85481,34.47335],[73.89874,34.49577],[73.88669,34.515],[73.89534,34.54667],[73.94807,34.57309],[73.94156,34.59196],[73.92733,34.64589],[73.94156,34.6772],[73.96022,34.69668],[73.98608,34.70416],[74.0,34.70822],[74.01289,34.70985],[74.03363,34.69364],[74.04172,34.68732],[74.04913,34.68496],[74.0597,34.68509],[74.08131,34.69202],[74.08653,34.69371],[74.09314,34.69452],[74.09716,34.6929],[74.11677,34.69121],[74.1327,34.69024],[74.14179,34.6912],[74.14897,34.69527],[74.17474,34.71735],[74.20296,34.73658],[74.2105,34.74018],[74.22575,34.74746],[74.22749,34.75008],[74.23902,34.75208],[74.2699,34.76269],[74.27975,34.76827],[74.2868,34.77417],[74.30278,34.79754],[74.3073,34.8003],[74.31509,34.80026],[74.33095,34.79248],[74.3316,34.79217],[74.34126,34.78969],[74.34621,34.79041],[74.36754,34.80256],[74.37554,34.80344],[74.47397,34.79063],[74.47713,34.78965],[74.48537,34.78709],[74.50658,34.77553],[74.5147,34.7748],[74.5381,34.77618],[74.54407,34.77654],[74.56149,34.77444],[74.56529,34.77187],[74.57716,34.76949],[74.58018,34.7701],[74.61243,34.74637],[74.61816,34.74215],[74.63155,34.738],[74.63883,34.73354],[74.64799,34.72262],[74.61179,34.71003],[74.58556,34.65007],[74.55183,34.61634],[74.50311,34.58636],[74.50311,34.55638],[74.5256,34.5264],[74.52935,34.50017],[74.52185,34.47394],[74.51436,34.47019],[74.45815,34.4477],[74.45815,34.41772],[74.44315,34.3765],[74.40193,34.31654],[74.33448,34.30155],[74.26868,34.31408],[74.26124,34.32121],[74.25314,34.32795],[74.21831,34.33528],[74.16584,34.33903],[74.13586,34.3053],[74.09464,34.3053],[74.05341,34.33903],[74.00845,34.34652],[73.96722,34.35027],[73.91335,34.34793],[73.89941,34.35981],[73.8894,34.35703],[73.87941,34.35424],[73.84175,34.33832],[73.8074,34.35672],[73.77339,34.34975],[73.76322,34.35963],[73.76432,34.37107],[73.77699,34.4163],[73.78966,34.42704]]]}},{"type":"Feature","properties":{"ID_0":105,"ISO":"IND","NAME_0":"India","ID_1":15,"NAME_1":"Jammu and Kashmir","ID_2":188,"NAME_2":"Ladakh (Leh)","NL_NAME_2":null,"VARNAME_2":null,"TYPE_2":"District","ENGTYPE_2":"District","STATE":"Jammu & Kashmir","DISTRICT":"Ladakh (Leh)"},"geometry":{"type":"Polygon","coordinates":[[[78.0137,35.26419],[78.01775,35.24975],[78.03184,35.22023],[78.04276,35.20233],[78.04361,35.20133],[78.05222,35.1911],[78.05756,35.18475],[78.05972,35.18311],[78.06902,35.17604],[78.0774,35.17271],[78.07835,35.17233],[78.11605,35.14535],[78.11844,35.14244],[78.12418,35.13542],[78.12605,35.12904],[78.12531,35.12599],[78.12431,35.12189],[78.1171,35.11164],[78.11102,35.10734],[78.09772,35.09793],[78.08894,35.09583],[78.08832,35.09568],[78.08428,35.09077],[78.08287,35.08249],[78.09495,35.0569],[78.11483,35.01476],[78.11828,35.00665],[78.12111,35.0],[78.13031,34.97834],[78.13348,34.97087],[78.16731,34.91214],[78.1736,34.9063],[78.17516,34.90281],[78.18465,34.88152],[78.18834,34.86278],[78.20732,34.76611],[78.2104,34.75893],[78.21869,34.73956],[78.22105,34.73403],[78.23157,34.7168],[78.23177,34.71654],[78.24803,34.6951],[78.2657,34.67939],[78.2726,34.67495],[78.27405,34.67401],[78.28436,34.66736],[78.30034,34.66193],[78.3068,34.66092],[78.31734,34.65928],[78.32354,34.65658],[78.32492,34.65598],[78.38718,34.65163],[78.39552,34.64939],[78.39836,34.64863],[78.39873,34.64835],[78.40459,34.64392],[78.40701,34.63663],[78.40689,34.62103],[78.40932,34.6135],[78.41813,34.6054],[78.42512,34.60346],[78.43546,34.60286],[78.44315,34.6024],[78.45915,34.60279],[78.48223,34.60334],[78.51154,34.60911],[78.53712,34.61415],[78.55817,34.61475],[78.56934,34.61195],[78.58208,34.60315],[78.61109,34.58306],[78.62101,34.57428],[78.63763,34.5523],[78.64383,34.54781],[78.65249,34.53815],[78.66006,34.52972],[78.68062,34.5156],[78.68619,34.51276],[78.69632,34.50759],[78.71664,34.50101],[78.73008,34.49665],[78.73611,34.49167],[78.73827,34.48989],[78.74936,34.47699],[78.75035,34.47505],[78.75284,34.47017],[78.75405,34.46901],[78.76302,34.46046],[78.78848,34.44142],[78.79938,34.43327],[78.82495,34.41413],[78.83726,34.40702],[78.8381,34.40653],[78.87569,34.39465],[78.89156,34.38964],[78.91504,34.37884],[78.92255,34.37539],[78.92744,34.37164],[78.92918,34.3703],[78.9399,34.36208],[78.96074,34.3461],[78.96885,34.34163],[78.97674,34.33393],[78.98146,34.33285],[78.98923,34.31927],[78.99005,34.31783],[78.99422,34.30252],[78.9934,34.28874],[78.98499,34.26779],[78.97501,34.24286],[78.9562,34.21783],[78.94212,34.20479],[78.93534,34.19961],[78.91036,34.1805],[78.89436,34.17002],[78.88888,34.16643],[78.87904,34.16133],[78.87115,34.15723],[78.85883,34.1518],[78.81532,34.13261],[78.77426,34.11451],[78.77094,34.11374],[78.76389,34.11211],[78.76067,34.11136],[78.75946,34.11108],[78.72923,34.0957],[78.72443,34.0914],[78.71332,34.08146],[78.70638,34.07218],[78.70615,34.05864],[78.71212,34.05048],[78.73185,34.04253],[78.75954,34.03634],[78.75987,34.03627],[78.76064,34.0361],[78.76595,34.03251],[78.76829,34.02575],[78.77036,34.01973],[78.76842,34.01447],[78.76363,34.00151],[78.7429,33.98728],[78.72842,33.97734],[78.71579,33.96453],[78.71426,33.95947],[78.71616,33.94894],[78.71725,33.94896],[78.71666,33.93909],[78.71493,33.93345],[78.71156,33.9225],[78.71725,33.89048],[78.72567,33.87112],[78.74178,33.84018],[78.76132,33.81734],[78.76203,33.81651],[78.77506,33.80125],[78.78055,33.78919],[78.78399,33.77043],[78.77529,33.7464],[78.77522,33.74622],[78.7624,33.73066],[78.75756,33.72646],[78.73732,33.70888],[78.73724,33.70882],[78.73175,33.70404],[78.7093,33.67961],[78.70843,33.67611],[78.70679,33.66948],[78.70935,33.66055],[78.71098,33.65487],[78.72728,33.62278],[78.72993,33.61757],[78.74223,33.59741],[78.74348,33.59538],[78.75811,33.57139],[78.7632,33.56305],[78.77068,33.55204],[78.78387,33.53265],[78.79115,33.52519],[78.80387,33.50681],[78.8186,33.48908],[78.82073,33.48652],[78.82326,33.48349],[78.8704,33.4397],[78.87153,33.43908],[78.87566,33.4368],[78.89539,33.42031],[78.92126,33.3987],[78.9411,33.39008],[78.95481,33.37418],[78.97269,33.36732],[78.97953,33.35878],[78.98866,33.34737],[78.9987,33.34023],[79.00415,33.33635],[79.01955,33.3308],[79.0338,33.31358],[79.03657,33.31209],[79.04765,33.30611],[79.0666,33.29589],[79.07079,33.29092],[79.07311,33.2836],[79.06927,33.27311],[79.06611,33.26448],[79.06685,33.25462],[79.06721,33.24983],[79.07147,33.23816],[79.07497,33.22861],[79.09299,33.22046],[79.11328,33.21128],[79.12773,33.20474],[79.14144,33.2001],[79.15701,33.19791],[79.16476,33.19682],[79.1805,33.19461],[79.18298,33.19292],[79.18546,33.19123],[79.20622,33.19395],[79.21237,33.19476],[79.31517,33.1888],[79.35584,33.18953],[79.37726,33.18991],[79.39362,33.18893],[79.39909,33.18715],[79.40198,33.18489],[79.40984,33.17877],[79.41683,33.16669],[79.41754,33.15524],[79.41547,33.14766],[79.4132,33.14191],[79.41075,33.1357],[79.39854,33.11471],[79.39726,33.10943],[79.39503,33.1072],[79.39328,33.10545],[79.39056,33.10271],[79.37359,33.07343],[79.37328,33.072],[79.37231,33.06746],[79.36761,33.06161],[79.36618,33.05984],[79.35493,33.03061],[79.35302,33.02259],[79.35187,33.01774],[79.35003,32.99618],[79.35073,32.99126],[79.35099,32.98942],[79.35122,32.98782],[79.35247,32.97903],[79.36211,32.96206],[79.36504,32.95692],[79.38111,32.93957],[79.38313,32.93739],[79.38712,32.93308],[79.39096,32.93044],[79.39906,32.92487],[79.41867,32.9114],[79.43206,32.90511],[79.43485,32.90033],[79.44186,32.89466],[79.44621,32.89114],[79.44858,32.88923],[79.4544,32.88035],[79.45506,32.87806],[79.45697,32.87143],[79.46452,32.81674],[79.47123,32.80282],[79.47782,32.79624],[79.48442,32.78966],[79.49631,32.78411],[79.51524,32.77528],[79.52673,32.76759],[79.53334,32.75986],[79.54053,32.74869],[79.54403,32.7395],[79.54541,32.73587],[79.54739,32.73065],[79.5554,32.70964],[79.56125,32.68403],[79.56259,32.67817],[79.56429,32.67076],[79.55777,32.63062],[79.55356,32.62027],[79.54983,32.61439],[79.54536,32.60736],[79.52405,32.59589],[79.522,32.59479],[79.51437,32.59286],[79.50879,32.59146],[79.48854,32.59283],[79.48497,32.59307],[79.47813,32.59293],[79.46415,32.59265],[79.44801,32.58608],[79.43631,32.5799],[79.43031,32.57674],[79.40382,32.55769],[79.36222,32.53756],[79.36149,32.53704],[79.35997,32.53595],[79.35324,32.53113],[79.34698,32.52664],[79.32025,32.4913],[79.31374,32.48789],[79.31222,32.48709],[79.30493,32.48655],[79.29734,32.48853],[79.27012,32.51778],[79.26072,32.52228],[79.25841,32.52338],[79.25794,32.52333],[79.25322,32.52286],[79.24816,32.52235],[79.23498,32.51899],[79.23309,32.51851],[79.22311,32.51596],[79.22089,32.5154],[79.21383,32.5136],[79.20693,32.51184],[79.20296,32.51083],[79.1833,32.50102],[79.16507,32.49192],[79.14886,32.48383],[79.12894,32.46643],[79.12653,32.46431],[79.12173,32.45611],[79.12025,32.45358],[79.12008,32.45329],[79.11815,32.45],[79.11978,32.43832],[79.12188,32.42324],[79.12134,32.41762],[79.12119,32.41613],[79.1118,32.39929],[79.10912,32.38322],[79.10447,32.37171],[79.09564,32.36794],[79.09185,32.36903],[79.07663,32.37902],[79.06754,32.38498],[79.06424,32.38523],[79.0597,32.38557],[79.04922,32.38337],[79.04905,32.38326],[79.04655,32.38157],[79.02499,32.36701],[78.99376,32.3643],[78.98253,32.34582],[78.9772,32.34277],[78.97373,32.34361],[78.97096,32.34428],[78.924,32.36332],[78.91886,32.3654],[78.91467,32.36709],[78.91414,32.36771],[78.90233,32.38139],[78.90002,32.38407],[78.888,32.39237],[78.88583,32.39598],[78.87457,32.41462],[78.86745,32.41909],[78.85693,32.41894],[78.83602,32.42528],[78.82122,32.43627],[78.81981,32.43732],[78.8179,32.43874],[78.81636,32.44062],[78.79793,32.46318],[78.79642,32.46428],[78.78118,32.4753],[78.77667,32.48393],[78.77543,32.49055],[78.77558,32.51635],[78.7756,32.51966],[78.77261,32.54435],[78.76792,32.55327],[78.76675,32.55549],[78.76556,32.55776],[78.76425,32.56484],[78.76371,32.56781],[78.76517,32.57494],[78.7765,32.58818],[78.78033,32.59832],[78.7793,32.60225],[78.77579,32.61563],[78.77057,32.63552],[78.76806,32.66298],[78.76521,32.67369],[78.76456,32.67609],[78.76392,32.67849],[78.76028,32.68417],[78.74593,32.69608],[78.74214,32.69602],[78.73645,32.69593],[78.71703,32.68073],[78.66427,32.65649],[78.65443,32.64923],[78.65163,32.64442],[78.63234,32.61106],[78.62567,32.60705],[78.60329,32.60438],[78.59977,32.60526],[78.59471,32.60652],[78.58695,32.60846],[78.55927,32.61234],[78.54985,32.61232],[78.54951,32.61232],[78.5452,32.61231],[78.54493,32.61231],[78.53894,32.61043],[78.53705,32.60983],[78.53675,32.60974],[78.53108,32.60796],[78.52641,32.60649],[78.50886,32.59472],[78.50328,32.58956],[78.49591,32.58275],[78.48561,32.57322],[78.47966,32.57312],[78.47274,32.57786],[78.4725,32.57803],[78.47152,32.57824],[78.47028,32.5785],[78.46162,32.58035],[78.45272,32.5795],[78.44333,32.57207],[78.43789,32.56777],[78.41224,32.55606],[78.41145,32.55431],[78.40433,32.53873],[78.40523,32.52523],[78.41125,32.51982],[78.41205,32.51912],[78.41653,32.5151],[78.41334,32.51324],[78.41076,32.51174],[78.40917,32.51202],[78.40892,32.51271],[78.40523,32.51423],[78.40526,32.51512],[78.40141,32.51818],[78.40025,32.52368],[78.39906,32.52637],[78.39792,32.52707],[78.39439,32.52853],[78.38243,32.52965],[78.37669,32.52605],[78.35636,32.51266],[78.31041,32.47593],[78.30624,32.47775],[78.27852,32.50793],[78.29504,32.52246],[78.29917,32.52927],[78.29662,32.57751],[78.30237,32.5787],[78.31799,32.58021],[78.33176,32.58487],[78.34062,32.59306],[78.37707,32.61488],[78.38882,32.62323],[78.37591,32.62961],[78.37093,32.63816],[78.36315,32.67199],[78.36368,32.68553],[78.36757,32.69952],[78.37782,32.71931],[78.37495,32.72265],[78.37122,32.7337],[78.37074,32.74585],[78.37277,32.76015],[78.37135,32.76183],[78.36428,32.76298],[78.34474,32.76343],[78.31395,32.74898],[78.28766,32.73783],[78.29462,32.73161],[78.29811,32.72483],[78.29856,32.71974],[78.29572,32.71281],[78.28487,32.70678],[78.27274,32.70293],[78.25912,32.70292],[78.23659,32.69467],[78.23326,32.6837],[78.22497,32.67556],[78.21294,32.66919],[78.20164,32.6652],[78.19499,32.66733],[78.18395,32.66387],[78.17951,32.67041],[78.17048,32.67721],[78.15842,32.67913],[78.15254,32.67902],[78.14445,32.6766],[78.136,32.67032],[78.13066,32.66006],[78.12666,32.6491],[78.1215,32.64235],[78.11616,32.64241],[78.10699,32.64974],[78.09927,32.65997],[78.09338,32.66215],[78.08852,32.65983],[78.079,32.65279],[78.07294,32.6444],[78.06746,32.62562],[78.06533,32.62428],[78.05901,32.62458],[78.0441,32.62884],[78.0339,32.63561],[78.03274,32.63375],[78.03244,32.62839],[78.03443,32.61565],[78.03676,32.61086],[78.04147,32.6053],[78.04161,32.59924],[78.0358,32.59195],[78.02744,32.58865],[78.01743,32.58703],[77.98705,32.5882],[77.98256,32.58653],[77.9767,32.59194],[77.97495,32.59637],[77.96785,32.60798],[77.96223,32.6138],[77.95947,32.62074],[77.95425,32.62596],[77.9551,32.63482],[77.95266,32.6404],[77.94648,32.64273],[77.93891,32.64802],[77.9323,32.6562],[77.92716,32.66262],[77.92621,32.66681],[77.92021,32.67951],[77.91097,32.68818],[77.90325,32.6931],[77.9024,32.69841],[77.90566,32.70359],[77.90626,32.71235],[77.90848,32.71639],[77.90944,32.72139],[77.91203,32.72577],[77.91847,32.73079],[77.91563,32.73369],[77.91183,32.73651],[77.91432,32.74178],[77.91441,32.74454],[77.91716,32.75188],[77.91793,32.75692],[77.91689,32.76273],[77.91513,32.76606],[77.91228,32.76717],[77.90893,32.77212],[77.9035,32.7729],[77.8995,32.77532],[77.89088,32.77451],[77.88748,32.77526],[77.8809,32.77541],[77.8763,32.78001],[77.87225,32.78625],[77.86697,32.79029],[77.869,32.80037],[77.86455,32.80652],[77.86383,32.81145],[77.86127,32.81616],[77.85497,32.82119],[77.85255,32.82518],[77.8476,32.82841],[77.83138,32.83504],[77.82509,32.83987],[77.81882,32.83853],[77.81432,32.83617],[77.80821,32.83604],[77.799,32.84584],[77.79188,32.84927],[77.78774,32.84976],[77.78088,32.8541],[77.77579,32.8547],[77.76772,32.85847],[77.76143,32.86483],[77.76598,32.88029],[77.77274,32.89091],[77.78699,32.89169],[77.7925,32.89808],[77.79017,32.90543],[77.78175,32.91003],[77.77803,32.91578],[77.75957,32.92741],[77.75099,32.93603],[77.74763,32.93942],[77.74746,32.94051],[77.74718,32.94221],[77.74479,32.94587],[77.73895,32.94727],[77.73642,32.94787],[77.73412,32.95032],[77.72734,32.95755],[77.72314,32.96436],[77.71249,32.9718],[77.70833,32.96732],[77.70369,32.96613],[77.69988,32.96904],[77.69671,32.97335],[77.69501,32.97782],[77.69087,32.97942],[77.67949,32.97778],[77.678,32.98072],[77.67086,32.98627],[77.66521,32.98603],[77.66308,32.97593],[77.65999,32.96896],[77.65637,32.96596],[77.65331,32.9594],[77.64988,32.95829],[77.64335,32.95785],[77.6385,32.95614],[77.62337,32.94454],[77.61726,32.944],[77.61296,32.94141],[77.61071,32.94231],[77.60615,32.94241],[77.59344,32.94154],[77.58637,32.9399],[77.58392,32.9438],[77.58153,32.93923],[77.58096,32.9345],[77.57967,32.93168],[77.56965,32.92166],[77.55385,32.91311],[77.54949,32.91336],[77.54472,32.91173],[77.53532,32.90229],[77.527,32.89228],[77.5232,32.88978],[77.50807,32.92763],[77.48399,33.01425],[77.4455,33.08644],[77.37812,33.19232],[77.36368,33.27414],[77.4118,33.35114],[77.46956,33.36077],[77.5225,33.43296],[77.561,33.52921],[77.50807,33.63028],[77.43106,33.72172],[77.31074,33.77947],[77.25298,33.78429],[77.14229,33.84684],[77.03642,33.88054],[76.96903,33.88535],[76.89203,33.91423],[76.82465,33.95755],[76.75246,34.07786],[76.68508,34.13562],[76.6514,34.15487],[76.58883,34.17412],[76.53107,34.19818],[76.47333,34.23668],[76.44445,34.23187],[76.42039,34.25594],[76.36745,34.34737],[76.37226,34.41957],[76.36745,34.51101],[76.34338,34.55914],[76.33857,34.63132],[76.32872,34.73306],[76.33989,34.73432],[76.35074,34.7347],[76.38593,34.73595],[76.40954,34.75217],[76.42762,34.76244],[76.43696,34.76438],[76.4692,34.79167],[76.47177,34.79302],[76.47434,34.79437],[76.47733,34.79399],[76.48974,34.79238],[76.51409,34.7838],[76.54532,34.76559],[76.56181,34.75834],[76.57098,34.75842],[76.58002,34.75552],[76.61804,34.75607],[76.6525,34.75656],[76.67164,34.75742],[76.68182,34.75959],[76.68719,34.76321],[76.6967,34.77913],[76.70619,34.80125],[76.72729,34.8209],[76.73785,34.83074],[76.74324,34.8401],[76.74469,34.84473],[76.74344,34.86489],[76.73886,34.90193],[76.74337,34.91814],[76.74937,34.9266],[76.76243,34.93299],[76.76419,34.93312],[76.79934,34.93577],[76.80442,34.93433],[76.81105,34.93546],[76.82552,34.94165],[76.84815,34.95797],[76.85316,34.96387],[76.86315,34.97084],[76.87004,34.97243],[76.88351,34.97033],[76.89847,34.96426],[76.90141,34.96307],[76.90843,34.96169],[76.95034,34.94094],[76.97036,34.93558],[76.98875,34.93522],[76.99749,34.93915],[77.01014,34.95629],[77.01145,34.96671],[77.01131,34.97272],[77.01066,35.0],[77.0103,35.01618],[77.01095,35.02759],[77.01379,35.03512],[77.0181,35.03846],[77.02692,35.04079],[77.03677,35.03236],[77.06837,35.02412],[77.08138,35.02634],[77.1098,35.03933],[77.15682,35.0547],[77.17558,35.06679],[77.19482,35.07919],[77.28079,35.13829],[77.29519,35.14563],[77.30075,35.14848],[77.37944,35.19789],[77.38441,35.19917],[77.41883,35.22007],[77.44252,35.23444],[77.48542,35.26654],[77.53961,35.29778],[77.58502,35.32392],[77.65057,35.36708],[77.66092,35.37523],[77.73551,35.43384],[77.76037,35.45118],[77.77467,35.46016],[77.81465,35.48525],[77.81929,35.49329],[77.82393,35.50133],[77.84082,35.50111],[77.84308,35.50098],[77.84678,35.50078],[77.85019,35.49173],[77.85132,35.48874],[77.86267,35.45859],[77.86872,35.45052],[77.87942,35.43625],[77.88477,35.43196],[77.88863,35.42887],[77.89957,35.42789],[77.90297,35.42759],[77.91019,35.42936],[77.91988,35.43434],[77.92093,35.43488],[77.92802,35.44054],[77.94378,35.46296],[77.94459,35.46411],[77.95129,35.47364],[77.96172,35.48006],[77.96688,35.48132],[77.99065,35.48711],[78.00999,35.48919],[78.01998,35.49026],[78.04536,35.49109],[78.06375,35.49169],[78.06482,35.49173],[78.07935,35.4922],[78.08195,35.4917],[78.0877,35.49059],[78.0943,35.4893],[78.10399,35.48446],[78.10705,35.48043],[78.10983,35.47677],[78.1108,35.47266],[78.1077,35.46457],[78.1045,35.46182],[78.09733,35.45564],[78.07964,35.44815],[78.07183,35.44685],[78.07019,35.44464],[78.06888,35.44288],[78.03169,35.42306],[78.0301,35.42047],[78.02983,35.42003],[78.02846,35.41928],[78.0246,35.41717],[78.0212,35.41688],[78.02077,35.41647],[78.01949,35.41526],[77.99707,35.39409],[77.99029,35.37903],[77.98996,35.36364],[77.99185,35.34855],[77.99435,35.34493],[78.00151,35.29797],[78.00202,35.29462],[78.00636,35.29035],[78.0137,35.26419]]]}},{"type":"Feature","properties":{"ID_0":105,"ISO":"IND","NAME_0":"India","ID_1":15,"NAME_1":"Jammu and Kashmir","ID_2":189,"NAME_2":"Pulwama","NL_NAME_2":null,"VARNAME_2":null,"TYPE_2":"District","ENGTYPE_2":"District","STATE":"Jammu & Kashmir","DISTRICT":"Pulwama"},"geometry":{"type":"Polygon","coordinates":[[[75.24261,34.04773],[75.23749,34.03382],[75.22025,33.99074],[75.21451,33.93905],[75.22025,33.89597],[75.20877,33.85001],[75.21451,33.81553],[75.12835,33.7581],[75.05654,33.74087],[74.979,33.68057],[74.93591,33.66332],[74.8756,33.64035],[74.80955,33.64609],[74.75211,33.68057],[74.72356,33.68647],[74.73469,33.71486],[74.76771,33.73927],[74.78774,33.75811],[74.8154,33.77769],[74.86086,33.80953],[74.88084,33.81908],[74.90678,33.82235],[74.93011,33.82645],[74.95413,33.83708],[74.96916,33.85341],[74.98009,33.87981],[74.98362,33.90084],[74.9829,33.91474],[74.98608,33.9325],[74.99287,33.95968],[75.0079,33.97601],[75.00354,33.99118],[74.99638,34.01088],[74.99953,34.02957],[74.99674,34.04249],[75.02495,34.0453],[75.05654,34.05393],[75.06803,34.04818],[75.11398,34.03957],[75.15132,34.0367],[75.1743,34.0367],[75.20877,34.0453],[75.24261,34.04773]]]}},{"type":"Feature","properties":{"ID_0":105,"ISO":"IND","NAME_0":"India","ID_1":15,"NAME_1":"Jammu and Kashmir","ID_2":190,"NAME_2":"Punch","NL_NAME_2":null,"VARNAME_2":null,"TYPE_2":"District","ENGTYPE_2":"District","STATE":"Jammu & Kashmir","DISTRICT":"Punch"},"geometry":{"type":"Polygon","coordinates":[[[73.88981,34.0424],[73.88322,34.04995],[73.88432,34.06136],[73.90079,34.06429],[73.91342,34.07729],[73.92315,34.09714],[73.94783,34.105],[73.98071,34.10296],[74.01441,34.10419],[74.02876,34.10424],[74.05459,34.0994],[74.07555,34.08942],[74.12347,34.09541],[74.17638,34.08144],[74.20534,34.07844],[74.23928,34.04649],[74.26524,34.02054],[74.28121,34.00456],[74.32513,34.00257],[74.36531,34.0034],[74.3706,34.00619],[74.38858,34.00499],[74.41022,34.00207],[74.44251,34.00138],[74.46507,34.00081],[74.48948,34.01377],[74.51036,34.02568],[74.51699,34.02023],[74.52974,34.02772],[74.54156,34.00639],[74.55735,33.98792],[74.57413,33.98018],[74.59149,33.97106],[74.60348,33.9571],[74.61089,33.9323],[74.6147,33.89808],[74.61894,33.86526],[74.62578,33.84183],[74.63975,33.81912],[74.65678,33.79652],[74.66664,33.78388],[74.67593,33.7624],[74.69019,33.73413],[74.70465,33.72165],[74.71893,33.71243],[74.72356,33.68647],[74.71622,33.69561],[74.71096,33.68845],[74.70235,33.66678],[74.69711,33.64941],[74.6939,33.63211],[74.6948,33.6145],[74.69514,33.58804],[74.70303,33.56419],[74.71063,33.54543],[74.71629,33.52519],[74.7277,33.50367],[74.72192,33.49522],[74.70664,33.49374],[74.69517,33.49796],[74.68445,33.50732],[74.66614,33.51501],[74.64346,33.52812],[74.62803,33.54938],[74.60741,33.5621],[74.58304,33.56817],[74.56545,33.57171],[74.55023,33.57905],[74.53079,33.5788],[74.50381,33.57596],[74.47685,33.57266],[74.45213,33.56572],[74.43652,33.55076],[74.42455,33.53454],[74.41118,33.51594],[74.40488,33.49898],[74.39985,33.47745],[74.39648,33.4634],[74.37901,33.4349],[74.36387,33.41067],[74.34563,33.38109],[74.33381,33.39796],[74.31623,33.41125],[74.30731,33.42579],[74.28694,33.43341],[74.27827,33.44284],[74.26849,33.46384],[74.25656,33.48663],[74.24055,33.50926],[74.23988,33.51129],[74.21512,33.50351],[74.1646,33.49565],[74.1581,33.50235],[74.14264,33.51832],[74.12339,33.54321],[74.09696,33.56918],[74.09571,33.5704],[74.08836,33.5732],[74.07447,33.56852],[74.07439,33.56944],[74.0539,33.56508],[74.04536,33.56575],[74.02844,33.57468],[74.01469,33.59837],[74.01067,33.60529],[74.0,33.62367],[73.99961,33.62478],[73.9757,33.69363],[73.95625,33.72029],[73.96646,33.74032],[74.0,33.75258],[74.02398,33.77204],[74.02834,33.77596],[74.03833,33.79514],[74.04134,33.79899],[74.04905,33.80883],[74.05276,33.81134],[74.06573,33.8201],[74.09001,33.82628],[74.1298,33.82756],[74.14334,33.83014],[74.17009,33.83989],[74.19228,33.85142],[74.20763,33.8594],[74.21967,33.86718],[74.24556,33.895],[74.26112,33.9248],[74.26358,33.94262],[74.26325,33.95523],[74.26274,33.97429],[74.24869,34.01382],[74.24653,34.01603],[74.23722,34.02553],[74.22556,34.0334],[74.21468,34.03856],[74.19635,34.04008],[74.18143,34.03957],[74.16142,34.03887],[74.14922,34.04303],[74.13245,34.05267],[74.12688,34.05426],[74.1237,34.05518],[74.11498,34.05378],[74.10046,34.04563],[74.09592,34.04032],[74.08703,34.03776],[74.06107,34.03471],[74.05666,34.03125],[74.04406,34.02972],[74.0389,34.02911],[74.00607,34.02244],[74.0,34.03019],[73.90899,34.03254],[73.89817,34.03282],[73.88981,34.0424]]]}},{"type":"Feature","properties":{"ID_0":105,"ISO":"IND","NAME_0":"India","ID_1":15,"NAME_1":"Jammu and Kashmir","ID_2":191,"NAME_2":"Rajauri","NL_NAME_2":null,"VARNAME_2":null,"TYPE_2":"District","ENGTYPE_2":"District","STATE":"Jammu & Kashmir","DISTRICT":"Rajauri"},"geometry":{"type":"Polygon","coordinates":[[[74.75321,33.50788],[74.76213,33.47347],[74.77478,33.44975],[74.79849,33.41972],[74.80482,33.39916],[74.79375,33.37703],[74.77952,33.3549],[74.77794,33.3296],[74.77952,33.30905],[74.78742,33.29324],[74.79375,33.27901],[74.79691,33.26478],[74.80482,33.24739],[74.80482,33.23632],[74.79059,33.23475],[74.76371,33.23791],[74.74632,33.24581],[74.7226,33.24265],[74.70364,33.23475],[74.68466,33.21419],[74.68466,33.20155],[74.68941,33.19206],[74.70206,33.1889],[74.7226,33.1889],[74.73842,33.17625],[74.73842,33.15412],[74.73209,33.13356],[74.72577,33.10669],[74.70837,33.06717],[74.69889,33.0308],[74.67561,33.00067],[74.65088,33.00555],[74.6312,32.98428],[74.61498,32.99728],[74.5958,32.98172],[74.58007,32.96907],[74.58466,32.96525],[74.56505,32.95872],[74.53279,32.95872],[74.49838,32.97807],[74.47258,32.99743],[74.44892,32.99958],[74.41666,32.97377],[74.39946,32.94582],[74.37366,32.94582],[74.33489,32.95476],[74.34636,32.96555],[74.35318,32.98313],[74.35283,32.99029],[74.3517,33.01313],[74.34983,33.01625],[74.33792,33.02594],[74.32648,33.02946],[74.30788,33.03052],[74.2832,33.04319],[74.25497,33.04877],[74.24203,33.04729],[74.2204,33.04482],[74.21645,33.04299],[74.20525,33.0433],[74.19927,33.04688],[74.19064,33.07671],[74.17625,33.10715],[74.15703,33.12586],[74.14878,33.13388],[74.14485,33.13527],[74.1117,33.16444],[74.09987,33.17251],[74.08284,33.18074],[74.05643,33.18661],[74.03367,33.1881],[74.02625,33.18859],[74.01823,33.19319],[74.01427,33.19825],[74.01125,33.21875],[74.01102,33.2385],[74.01311,33.24987],[74.01398,33.25094],[74.0203,33.25878],[74.02438,33.26245],[74.0365,33.26474],[74.048,33.26447],[74.06503,33.25991],[74.06829,33.25999],[74.07894,33.26023],[74.0881,33.2629],[74.09069,33.26365],[74.10298,33.27054],[74.1158,33.28113],[74.11763,33.2856],[74.16685,33.34414],[74.16944,33.34581],[74.17075,33.34665],[74.18508,33.38351],[74.18421,33.39104],[74.18006,33.40207],[74.17929,33.42569],[74.18166,33.4304],[74.18293,33.44197],[74.18707,33.45552],[74.18565,33.46647],[74.18503,33.46774],[74.17814,33.48168],[74.1646,33.49565],[74.21512,33.50351],[74.23988,33.51129],[74.24055,33.50926],[74.25656,33.48663],[74.26849,33.46384],[74.27827,33.44284],[74.28694,33.43341],[74.30731,33.42579],[74.31623,33.41125],[74.33381,33.39796],[74.34563,33.38109],[74.36387,33.41067],[74.37901,33.4349],[74.39648,33.4634],[74.39985,33.47745],[74.40488,33.49898],[74.41118,33.51594],[74.42455,33.53454],[74.43652,33.55076],[74.45213,33.56572],[74.47685,33.57266],[74.50381,33.57596],[74.53079,33.5788],[74.55023,33.57905],[74.56545,33.57171],[74.58304,33.56817],[74.60741,33.5621],[74.62803,33.54938],[74.64346,33.52812],[74.66614,33.51501],[74.68445,33.50732],[74.69517,33.49796],[74.70664,33.49374],[74.72192,33.49522],[74.7277,33.50367],[74.73909,33.50978],[74.75321,33.50788]]]}},{"type":"Feature","properties":{"ID_0":105,"ISO":"IND","NAME_0":"India","ID_1":15,"NAME_1":"Jammu and Kashmir","ID_2":192,"NAME_2":"Srinagar","NL_NAME_2":null,"VARNAME_2":null,"TYPE_2":"District","ENGTYPE_2":"District","STATE":"Jammu & Kashmir","DISTRICT":"Srinagar"},"geometry":{"type":"Polygon","coordinates":[[[75.47751,34.37376],[75.43854,34.34688],[75.41556,34.32391],[75.40407,34.28083],[75.38396,34.25497],[75.30642,34.22051],[75.28344,34.19753],[75.25185,34.14871],[75.26046,34.13435],[75.25759,34.08839],[75.24261,34.04773],[75.20877,34.0453],[75.1743,34.0367],[75.15132,34.0367],[75.11398,34.03957],[75.06803,34.04818],[75.05654,34.05393],[75.02495,34.0453],[74.99674,34.04249],[74.99615,34.04523],[74.97643,34.0603],[74.95716,34.07678],[74.93332,34.10238],[74.89592,34.14281],[74.88601,34.1525],[74.87167,34.16653],[74.85214,34.17789],[74.83463,34.20001],[74.8137,34.21875],[74.80511,34.23655],[74.79347,34.25377],[74.78702,34.26978],[74.79127,34.28666],[74.79895,34.30643],[74.79464,34.32067],[74.79568,34.34021],[74.80695,34.34991],[74.83698,34.35332],[74.86283,34.34823],[74.89011,34.34551],[74.91367,34.33521],[74.93317,34.33408],[74.96042,34.35179],[74.99997,34.36901],[75.02529,34.37412],[75.04156,34.38633],[75.04325,34.41331],[75.04855,34.43951],[75.05273,34.45777],[75.07379,34.46643],[75.10614,34.46436],[75.15113,34.44557],[75.17696,34.42097],[75.20019,34.40742],[75.21992,34.39189],[75.24207,34.37923],[75.26415,34.36796],[75.28239,34.36166],[75.3046,34.35783],[75.31432,34.37769],[75.32854,34.38981],[75.35284,34.39534],[75.38343,34.38764],[75.40033,34.37757],[75.42516,34.37244],[75.4482,34.37234],[75.46494,34.37528],[75.47289,34.37975],[75.47751,34.37376]]]}},{"type":"Feature","properties":{"ID_0":105,"ISO":"IND","NAME_0":"India","ID_1":15,"NAME_1":"Jammu and Kashmir","ID_2":193,"NAME_2":"Udhampur","NL_NAME_2":null,"VARNAME_2":null,"TYPE_2":"District","ENGTYPE_2":"District","STATE":"Jammu & Kashmir","DISTRICT":"Udhampur"},"geometry":{"type":"Polygon","coordinates":[[[74.91387,33.51522],[74.94089,33.49763],[74.96996,33.47965],[74.98998,33.47852],[75.01624,33.48552],[75.04023,33.48685],[75.06884,33.4879],[75.09436,33.48929],[75.11205,33.4839],[75.131,33.47345],[75.15742,33.46745],[75.18504,33.46489],[75.17427,33.45831],[75.17062,33.44006],[75.17089,33.41454],[75.17131,33.39644],[75.18085,33.38007],[75.20208,33.36552],[75.23218,33.34758],[75.24741,33.34024],[75.2719,33.31189],[75.2833,33.28909],[75.28006,33.25275],[75.27049,33.22965],[75.25607,33.21148],[75.23236,33.17487],[75.22594,33.15048],[75.23203,33.13166],[75.2327,33.13026],[75.29181,33.12472],[75.3484,33.10295],[75.41152,33.07683],[75.45941,33.05724],[75.51165,33.03112],[75.55301,33.00065],[75.58784,32.97018],[75.63572,32.94841],[75.66619,32.93753],[75.69884,32.92882],[75.77938,32.90488],[75.79836,32.90216],[75.79381,32.89731],[75.78988,32.89398],[75.78742,32.89332],[75.78918,32.88462],[75.78983,32.8814],[75.79465,32.87019],[75.79537,32.86926],[75.78942,32.86362],[75.78458,32.83837],[75.78582,32.81427],[75.77852,32.79683],[75.75799,32.77797],[75.73347,32.76732],[75.70731,32.75848],[75.66373,32.75967],[75.63882,32.75645],[75.62179,32.73911],[75.61917,32.72044],[75.62414,32.70344],[75.62234,32.67876],[75.60029,32.66961],[75.57688,32.66689],[75.5571,32.66339],[75.53252,32.66342],[75.49603,32.65652],[75.47808,32.64704],[75.46346,32.6428],[75.4388,32.63447],[75.4311,32.60899],[75.4257,32.61747],[75.42137,32.62426],[75.41976,32.62681],[75.40693,32.62727],[75.37839,32.63459],[75.36409,32.63408],[75.34064,32.64203],[75.3177,32.66024],[75.28915,32.66802],[75.25438,32.68718],[75.23878,32.70192],[75.23627,32.72088],[75.24821,32.74732],[75.25462,32.77216],[75.25142,32.79433],[75.24106,32.81671],[75.2261,32.82917],[75.20972,32.83878],[75.18745,32.85376],[75.16851,32.86578],[75.1584,32.87128],[75.14444,32.87402],[75.13403,32.87735],[75.11822,32.87631],[75.10068,32.87892],[75.08253,32.88337],[75.06888,32.88009],[75.05763,32.88989],[75.04449,32.90659],[75.033,32.93079],[75.01617,32.92971],[75.00105,32.91523],[74.98579,32.91328],[74.97076,32.91691],[74.95776,32.93083],[74.95651,32.95493],[74.96529,32.97336],[74.96326,32.99279],[74.96082,33.02056],[74.95071,33.03783],[74.9402,33.05324],[74.9213,33.05256],[74.90343,33.05143],[74.89034,33.04724],[74.87214,33.04287],[74.85526,33.04271],[74.81689,33.04224],[74.80075,33.03748],[74.79831,33.02531],[74.79717,33.00763],[74.79397,32.99033],[74.78549,32.97609],[74.77455,32.96966],[74.75632,32.97597],[74.73644,32.98406],[74.70885,32.99327],[74.67673,33.00045],[74.67561,33.00067],[74.69889,33.0308],[74.70837,33.06717],[74.72577,33.10669],[74.73209,33.13356],[74.73842,33.15412],[74.73842,33.17625],[74.7226,33.1889],[74.70206,33.1889],[74.68941,33.19206],[74.68466,33.20155],[74.68466,33.21419],[74.70364,33.23475],[74.7226,33.24265],[74.74632,33.24581],[74.76371,33.23791],[74.79059,33.23475],[74.80482,33.23632],[74.80482,33.24739],[74.79691,33.26478],[74.79375,33.27901],[74.78742,33.29324],[74.77952,33.30905],[74.77794,33.3296],[74.77952,33.3549],[74.79375,33.37703],[74.80482,33.39916],[74.79849,33.41972],[74.77478,33.44975],[74.76213,33.47347],[74.75321,33.50788],[74.77157,33.5054],[74.79619,33.50443],[74.81527,33.51163],[74.84017,33.52507],[74.87717,33.52224],[74.91387,33.51522]]]}}],"state":"Jammu & Kashmir","source":"geohacker/india (Datameet-derived), Census 2011 boundaries"}