{"type":"FeatureCollection","features":[{"type":"Feature","properties":{"ID_0":105,"ISO":"IND","NAME_0":"India","ID_1":19,"NAME_1":"Lakshadweep","ID_2":257,"NAME_2":"Kavaratti","NL_NAME_2":null,"VARNAME_2":null,"TYPE_2":"District","ENGTYPE_2":"District","STATE":"Lakshadweep","DISTRICT":"Kavaratti"},"geometry":{"type":"MultiPolygon","coordinates":[[[[73.01014,8.28042],[73.01014,8.28014],[73.01041,8.28014],[73.01041,8.27986],[73.0107,8.27986],[73.0107,8.27958],[73.01097,8.27958],[73.01097,8.27931],[73.01153,8.27931],[73.01153,8.27903],[73.01208,8.27903],[73.01208,8.27875],[73.01292,8.27875],[73.01292,8.27736],[73.01264,8.27736],[73.01264,8.27708],[73.01236,8.27708],[73.01236,8.27681],[73.0118,8.27681],[73.0118,8.27653],[73.01125,8.27653],[73.01125,8.27681],[73.01097,8.27681],[73.01097,8.27708],[73.0107,8.27708],[73.0107,8.27736],[73.01041,8.27736],[73.01041,8.27792],[73.01014,8.27792],[73.01014,8.27931],[73.00986,8.27931],[73.00986,8.28042],[73.01014,8.28042]]],[[[73.08097,8.32764],[73.08097,8.32708],[73.0807,8.32708],[73.0807,8.32625],[73.0804,8.32625],[73.0804,8.32569],[73.07986,8.32569],[73.07986,8.32542],[73.07958,8.32542],[73.07958,8.32514],[73.07931,8.32514],[73.07931,8.32458],[73.07903,8.32458],[73.07903,8.32403],[73.07875,8.32403],[73.07875,8.32375],[73.07848,8.32375],[73.07848,8.32346],[73.07819,8.32347],[73.07819,8.3232],[73.07792,8.3232],[73.07792,8.32292],[73.07765,8.32292],[73.07765,8.32264],[73.07736,8.32264],[73.07736,8.32236],[73.07681,8.32236],[73.07681,8.32208],[73.07653,8.32208],[73.07653,8.32153],[73.07625,8.32153],[73.07625,8.32097],[73.07597,8.32097],[73.07597,8.32014],[73.07569,8.32014],[73.07569,8.31958],[73.07542,8.31958],[73.07542,8.31875],[73.07514,8.31875],[73.07514,8.3182],[73.07486,8.3182],[73.07486,8.31736],[73.07458,8.31736],[73.07458,8.31708],[73.0743,8.31708],[73.0743,8.31653],[73.07403,8.31653],[73.07403,8.31597],[73.07375,8.31597],[73.07375,8.31542],[73.07347,8.31542],[73.07347,8.31514],[73.0732,8.31514],[73.0732,8.31486],[73.07291,8.31486],[73.07291,8.31431],[73.07264,8.31431],[73.07264,8.31375],[73.07236,8.31375],[73.07236,8.31347],[73.07208,8.31347],[73.07208,8.31292],[73.07181,8.31292],[73.07181,8.31236],[73.07152,8.31236],[73.07152,8.31181],[73.07125,8.31181],[73.07125,8.31152],[73.07097,8.31153],[73.07097,8.31097],[73.07069,8.31097],[73.07069,8.31042],[73.07042,8.31042],[73.07042,8.30958],[73.07014,8.30958],[73.07014,8.30903],[73.06986,8.30903],[73.06986,8.30875],[73.06958,8.30875],[73.06958,8.30819],[73.06931,8.30819],[73.06931,8.30792],[73.06903,8.30792],[73.06903,8.30625],[73.06875,8.30625],[73.06875,8.30569],[73.06847,8.30569],[73.06847,8.30486],[73.06819,8.30486],[73.06819,8.30431],[73.06792,8.30431],[73.06792,8.30347],[73.06764,8.30347],[73.06764,8.30264],[73.06736,8.30265],[73.06736,8.30153],[73.06709,8.30153],[73.06709,8.30069],[73.06736,8.3007],[73.06736,8.30014],[73.06709,8.30014],[73.06709,8.29792],[73.06736,8.29792],[73.06736,8.29764],[73.06709,8.29764],[73.06709,8.29708],[73.0668,8.29708],[73.0668,8.29625],[73.06653,8.29625],[73.06653,8.29292],[73.0668,8.29292],[73.0668,8.2918],[73.0668,8.28986],[73.06709,8.28986],[73.06709,8.28628],[73.06709,8.28569],[73.0668,8.28569],[73.0668,8.28542],[73.06653,8.28542],[73.06653,8.28514],[73.06625,8.28514],[73.06625,8.28486],[73.06597,8.28486],[73.06597,8.28458],[73.0657,8.28458],[73.0657,8.28403],[73.06542,8.28403],[73.06542,8.28375],[73.06514,8.28375],[73.06514,8.28347],[73.06486,8.28347],[73.06486,8.28319],[73.06458,8.28319],[73.06458,8.28264],[73.06431,8.28264],[73.06431,8.28236],[73.06403,8.28236],[73.06403,8.28208],[73.06377,8.28208],[73.06347,8.28208],[73.06347,8.28153],[73.06339,8.28153],[73.06292,8.28154],[73.06292,8.28125],[73.06236,8.28125],[73.06236,8.28097],[73.06153,8.28097],[73.06153,8.28069],[73.06125,8.28069],[73.06125,8.28042],[73.06097,8.28042],[73.06097,8.28014],[73.06069,8.28014],[73.06069,8.27986],[73.06042,8.27986],[73.06042,8.27958],[73.06014,8.27958],[73.06014,8.27931],[73.05958,8.27931],[73.05958,8.27903],[73.0593,8.27903],[73.0593,8.27875],[73.05903,8.27875],[73.05903,8.27847],[73.05875,8.27848],[73.05875,8.27819],[73.05847,8.27819],[73.05847,8.27792],[73.0582,8.27792],[73.0582,8.27764],[73.05791,8.27764],[73.05791,8.27708],[73.05764,8.27708],[73.05764,8.27681],[73.05736,8.27681],[73.05736,8.27653],[73.05708,8.27653],[73.05708,8.27625],[73.05681,8.27625],[73.05681,8.27597],[73.05653,8.27597],[73.05653,8.2757],[73.0564,8.2757],[73.05597,8.2757],[73.05597,8.27544],[73.05597,8.27514],[73.05569,8.27514],[73.05569,8.27486],[73.05542,8.27486],[73.05542,8.27458],[73.05514,8.27458],[73.05514,8.27431],[73.05491,8.27427],[73.05486,8.27403],[73.05471,8.27403],[73.05458,8.27403],[73.05458,8.27388],[73.05458,8.27375],[73.05447,8.27375],[73.05431,8.27375],[73.05431,8.2736],[73.05431,8.2732],[73.05403,8.2732],[73.05403,8.27292],[73.05375,8.27292],[73.05375,8.27235],[73.05347,8.27236],[73.05347,8.2718],[73.05319,8.27181],[73.05319,8.27125],[73.05292,8.27125],[73.05292,8.27097],[73.05264,8.27097],[73.05264,8.27069],[73.05236,8.27069],[73.05236,8.27042],[73.05209,8.27042],[73.05209,8.26986],[73.0518,8.26986],[73.0518,8.26958],[73.05153,8.26958],[73.05153,8.26931],[73.05125,8.26931],[73.05125,8.26903],[73.05097,8.26903],[73.05097,8.26875],[73.0507,8.26875],[73.0507,8.2682],[73.05042,8.2682],[73.05042,8.26792],[73.05014,8.26792],[73.05014,8.26764],[73.04958,8.26764],[73.04958,8.26736],[73.04931,8.26736],[73.04931,8.2668],[73.04875,8.26681],[73.04875,8.26654],[73.04681,8.26654],[73.04681,8.26625],[73.04347,8.26625],[73.04347,8.26597],[73.03736,8.26597],[73.03736,8.26625],[73.03458,8.26625],[73.03458,8.26654],[73.03152,8.26654],[73.03152,8.26681],[73.03069,8.2668],[73.03069,8.26708],[73.02986,8.26708],[73.02986,8.26736],[73.02903,8.26736],[73.02903,8.26764],[73.0282,8.26764],[73.02819,8.26792],[73.02736,8.26792],[73.02736,8.2682],[73.02653,8.2682],[73.02653,8.26847],[73.02402,8.26847],[73.02402,8.26875],[73.02292,8.26875],[73.02291,8.26884],[73.0229,8.26903],[73.02264,8.26903],[73.02264,8.26931],[73.02236,8.26931],[73.02236,8.26958],[73.0218,8.26958],[73.0218,8.26986],[73.02125,8.26986],[73.02125,8.27014],[73.02097,8.27014],[73.02097,8.27042],[73.02042,8.27042],[73.02042,8.27069],[73.02014,8.27069],[73.02014,8.27097],[73.01958,8.27097],[73.01958,8.27125],[73.0193,8.27125],[73.0193,8.27153],[73.01875,8.27153],[73.01875,8.27236],[73.01903,8.27236],[73.01903,8.2732],[73.01875,8.27319],[73.01875,8.27403],[73.01847,8.27403],[73.01847,8.27458],[73.0182,8.27458],[73.0182,8.27542],[73.01791,8.27542],[73.01791,8.27625],[73.01764,8.27625],[73.01764,8.27708],[73.01791,8.27708],[73.01791,8.27736],[73.0182,8.27736],[73.0182,8.27764],[73.0193,8.27764],[73.0193,8.27736],[73.01958,8.27736],[73.01958,8.27708],[73.02014,8.27708],[73.02014,8.27681],[73.02041,8.27681],[73.02041,8.27653],[73.02097,8.27653],[73.02097,8.27625],[73.02153,8.27625],[73.02153,8.27597],[73.02209,8.27597],[73.02209,8.2757],[73.02236,8.2757],[73.02236,8.27542],[73.02264,8.27542],[73.02264,8.27514],[73.02292,8.27514],[73.02292,8.27486],[73.02319,8.27486],[73.02319,8.27458],[73.02348,8.27458],[73.02348,8.27292],[73.02375,8.27292],[73.02375,8.27264],[73.02597,8.27264],[73.02597,8.27235],[73.02792,8.27235],[73.02792,8.27264],[73.02929,8.27264],[73.02929,8.27292],[73.03125,8.27292],[73.03125,8.2732],[73.03181,8.2732],[73.03181,8.27347],[73.03291,8.27347],[73.03291,8.27375],[73.03403,8.27375],[73.03403,8.27403],[73.03458,8.27403],[73.03458,8.27431],[73.0407,8.27431],[73.0407,8.27403],[73.04097,8.27403],[73.04097,8.27431],[73.04208,8.27431],[73.04208,8.27458],[73.04292,8.27458],[73.04292,8.27486],[73.04375,8.27486],[73.04375,8.27514],[73.04458,8.27514],[73.04458,8.27542],[73.04514,8.27542],[73.04514,8.2757],[73.04569,8.2757],[73.04569,8.27597],[73.04597,8.27597],[73.04597,8.27625],[73.04708,8.27625],[73.04708,8.27653],[73.04736,8.27653],[73.04736,8.27681],[73.04764,8.27681],[73.04764,8.27708],[73.04792,8.27708],[73.04792,8.27736],[73.04819,8.27736],[73.04819,8.27764],[73.04847,8.27764],[73.04847,8.27792],[73.04903,8.27792],[73.04903,8.27819],[73.04931,8.27819],[73.04931,8.27848],[73.04986,8.27847],[73.04986,8.27875],[73.05014,8.27875],[73.05014,8.27931],[73.0507,8.27931],[73.0507,8.27958],[73.05125,8.27958],[73.05125,8.27986],[73.05153,8.27986],[73.05153,8.28014],[73.05209,8.28014],[73.05209,8.28042],[73.05236,8.28042],[73.05236,8.28069],[73.05264,8.28069],[73.05264,8.28097],[73.05292,8.28097],[73.05292,8.28125],[73.05319,8.28125],[73.05319,8.28154],[73.05348,8.28154],[73.05348,8.28181],[73.05403,8.28181],[73.05403,8.28208],[73.05458,8.28208],[73.05458,8.28236],[73.05486,8.28236],[73.05486,8.28264],[73.05569,8.28264],[73.05569,8.28375],[73.05597,8.28375],[73.05597,8.28403],[73.05625,8.28403],[73.05625,8.28514],[73.05653,8.28514],[73.05653,8.28569],[73.05681,8.28569],[73.05681,8.28597],[73.05708,8.28597],[73.05708,8.28653],[73.05736,8.28653],[73.05736,8.28708],[73.05764,8.28708],[73.05764,8.28736],[73.0582,8.28736],[73.0582,8.28764],[73.05847,8.28764],[73.05847,8.28792],[73.05875,8.28792],[73.05875,8.28903],[73.0593,8.28903],[73.0593,8.28958],[73.05958,8.28958],[73.05958,8.29042],[73.05986,8.29042],[73.05986,8.2907],[73.06014,8.2907],[73.06014,8.29097],[73.06042,8.29097],[73.06042,8.29125],[73.06069,8.29125],[73.06069,8.29153],[73.06097,8.29153],[73.06097,8.29181],[73.06125,8.29181],[73.06125,8.29236],[73.06153,8.29236],[73.06153,8.29264],[73.06181,8.29264],[73.06181,8.29292],[73.06208,8.29292],[73.06208,8.29348],[73.06236,8.29347],[73.06236,8.29375],[73.06265,8.29375],[73.06265,8.29431],[73.06292,8.2943],[73.06292,8.29486],[73.06319,8.29486],[73.06319,8.29514],[73.06375,8.29514],[73.06375,8.2957],[73.06403,8.2957],[73.06403,8.29625],[73.06431,8.29625],[73.06431,8.29681],[73.06458,8.29681],[73.06458,8.29708],[73.06486,8.29708],[73.06486,8.29792],[73.06514,8.29792],[73.06514,8.29903],[73.06541,8.29903],[73.06541,8.30125],[73.06571,8.30125],[73.06571,8.30265],[73.06597,8.30264],[73.06597,8.30319],[73.06625,8.30319],[73.06625,8.30403],[73.06653,8.30403],[73.06653,8.30486],[73.0668,8.30486],[73.0668,8.30597],[73.06709,8.30597],[73.06709,8.30625],[73.06736,8.30625],[73.06736,8.30681],[73.06764,8.30681],[73.06764,8.30736],[73.06792,8.30736],[73.06792,8.30792],[73.06819,8.30792],[73.06819,8.30847],[73.06846,8.30846],[73.06846,8.30931],[73.06875,8.30931],[73.06875,8.30958],[73.06903,8.30958],[73.06903,8.31042],[73.06931,8.31042],[73.06931,8.31125],[73.06958,8.31125],[73.06958,8.31181],[73.06986,8.31181],[73.06986,8.31208],[73.07014,8.31208],[73.07014,8.31264],[73.07042,8.31264],[73.07042,8.31319],[73.07069,8.31319],[73.07069,8.31403],[73.07097,8.31403],[73.07097,8.31459],[73.07125,8.31459],[73.07125,8.31514],[73.07153,8.31514],[73.07153,8.31569],[73.07181,8.31569],[73.07181,8.31625],[73.07208,8.31625],[73.07208,8.31681],[73.07236,8.31681],[73.07236,8.31736],[73.07264,8.31736],[73.07264,8.31765],[73.07291,8.31764],[73.07291,8.31847],[73.0732,8.31847],[73.0732,8.31903],[73.07347,8.31903],[73.07347,8.31931],[73.07375,8.31931],[73.07375,8.31986],[73.07403,8.31986],[73.07403,8.32042],[73.0743,8.32042],[73.0743,8.32069],[73.07459,8.32069],[73.07459,8.32125],[73.07486,8.32125],[73.07486,8.32181],[73.07514,8.32181],[73.07514,8.32236],[73.07542,8.32236],[73.07542,8.32264],[73.07569,8.32264],[73.07569,8.3232],[73.07597,8.32319],[73.07597,8.32375],[73.07625,8.32375],[73.07625,8.32403],[73.07653,8.32403],[73.07653,8.32431],[73.07681,8.32431],[73.07681,8.32514],[73.07708,8.32514],[73.07708,8.32542],[73.07819,8.32542],[73.07819,8.32569],[73.07903,8.32569],[73.07903,8.32597],[73.07931,8.32597],[73.07931,8.32625],[73.07958,8.32625],[73.07958,8.32653],[73.07986,8.32653],[73.07986,8.32708],[73.08014,8.32708],[73.08014,8.32736],[73.0804,8.32736],[73.0804,8.32792],[73.08069,8.32792],[73.0807,8.32771],[73.08097,8.32764]]],[[[72.29014,10.04958],[72.29014,10.04903],[72.28986,10.04903],[72.28986,10.04847],[72.28958,10.04847],[72.28958,10.04819],[72.28931,10.04819],[72.28931,10.04764],[72.28875,10.04764],[72.28875,10.04708],[72.28848,10.04708],[72.28848,10.04625],[72.28819,10.04625],[72.28819,10.0457],[72.28792,10.0457],[72.28792,10.04375],[72.28764,10.04375],[72.28764,10.04264],[72.28736,10.04264],[72.28736,10.04207],[72.28709,10.04208],[72.28709,10.04125],[72.2868,10.04125],[72.2868,10.04069],[72.28653,10.0407],[72.28653,10.04042],[72.28625,10.04042],[72.28625,10.04014],[72.28596,10.04014],[72.28596,10.03986],[72.2857,10.03986],[72.2857,10.03958],[72.28542,10.03958],[72.28542,10.03931],[72.28514,10.03932],[72.28514,10.03903],[72.28458,10.03903],[72.28458,10.03875],[72.28431,10.03875],[72.2843,10.03847],[72.28403,10.03847],[72.28403,10.03819],[72.28347,10.03819],[72.28347,10.03792],[72.28181,10.03792],[72.28181,10.03819],[72.28152,10.03819],[72.28152,10.03847],[72.28125,10.03847],[72.28125,10.03932],[72.28152,10.03932],[72.28152,10.04014],[72.28181,10.04014],[72.28181,10.0407],[72.28208,10.0407],[72.28208,10.04097],[72.28236,10.04097],[72.28236,10.04125],[72.28264,10.04125],[72.28264,10.04153],[72.28292,10.04153],[72.28292,10.04181],[72.2832,10.04181],[72.2832,10.04236],[72.28347,10.04236],[72.28347,10.04292],[72.28375,10.04292],[72.28375,10.04347],[72.28403,10.04347],[72.28403,10.04375],[72.2843,10.04375],[72.2843,10.04403],[72.28458,10.04403],[72.28458,10.04431],[72.28486,10.0443],[72.28486,10.04458],[72.28514,10.04458],[72.28514,10.04514],[72.28542,10.04513],[72.28542,10.04542],[72.2857,10.04542],[72.2857,10.0457],[72.28596,10.04569],[72.28596,10.04625],[72.28625,10.04625],[72.28625,10.04653],[72.28653,10.04653],[72.28653,10.04708],[72.2868,10.04708],[72.2868,10.04736],[72.28709,10.04736],[72.28709,10.04764],[72.28736,10.04764],[72.28736,10.04792],[72.28764,10.04792],[72.28764,10.04819],[72.28819,10.04819],[72.28819,10.04903],[72.28875,10.04903],[72.28875,10.04931],[72.28931,10.0493],[72.28931,10.04958],[72.29014,10.04958]]],[[[73.63347,10.07042],[73.63347,10.07014],[73.63375,10.07014],[73.63375,10.06875],[73.63292,10.06875],[73.63292,10.0682],[73.63236,10.0682],[73.63236,10.06847],[73.63181,10.06847],[73.63181,10.0682],[73.63153,10.0682],[73.63153,10.06764],[73.63125,10.06764],[73.63125,10.06736],[73.63042,10.06736],[73.63042,10.06764],[73.63014,10.06764],[73.63014,10.0682],[73.62986,10.0682],[73.62986,10.06875],[73.63042,10.06875],[73.63042,10.06903],[73.63097,10.06903],[73.63097,10.06931],[73.63181,10.06931],[73.63181,10.06958],[73.63208,10.06958],[73.63208,10.06986],[73.63236,10.06986],[73.63236,10.07014],[73.63264,10.07014],[73.63264,10.07042],[73.63347,10.07042]]],[[[73.62903,10.07514],[73.62903,10.07486],[73.6293,10.07486],[73.6293,10.07458],[73.62959,10.07458],[73.62959,10.07403],[73.6293,10.07403],[73.6293,10.07347],[73.62903,10.07347],[73.62903,10.07292],[73.62875,10.07292],[73.62875,10.07264],[73.62847,10.07264],[73.62847,10.07236],[73.6282,10.07236],[73.6282,10.07208],[73.62791,10.07208],[73.62791,10.07181],[73.62653,10.07181],[73.62653,10.07208],[73.62625,10.07208],[73.62625,10.07236],[73.62614,10.07236],[73.62597,10.07236],[73.62597,10.07264],[73.62569,10.07264],[73.62569,10.07292],[73.62542,10.07292],[73.62542,10.0732],[73.62569,10.0732],[73.62569,10.07347],[73.62587,10.07347],[73.62625,10.07347],[73.62625,10.07375],[73.62681,10.07375],[73.62681,10.07403],[73.62736,10.07403],[73.62736,10.07431],[73.62791,10.0743],[73.62791,10.07458],[73.6282,10.07458],[73.6282,10.07514],[73.62903,10.07514]]],[[[73.65153,10.10431],[73.65153,10.10264],[73.6518,10.10264],[73.6518,10.10153],[73.65208,10.10153],[73.65208,10.10042],[73.6518,10.10042],[73.6518,10.09847],[73.65208,10.09847],[73.65208,10.09792],[73.6518,10.09792],[73.6518,10.09764],[73.65208,10.09764],[73.65208,10.09597],[73.6518,10.09597],[73.6518,10.09458],[73.65153,10.09458],[73.65153,10.09431],[73.65125,10.09431],[73.65125,10.09347],[73.65097,10.09347],[73.65097,10.09264],[73.6507,10.09264],[73.6507,10.09097],[73.65041,10.09097],[73.65041,10.08931],[73.65014,10.08931],[73.65014,10.08792],[73.64986,10.08792],[73.64986,10.08737],[73.64958,10.08737],[73.64958,10.08569],[73.64931,10.08569],[73.64931,10.08403],[73.64902,10.08403],[73.64902,10.08375],[73.64875,10.08375],[73.64875,10.08236],[73.64848,10.08236],[73.64848,10.08153],[73.64875,10.08153],[73.64875,10.08124],[73.64848,10.08125],[73.64848,10.08069],[73.64819,10.08069],[73.64819,10.07903],[73.64792,10.07903],[73.64792,10.0782],[73.64819,10.0782],[73.64819,10.07708],[73.64792,10.07708],[73.64792,10.07653],[73.64819,10.07653],[73.64819,10.07569],[73.64792,10.07569],[73.64792,10.07458],[73.64819,10.07458],[73.64819,10.07347],[73.64792,10.07347],[73.64792,10.07292],[73.64819,10.07292],[73.64819,10.07125],[73.64875,10.07125],[73.64875,10.07097],[73.64902,10.07097],[73.64902,10.07069],[73.64848,10.07069],[73.64848,10.07042],[73.64792,10.07042],[73.64792,10.07014],[73.64819,10.07014],[73.64819,10.0693],[73.64848,10.06931],[73.64848,10.06875],[73.64819,10.06875],[73.64819,10.06847],[73.64848,10.06847],[73.64848,10.06625],[73.64819,10.06626],[73.64819,10.0632],[73.64792,10.0632],[73.64792,10.06125],[73.64764,10.06125],[73.64764,10.06013],[73.64736,10.06014],[73.64736,10.05875],[73.64709,10.05875],[73.64709,10.05847],[73.6468,10.05847],[73.6468,10.05764],[73.64625,10.05764],[73.64625,10.05736],[73.64569,10.05736],[73.64569,10.05708],[73.64181,10.05708],[73.64181,10.05736],[73.64125,10.05736],[73.64125,10.05764],[73.64098,10.05764],[73.64098,10.05792],[73.64042,10.05792],[73.64042,10.05819],[73.64014,10.05819],[73.64014,10.05847],[73.63986,10.05847],[73.63986,10.05903],[73.63958,10.05903],[73.63958,10.05986],[73.63931,10.05986],[73.63931,10.06042],[73.63986,10.06042],[73.63986,10.06069],[73.64014,10.06069],[73.64014,10.06097],[73.64041,10.06097],[73.64041,10.06125],[73.64014,10.06125],[73.64014,10.06181],[73.63958,10.06181],[73.63958,10.06264],[73.63931,10.06264],[73.63931,10.0632],[73.63903,10.06319],[73.63903,10.06375],[73.63875,10.06375],[73.63875,10.06403],[73.63847,10.06403],[73.63847,10.06431],[73.63875,10.0643],[73.63875,10.06458],[73.63847,10.06458],[73.63847,10.06514],[73.63819,10.06514],[73.63819,10.06626],[73.63792,10.06626],[73.63792,10.06653],[73.63764,10.06653],[73.63764,10.06792],[73.63736,10.06792],[73.63736,10.0682],[73.63708,10.0682],[73.63708,10.06847],[73.6368,10.06847],[73.6368,10.06903],[73.63653,10.06903],[73.63653,10.06958],[73.63625,10.06958],[73.63625,10.07014],[73.63597,10.07014],[73.63597,10.07042],[73.6357,10.07042],[73.6357,10.07069],[73.63541,10.07069],[73.63541,10.07208],[73.63597,10.07208],[73.63597,10.07236],[73.63625,10.07236],[73.63625,10.07208],[73.63653,10.07208],[73.63653,10.07181],[73.63708,10.07181],[73.63708,10.07153],[73.63735,10.07153],[73.63735,10.07125],[73.63792,10.07125],[73.63792,10.07097],[73.64041,10.07097],[73.64041,10.07125],[73.64098,10.07125],[73.64098,10.07153],[73.64125,10.07153],[73.64125,10.07208],[73.64153,10.07208],[73.64153,10.07264],[73.64181,10.07264],[73.64181,10.07347],[73.64208,10.07347],[73.64208,10.07375],[73.64236,10.07375],[73.64236,10.07403],[73.64264,10.07403],[73.64264,10.07431],[73.64291,10.0743],[73.64291,10.07486],[73.64347,10.07486],[73.64347,10.07543],[73.64375,10.07542],[73.64375,10.07597],[73.64403,10.07597],[73.64403,10.07625],[73.6443,10.07625],[73.6443,10.07653],[73.64458,10.07653],[73.64458,10.07708],[73.64486,10.07708],[73.64486,10.07764],[73.64514,10.07764],[73.64514,10.07903],[73.64542,10.07903],[73.64542,10.08014],[73.64569,10.08014],[73.64569,10.08125],[73.64597,10.08125],[73.64597,10.08236],[73.64625,10.08236],[73.64625,10.08292],[73.64653,10.08292],[73.64653,10.08347],[73.6468,10.08347],[73.6468,10.08375],[73.64653,10.08375],[73.64653,10.08431],[73.6468,10.08431],[73.6468,10.08458],[73.64709,10.08458],[73.64709,10.08597],[73.64736,10.08597],[73.64736,10.08625],[73.64764,10.08625],[73.64764,10.08792],[73.64792,10.08792],[73.64792,10.08847],[73.64819,10.08847],[73.64819,10.08903],[73.64792,10.08903],[73.64792,10.08931],[73.64848,10.08931],[73.64848,10.08958],[73.64819,10.08958],[73.64819,10.09097],[73.64848,10.09097],[73.64848,10.09208],[73.64875,10.09208],[73.64875,10.09264],[73.64931,10.09264],[73.64931,10.09375],[73.64958,10.09375],[73.64958,10.09431],[73.64986,10.09431],[73.64986,10.09458],[73.65014,10.09458],[73.65014,10.09569],[73.65041,10.09569],[73.65041,10.09597],[73.6507,10.09597],[73.6507,10.09792],[73.65097,10.09792],[73.65097,10.09931],[73.65125,10.09931],[73.65125,10.10431],[73.65153,10.10431]]],[[[72.32792,10.13653],[72.32792,10.13625],[72.32819,10.13625],[72.32819,10.13569],[72.32848,10.13569],[72.32848,10.13514],[72.32875,10.13514],[72.32875,10.13347],[72.32903,10.13347],[72.32903,10.13264],[72.32931,10.13264],[72.32931,10.13208],[72.32958,10.13208],[72.32958,10.13153],[72.32986,10.13153],[72.32986,10.13125],[72.33014,10.13125],[72.33014,10.13097],[72.33041,10.13097],[72.33041,10.1307],[72.3307,10.1307],[72.3307,10.12958],[72.33097,10.12958],[72.33097,10.12875],[72.33125,10.12875],[72.33125,10.12819],[72.33153,10.12819],[72.33153,10.12708],[72.3318,10.12708],[72.3318,10.12694],[72.3318,10.12486],[72.33097,10.12486],[72.33097,10.12542],[72.3307,10.12542],[72.3307,10.12597],[72.33041,10.12597],[72.33041,10.12625],[72.33014,10.12625],[72.33014,10.12654],[72.32848,10.12654],[72.32848,10.12625],[72.32736,10.12625],[72.32736,10.12654],[72.32625,10.12654],[72.32625,10.12681],[72.32597,10.12681],[72.32597,10.12819],[72.32625,10.12819],[72.32625,10.12931],[72.32653,10.12931],[72.32653,10.13042],[72.32681,10.13042],[72.32681,10.13181],[72.32653,10.13181],[72.32653,10.13319],[72.32625,10.13319],[72.32625,10.13542],[72.32653,10.13542],[72.32653,10.13569],[72.32681,10.13569],[72.32681,10.13597],[72.32708,10.13597],[72.32708,10.13625],[72.32736,10.13625],[72.32736,10.13653],[72.32792,10.13653]]],[[[73.66097,10.15597],[73.66097,10.15569],[73.66125,10.15569],[73.66125,10.15514],[73.66154,10.15514],[73.66154,10.15425],[73.66153,10.15292],[73.6618,10.15292],[73.6618,10.15069],[73.66209,10.15069],[73.66209,10.14958],[73.66236,10.14958],[73.66236,10.14875],[73.66264,10.14875],[73.66264,10.14792],[73.66292,10.14792],[73.66292,10.14736],[73.66319,10.14736],[73.66319,10.14653],[73.66348,10.14653],[73.66348,10.14569],[73.66375,10.14569],[73.66375,10.14514],[73.66402,10.14514],[73.66402,10.14458],[73.66431,10.14458],[73.66431,10.14403],[73.66458,10.14403],[73.66458,10.14319],[73.66486,10.14319],[73.66486,10.14181],[73.66514,10.14181],[73.66514,10.13986],[73.66486,10.13986],[73.66486,10.13847],[73.66458,10.13848],[73.66458,10.13764],[73.66431,10.13764],[73.66431,10.13653],[73.66402,10.13653],[73.66402,10.13569],[73.66375,10.13569],[73.66375,10.13486],[73.66348,10.13486],[73.66348,10.13375],[73.66319,10.13375],[73.66319,10.13264],[73.66292,10.13264],[73.66292,10.13208],[73.66264,10.13208],[73.66264,10.13125],[73.66236,10.13125],[73.66236,10.13042],[73.66209,10.13042],[73.66209,10.12986],[73.66125,10.12986],[73.66125,10.13014],[73.66097,10.13014],[73.66097,10.13097],[73.66125,10.13097],[73.66125,10.13236],[73.66153,10.13236],[73.66153,10.13347],[73.6618,10.13347],[73.6618,10.13431],[73.66209,10.13431],[73.66209,10.13542],[73.66236,10.13542],[73.66236,10.13597],[73.66264,10.13597],[73.66264,10.13819],[73.66292,10.13819],[73.66292,10.14097],[73.66319,10.14097],[73.66319,10.14264],[73.66292,10.14264],[73.66292,10.14375],[73.66264,10.14375],[73.66264,10.14514],[73.66236,10.14514],[73.66236,10.14569],[73.66209,10.14569],[73.66209,10.14625],[73.6618,10.14625],[73.6618,10.14708],[73.66153,10.14708],[73.66153,10.1482],[73.66125,10.14819],[73.66125,10.14931],[73.66097,10.14931],[73.66097,10.15014],[73.6607,10.15014],[73.6607,10.15069],[73.66042,10.15069],[73.66042,10.15208],[73.66014,10.15208],[73.66014,10.15264],[73.65958,10.15264],[73.65958,10.15292],[73.65931,10.15292],[73.6593,10.15264],[73.65884,10.15264],[73.65875,10.15264],[73.65875,10.15292],[73.65848,10.15292],[73.65848,10.15431],[73.65875,10.15431],[73.65875,10.15486],[73.65903,10.15486],[73.65903,10.15514],[73.6593,10.15514],[73.6593,10.15542],[73.65958,10.15542],[73.65958,10.15569],[73.65986,10.15569],[73.65986,10.15597],[73.66097,10.15597]]],[[[72.64208,10.57736],[72.64208,10.57708],[72.64514,10.57708],[72.64514,10.5768],[72.64569,10.57681],[72.64569,10.57653],[72.64625,10.57653],[72.64625,10.57625],[72.64653,10.57625],[72.64653,10.57597],[72.6468,10.57597],[72.6468,10.57569],[72.64709,10.57569],[72.64709,10.57514],[72.64736,10.57514],[72.64736,10.57487],[72.64764,10.57487],[72.64764,10.57458],[72.64792,10.57458],[72.64792,10.57403],[72.64819,10.57403],[72.64819,10.57347],[72.64848,10.57347],[72.64848,10.57292],[72.64875,10.57292],[72.64875,10.57264],[72.64902,10.57264],[72.64902,10.57208],[72.64931,10.57208],[72.64931,10.57125],[72.64958,10.57125],[72.64958,10.57071],[72.64958,10.57014],[72.64986,10.57014],[72.64986,10.56958],[72.65014,10.56958],[72.65014,10.56819],[72.64986,10.56819],[72.64986,10.56653],[72.64958,10.56653],[72.64958,10.56458],[72.64931,10.56458],[72.64931,10.56375],[72.64902,10.56375],[72.64902,10.56181],[72.64875,10.56181],[72.64875,10.56153],[72.64848,10.56153],[72.64848,10.56125],[72.64819,10.56125],[72.64819,10.56097],[72.64764,10.56097],[72.64764,10.56069],[72.64736,10.56069],[72.64736,10.56042],[72.64709,10.56042],[72.64709,10.55987],[72.64653,10.55987],[72.64653,10.55958],[72.64542,10.55958],[72.64542,10.55931],[72.64458,10.55931],[72.64458,10.55958],[72.6443,10.55958],[72.6443,10.55931],[72.6441,10.55931],[72.64403,10.55909],[72.64391,10.55908],[72.64347,10.55903],[72.64347,10.55872],[72.64347,10.55847],[72.64327,10.55847],[72.64236,10.55847],[72.64236,10.5582],[72.64125,10.5582],[72.64125,10.55792],[72.64098,10.55792],[72.64098,10.55764],[72.63986,10.55764],[72.63986,10.55736],[72.63931,10.55736],[72.63931,10.55708],[72.63958,10.55708],[72.63958,10.5568],[72.63903,10.55681],[72.63903,10.55653],[72.63819,10.55653],[72.63819,10.55625],[72.63625,10.55625],[72.63625,10.55597],[72.6357,10.55597],[72.6357,10.55569],[72.63541,10.55569],[72.63541,10.55542],[72.63486,10.55542],[72.63486,10.55514],[72.63403,10.55514],[72.63403,10.55486],[72.63375,10.55486],[72.63375,10.55458],[72.63347,10.55458],[72.63347,10.55431],[72.63319,10.55431],[72.63319,10.55374],[72.63292,10.55375],[72.63292,10.55319],[72.63264,10.55319],[72.63264,10.55292],[72.63209,10.55292],[72.63209,10.55264],[72.63125,10.55264],[72.63125,10.55236],[72.63069,10.55236],[72.63069,10.55208],[72.63042,10.55208],[72.63042,10.5518],[72.63014,10.55181],[72.63014,10.55153],[72.62959,10.55153],[72.62959,10.55125],[72.62903,10.55125],[72.62903,10.55097],[72.62875,10.55097],[72.62875,10.5507],[72.62847,10.5507],[72.62847,10.55042],[72.62791,10.55042],[72.62791,10.55014],[72.62764,10.55014],[72.62764,10.54986],[72.62708,10.54986],[72.62708,10.54958],[72.62681,10.54958],[72.62681,10.54931],[72.62653,10.54931],[72.62653,10.54903],[72.62625,10.54903],[72.62625,10.54875],[72.62542,10.54875],[72.62542,10.54847],[72.62514,10.54847],[72.62514,10.54819],[72.62486,10.54819],[72.62486,10.54792],[72.62458,10.54793],[72.62458,10.54764],[72.62431,10.54764],[72.62431,10.54708],[72.62403,10.54708],[72.62403,10.54681],[72.62375,10.54681],[72.62375,10.54653],[72.62347,10.54653],[72.62347,10.54625],[72.62319,10.54625],[72.62319,10.54597],[72.62292,10.54597],[72.62292,10.54569],[72.62264,10.54569],[72.62264,10.54542],[72.62236,10.54542],[72.62236,10.54514],[72.62209,10.54514],[72.62209,10.54458],[72.6218,10.54458],[72.6218,10.54403],[72.62153,10.54403],[72.62153,10.54375],[72.62125,10.54375],[72.62125,10.54347],[72.62097,10.54347],[72.62097,10.54319],[72.6207,10.54319],[72.6207,10.54292],[72.62041,10.54292],[72.62041,10.54264],[72.62015,10.54264],[72.62015,10.54236],[72.61986,10.54236],[72.61986,10.54208],[72.61958,10.54208],[72.61958,10.54181],[72.61903,10.54181],[72.61903,10.54153],[72.61875,10.54153],[72.61875,10.54125],[72.61819,10.54125],[72.61819,10.54097],[72.61792,10.54097],[72.61792,10.54069],[72.61708,10.54069],[72.61708,10.54042],[72.61625,10.54042],[72.61625,10.54069],[72.61542,10.54069],[72.61542,10.54097],[72.61514,10.54097],[72.61514,10.54236],[72.61542,10.54236],[72.61542,10.54292],[72.61569,10.54292],[72.61569,10.54319],[72.61597,10.54319],[72.61597,10.54347],[72.61625,10.54347],[72.61625,10.54403],[72.61653,10.54403],[72.61653,10.54458],[72.61681,10.54458],[72.61681,10.54487],[72.61736,10.54487],[72.61736,10.54514],[72.61792,10.54514],[72.61792,10.54542],[72.61847,10.54542],[72.61847,10.54569],[72.61931,10.54569],[72.61931,10.54597],[72.61986,10.54597],[72.61986,10.54625],[72.62041,10.54625],[72.62041,10.54653],[72.6208,10.54653],[72.62236,10.54653],[72.62236,10.54681],[72.62292,10.54681],[72.62292,10.54708],[72.62319,10.54708],[72.62319,10.54764],[72.62347,10.54764],[72.62347,10.54793],[72.62375,10.54792],[72.62375,10.54847],[72.62403,10.54847],[72.62403,10.54903],[72.62431,10.54903],[72.62431,10.54958],[72.62458,10.54958],[72.62458,10.55042],[72.62486,10.55042],[72.62486,10.5507],[72.62514,10.5507],[72.62514,10.55125],[72.62542,10.55125],[72.62542,10.55153],[72.62569,10.55153],[72.62569,10.55208],[72.62597,10.55208],[72.62597,10.55236],[72.62625,10.55236],[72.62625,10.55264],[72.62653,10.55264],[72.62653,10.55319],[72.62681,10.55319],[72.62681,10.55403],[72.62708,10.55403],[72.62708,10.55458],[72.62736,10.55458],[72.62736,10.55486],[72.62764,10.55486],[72.62764,10.55542],[72.62791,10.55542],[72.62791,10.55597],[72.6282,10.55597],[72.6282,10.55625],[72.62847,10.55625],[72.62847,10.55653],[72.62903,10.55653],[72.62903,10.55708],[72.6293,10.55708],[72.6293,10.55736],[72.62959,10.55736],[72.62959,10.55792],[72.62986,10.55792],[72.62986,10.5582],[72.63014,10.5582],[72.63014,10.55875],[72.63042,10.55875],[72.63042,10.55903],[72.63069,10.55903],[72.63069,10.55958],[72.63097,10.55958],[72.63097,10.56014],[72.63125,10.56014],[72.63125,10.56069],[72.63153,10.56069],[72.63153,10.56097],[72.63181,10.56097],[72.63181,10.56153],[72.63208,10.56153],[72.63208,10.56208],[72.63236,10.56208],[72.63236,10.56236],[72.63264,10.56236],[72.63264,10.56264],[72.63292,10.56264],[72.63292,10.56319],[72.63319,10.56319],[72.63319,10.56347],[72.63347,10.56347],[72.63347,10.56403],[72.63375,10.56403],[72.63375,10.56458],[72.63403,10.56458],[72.63403,10.56514],[72.63431,10.56514],[72.63431,10.5657],[72.63458,10.56568],[72.63458,10.56653],[72.63486,10.56653],[72.63486,10.56708],[72.63513,10.56708],[72.63513,10.56736],[72.63541,10.56736],[72.63541,10.56792],[72.6357,10.56792],[72.6357,10.56819],[72.63597,10.56819],[72.63597,10.56903],[72.63625,10.56903],[72.63625,10.56958],[72.63653,10.56958],[72.63653,10.57042],[72.6368,10.57042],[72.6368,10.57125],[72.63708,10.57125],[72.63708,10.57181],[72.63736,10.57181],[72.63736,10.57236],[72.63764,10.57236],[72.63764,10.57292],[72.63792,10.57292],[72.63792,10.57347],[72.63819,10.57347],[72.63819,10.57403],[72.63847,10.57403],[72.63847,10.57431],[72.63847,10.57625],[72.63875,10.57625],[72.63875,10.57653],[72.63931,10.57653],[72.63931,10.57681],[72.63958,10.5768],[72.63958,10.57708],[72.64014,10.57708],[72.64014,10.57736],[72.64114,10.57736],[72.64208,10.57736]]],[[[72.16875,10.81486],[72.16875,10.81347],[72.16903,10.81347],[72.16903,10.81319],[72.1693,10.81319],[72.1693,10.81236],[72.16876,10.81236],[72.16876,10.81208],[72.16792,10.81208],[72.16792,10.81236],[72.16736,10.81236],[72.16736,10.81208],[72.16708,10.81208],[72.16708,10.81236],[72.16681,10.81236],[72.16681,10.81208],[72.16514,10.81208],[72.16514,10.81292],[72.16541,10.81292],[72.16541,10.81319],[72.16569,10.81319],[72.16569,10.81347],[72.16597,10.81347],[72.16597,10.81375],[72.16653,10.81375],[72.16653,10.81403],[72.16708,10.81403],[72.16708,10.81431],[72.16764,10.81431],[72.16764,10.81458],[72.1682,10.81458],[72.1682,10.81486],[72.16875,10.81486]]],[[[72.17264,10.81986],[72.17264,10.81903],[72.17236,10.81903],[72.17236,10.81792],[72.17208,10.81792],[72.17208,10.81764],[72.17182,10.81764],[72.17182,10.81736],[72.17097,10.81736],[72.17097,10.81819],[72.17125,10.81819],[72.17125,10.81847],[72.17153,10.81847],[72.17153,10.81903],[72.17182,10.81903],[72.17182,10.81931],[72.17208,10.8193],[72.17208,10.81958],[72.17236,10.81958],[72.17236,10.81986],[72.17264,10.81986]]],[[[73.67847,10.82153],[73.67847,10.82069],[73.67736,10.82069],[73.67736,10.82042],[73.67709,10.82042],[73.67709,10.81986],[73.67736,10.81986],[73.67736,10.81903],[73.67709,10.81903],[73.67709,10.81847],[73.6768,10.81847],[73.6768,10.81792],[73.67709,10.81792],[73.67709,10.81764],[73.67736,10.81764],[73.67736,10.81792],[73.67792,10.81792],[73.67792,10.81819],[73.67847,10.81819],[73.67847,10.81847],[73.67986,10.81847],[73.67986,10.81819],[73.68097,10.81819],[73.68097,10.81792],[73.68153,10.81792],[73.68153,10.81764],[73.68291,10.81764],[73.68291,10.81792],[73.68653,10.81792],[73.68653,10.81764],[73.68708,10.81764],[73.68708,10.81736],[73.68819,10.81736],[73.68819,10.81764],[73.68875,10.81764],[73.68875,10.81792],[73.68958,10.81792],[73.68958,10.81819],[73.69153,10.81819],[73.69153,10.81847],[73.6918,10.81847],[73.6918,10.81819],[73.69458,10.81819],[73.69458,10.81792],[73.69514,10.81792],[73.69514,10.81819],[73.69597,10.81819],[73.69597,10.81792],[73.69847,10.81792],[73.69847,10.81764],[73.70014,10.81764],[73.70014,10.81736],[73.70069,10.81736],[73.70069,10.81708],[73.70181,10.81708],[73.70181,10.81681],[73.70236,10.81681],[73.70236,10.81625],[73.70264,10.81625],[73.70264,10.81486],[73.70236,10.81486],[73.70236,10.81458],[73.70208,10.81458],[73.70208,10.81431],[73.70181,10.81431],[73.70181,10.81375],[73.70153,10.81375],[73.70153,10.81347],[73.70125,10.81347],[73.70125,10.81319],[73.70069,10.81319],[73.70069,10.81292],[73.69986,10.81292],[73.69986,10.81263],[73.69875,10.81264],[73.69875,10.81236],[73.6982,10.81236],[73.6982,10.81208],[73.69736,10.81208],[73.69736,10.81181],[73.69653,10.81181],[73.69653,10.81153],[73.69486,10.81153],[73.69486,10.81125],[73.69431,10.81125],[73.69431,10.81097],[73.69375,10.81097],[73.69375,10.81069],[73.69347,10.81069],[73.69347,10.81042],[73.69236,10.81042],[73.69236,10.81014],[73.69152,10.81014],[73.69152,10.80986],[73.6907,10.80986],[73.6907,10.80958],[73.68986,10.80959],[73.68986,10.80931],[73.68931,10.80931],[73.68931,10.80903],[73.68792,10.80903],[73.68792,10.80875],[73.68736,10.80875],[73.68736,10.80847],[73.68708,10.80847],[73.68708,10.80819],[73.68681,10.80819],[73.68681,10.80792],[73.68653,10.80792],[73.68653,10.80764],[73.68597,10.80764],[73.68597,10.80736],[73.68459,10.80736],[73.68459,10.80708],[73.68347,10.80708],[73.68347,10.80681],[73.68236,10.80682],[73.68236,10.80653],[73.68153,10.80653],[73.68153,10.80625],[73.68069,10.80625],[73.68069,10.80597],[73.67931,10.80597],[73.67931,10.8057],[73.67764,10.8057],[73.67764,10.80542],[73.67597,10.80542],[73.67597,10.80514],[73.67458,10.80514],[73.67458,10.80486],[73.67292,10.80486],[73.67292,10.80458],[73.67264,10.80458],[73.67264,10.80486],[73.67208,10.80486],[73.67208,10.80458],[73.67152,10.80458],[73.67152,10.80486],[73.67125,10.80486],[73.67125,10.80458],[73.67097,10.80458],[73.67097,10.80486],[73.66986,10.80486],[73.66986,10.80514],[73.6682,10.80514],[73.6682,10.80542],[73.66736,10.80542],[73.66736,10.8057],[73.66708,10.8057],[73.66708,10.80597],[73.66625,10.80597],[73.66625,10.80625],[73.66514,10.80625],[73.66514,10.80653],[73.66458,10.80653],[73.66458,10.80682],[73.66431,10.80681],[73.66431,10.80708],[73.66418,10.80708],[73.66375,10.80708],[73.66375,10.80736],[73.66319,10.80736],[73.66319,10.80764],[73.66292,10.80764],[73.66292,10.80792],[73.66264,10.80792],[73.66264,10.80819],[73.66236,10.80819],[73.66236,10.80847],[73.66209,10.80847],[73.66209,10.80903],[73.6618,10.80903],[73.6618,10.80959],[73.66154,10.80959],[73.66154,10.81042],[73.66125,10.81042],[73.66125,10.81125],[73.66097,10.81125],[73.66097,10.81181],[73.6607,10.81181],[73.6607,10.81264],[73.66042,10.81264],[73.66042,10.81347],[73.66014,10.81347],[73.66014,10.81625],[73.66042,10.81625],[73.66042,10.81653],[73.6607,10.81653],[73.6607,10.81681],[73.66097,10.81681],[73.66097,10.81708],[73.66125,10.81708],[73.66125,10.81736],[73.66154,10.81736],[73.66154,10.81764],[73.66209,10.81764],[73.66209,10.81792],[73.66264,10.81792],[73.66264,10.81819],[73.66348,10.81819],[73.66348,10.81847],[73.66431,10.81847],[73.66431,10.81876],[73.66764,10.81876],[73.66764,10.81903],[73.66792,10.81903],[73.66792,10.81876],[73.66875,10.81876],[73.66875,10.81847],[73.67042,10.81847],[73.67042,10.81819],[73.67181,10.81819],[73.67181,10.81847],[73.67208,10.81847],[73.67208,10.81819],[73.67458,10.81819],[73.67458,10.81847],[73.67486,10.81847],[73.67486,10.81819],[73.67514,10.81819],[73.67514,10.81847],[73.67542,10.81847],[73.67542,10.81876],[73.6757,10.81876],[73.6757,10.81931],[73.67597,10.8193],[73.67597,10.82069],[73.67625,10.8207],[73.67625,10.82125],[73.6768,10.82125],[73.6768,10.82153],[73.67847,10.82153]]],[[[72.17264,10.81986],[72.17264,10.82014],[72.17292,10.82014],[72.17292,10.82097],[72.17319,10.82097],[72.17319,10.82125],[72.17347,10.82125],[72.17347,10.82153],[72.17375,10.82153],[72.17375,10.82182],[72.17403,10.82181],[72.17403,10.82236],[72.17431,10.82236],[72.17431,10.82292],[72.17458,10.82292],[72.17458,10.82347],[72.17514,10.82347],[72.17514,10.82403],[72.17542,10.82403],[72.17542,10.82458],[72.1757,10.82457],[72.1757,10.82514],[72.17597,10.82514],[72.17597,10.8257],[72.17625,10.82569],[72.17625,10.82625],[72.17653,10.82625],[72.17653,10.82653],[72.1768,10.82653],[72.1768,10.82708],[72.17709,10.82708],[72.17709,10.82736],[72.17736,10.82736],[72.17736,10.82792],[72.17764,10.82792],[72.17764,10.82819],[72.17792,10.82819],[72.17792,10.82875],[72.17819,10.82875],[72.17819,10.82931],[72.17847,10.82931],[72.17847,10.82986],[72.17875,10.82986],[72.17875,10.83014],[72.17903,10.83014],[72.17903,10.8307],[72.17931,10.83069],[72.17931,10.83125],[72.17958,10.83125],[72.17958,10.83181],[72.17986,10.83181],[72.17986,10.83208],[72.18014,10.83208],[72.18014,10.83264],[72.18042,10.83264],[72.18042,10.8332],[72.18069,10.8332],[72.18069,10.83347],[72.18097,10.83347],[72.18097,10.83403],[72.18125,10.83403],[72.18125,10.83458],[72.18153,10.83458],[72.18153,10.83486],[72.18181,10.83486],[72.18181,10.83542],[72.18208,10.83542],[72.18208,10.83625],[72.18236,10.83625],[72.18236,10.83653],[72.18264,10.83653],[72.18264,10.83764],[72.18291,10.83764],[72.18291,10.83847],[72.1832,10.83847],[72.1832,10.83875],[72.18347,10.83875],[72.18347,10.83931],[72.18375,10.83931],[72.18375,10.83986],[72.18403,10.83986],[72.18403,10.84069],[72.1843,10.84069],[72.1843,10.84097],[72.18459,10.84097],[72.18459,10.84153],[72.18486,10.84153],[72.18486,10.84181],[72.18514,10.84181],[72.18514,10.84208],[72.18542,10.84208],[72.18542,10.84264],[72.18569,10.84264],[72.18569,10.84319],[72.18597,10.84319],[72.18597,10.84375],[72.18625,10.84375],[72.18625,10.84459],[72.18653,10.84459],[72.18653,10.84486],[72.18682,10.84486],[72.18682,10.84542],[72.18708,10.84542],[72.18708,10.8457],[72.18736,10.8457],[72.18736,10.84653],[72.18764,10.84653],[72.18764,10.84708],[72.18792,10.84708],[72.18792,10.84764],[72.18819,10.84764],[72.18819,10.8482],[72.18847,10.8482],[72.18847,10.84875],[72.18875,10.84874],[72.18875,10.84931],[72.18903,10.84931],[72.18903,10.85042],[72.18931,10.85042],[72.18931,10.8518],[72.18957,10.8518],[72.18957,10.85292],[72.18986,10.85292],[72.18986,10.85347],[72.18957,10.85347],[72.18957,10.85431],[72.18986,10.85431],[72.18986,10.85487],[72.19014,10.85487],[72.19014,10.85653],[72.19041,10.85653],[72.19041,10.85736],[72.1907,10.85736],[72.1907,10.85847],[72.19097,10.85847],[72.19097,10.86153],[72.19125,10.86153],[72.19125,10.86208],[72.19153,10.86208],[72.19153,10.86264],[72.1918,10.86264],[72.1918,10.86375],[72.19209,10.86374],[72.19209,10.86431],[72.19236,10.86431],[72.19236,10.86597],[72.19264,10.86597],[72.19264,10.86736],[72.19292,10.86736],[72.19292,10.86764],[72.19319,10.86764],[72.19319,10.86792],[72.19347,10.86792],[72.19347,10.86819],[72.19375,10.86819],[72.19375,10.86875],[72.19403,10.86875],[72.19403,10.87014],[72.19431,10.87014],[72.19431,10.87069],[72.19458,10.87069],[72.19458,10.87097],[72.19486,10.87097],[72.19486,10.87125],[72.19514,10.87125],[72.19514,10.87181],[72.19542,10.8718],[72.19542,10.87208],[72.19569,10.87208],[72.19569,10.87236],[72.19597,10.87236],[72.19597,10.87293],[72.19625,10.87293],[72.19625,10.87375],[72.19653,10.87375],[72.19653,10.87403],[72.19681,10.87403],[72.19681,10.87431],[72.19736,10.87431],[72.19736,10.87458],[72.19791,10.87458],[72.19791,10.87486],[72.1982,10.87486],[72.1982,10.87514],[72.19847,10.87514],[72.19847,10.87542],[72.19875,10.87542],[72.19875,10.8757],[72.19903,10.8757],[72.19903,10.87597],[72.1993,10.87597],[72.1993,10.87653],[72.19958,10.87653],[72.19958,10.87681],[72.19986,10.87681],[72.19986,10.87708],[72.20042,10.87708],[72.20042,10.87736],[72.20069,10.87736],[72.20069,10.87764],[72.20153,10.87764],[72.20153,10.87792],[72.20403,10.87792],[72.20403,10.87764],[72.20597,10.87764],[72.20597,10.87736],[72.20653,10.87736],[72.20653,10.87514],[72.20625,10.87514],[72.20625,10.87458],[72.20597,10.87458],[72.20597,10.87375],[72.2057,10.87375],[72.2057,10.87319],[72.20541,10.87319],[72.20541,10.87264],[72.20514,10.87264],[72.20514,10.87208],[72.20486,10.87208],[72.20486,10.8718],[72.20458,10.87181],[72.20458,10.87125],[72.20431,10.87125],[72.20431,10.87042],[72.20403,10.87042],[72.20403,10.86987],[72.20375,10.86987],[72.20375,10.86875],[72.20348,10.86875],[72.20348,10.86847],[72.20319,10.86847],[72.20319,10.86819],[72.20292,10.86819],[72.20292,10.86736],[72.20264,10.86736],[72.20264,10.86708],[72.20236,10.86708],[72.20236,10.86681],[72.2018,10.86681],[72.2018,10.86625],[72.20153,10.86625],[72.20153,10.86569],[72.20125,10.86569],[72.20125,10.86542],[72.20097,10.86542],[72.20097,10.86486],[72.20069,10.86486],[72.20069,10.86431],[72.20042,10.86431],[72.20042,10.86374],[72.20014,10.86375],[72.20014,10.86292],[72.19986,10.86292],[72.19986,10.86264],[72.19958,10.86264],[72.19958,10.86236],[72.1993,10.86236],[72.1993,10.86181],[72.19903,10.86181],[72.19903,10.86153],[72.19874,10.86153],[72.19874,10.86097],[72.19847,10.86097],[72.19847,10.8607],[72.1982,10.8607],[72.1982,10.86014],[72.19791,10.86014],[72.19791,10.85958],[72.19764,10.85958],[72.19764,10.85903],[72.19736,10.85903],[72.19736,10.85875],[72.19708,10.85875],[72.19708,10.85847],[72.19681,10.85847],[72.19681,10.85819],[72.19653,10.85819],[72.19653,10.85792],[72.19625,10.85793],[72.19625,10.85736],[72.19597,10.85736],[72.19597,10.85681],[72.1957,10.85681],[72.1957,10.85625],[72.19542,10.85625],[72.19542,10.85597],[72.19514,10.85597],[72.19514,10.85569],[72.19486,10.85569],[72.19486,10.85542],[72.19458,10.85542],[72.19458,10.85487],[72.19431,10.85487],[72.19431,10.85431],[72.19403,10.85431],[72.19403,10.85375],[72.19375,10.85375],[72.19375,10.85347],[72.19347,10.85347],[72.19347,10.8532],[72.19319,10.8532],[72.19319,10.85264],[72.19292,10.85264],[72.19292,10.85236],[72.19264,10.85236],[72.19264,10.85208],[72.19236,10.85208],[72.19236,10.85153],[72.19209,10.85153],[72.19209,10.85125],[72.1918,10.85125],[72.1918,10.85069],[72.19153,10.85069],[72.19153,10.85042],[72.19125,10.85042],[72.19125,10.84986],[72.19097,10.84986],[72.19097,10.84958],[72.1907,10.84958],[72.1907,10.84931],[72.19041,10.84931],[72.19041,10.84874],[72.19014,10.84875],[72.19014,10.84847],[72.18986,10.84847],[72.18986,10.84792],[72.18957,10.84792],[72.18957,10.84708],[72.18931,10.84708],[72.18931,10.84653],[72.18903,10.84653],[72.18903,10.84625],[72.18875,10.84625],[72.18875,10.84597],[72.18847,10.84597],[72.18847,10.84542],[72.18819,10.84542],[72.18819,10.84514],[72.18792,10.84514],[72.18792,10.84431],[72.18764,10.84431],[72.18764,10.84375],[72.18736,10.84375],[72.18736,10.84347],[72.18708,10.84347],[72.18708,10.84292],[72.18682,10.84292],[72.18682,10.84236],[72.18653,10.84236],[72.18653,10.84208],[72.18625,10.84208],[72.18625,10.84153],[72.18597,10.84153],[72.18597,10.84069],[72.18569,10.84069],[72.18569,10.84014],[72.18542,10.84014],[72.18542,10.83957],[72.18514,10.83958],[72.18514,10.83931],[72.18486,10.83931],[72.18486,10.83875],[72.18459,10.83875],[72.18459,10.83819],[72.1843,10.83819],[72.1843,10.83792],[72.18403,10.83792],[72.18403,10.83736],[72.18375,10.83736],[72.18375,10.83681],[72.18347,10.83681],[72.18347,10.83625],[72.1832,10.83625],[72.1832,10.83569],[72.18291,10.83569],[72.18291,10.83514],[72.18264,10.83514],[72.18264,10.83486],[72.18236,10.83486],[72.18236,10.83403],[72.18208,10.83403],[72.18208,10.83319],[72.18181,10.8332],[72.18181,10.83208],[72.18153,10.83208],[72.18153,10.83153],[72.18125,10.83153],[72.18125,10.83097],[72.18097,10.83097],[72.18097,10.83042],[72.1807,10.83042],[72.1807,10.83014],[72.18042,10.83014],[72.18042,10.82958],[72.18014,10.82958],[72.18014,10.82903],[72.17986,10.82903],[72.17986,10.82847],[72.17958,10.82847],[72.17958,10.82792],[72.17931,10.82792],[72.17931,10.82763],[72.17875,10.82764],[72.17875,10.82708],[72.17847,10.82708],[72.17847,10.82653],[72.17819,10.82653],[72.17819,10.82597],[72.17792,10.82597],[72.17792,10.8257],[72.17764,10.8257],[72.17764,10.82486],[72.17736,10.82486],[72.17736,10.82458],[72.17709,10.82458],[72.17709,10.8243],[72.1768,10.82431],[72.1768,10.82403],[72.17653,10.82403],[72.17653,10.82375],[72.17625,10.82375],[72.17625,10.82347],[72.17597,10.82347],[72.17597,10.8232],[72.1757,10.8232],[72.1757,10.82292],[72.17542,10.82292],[72.17542,10.82264],[72.17514,10.82264],[72.17514,10.82236],[72.17486,10.82236],[72.17486,10.82208],[72.17458,10.82208],[72.17458,10.82181],[72.17431,10.82182],[72.17431,10.82153],[72.17403,10.82153],[72.17403,10.82069],[72.17375,10.82069],[72.17375,10.82042],[72.17347,10.82042],[72.17347,10.82014],[72.17319,10.82014],[72.17319,10.81986],[72.17264,10.81986]]],[[[72.29125,10.94597],[72.29125,10.94514],[72.29041,10.94515],[72.29041,10.94486],[72.28931,10.94486],[72.28931,10.94458],[72.28875,10.94458],[72.28875,10.94431],[72.28848,10.94431],[72.28848,10.94375],[72.28819,10.94375],[72.28819,10.94264],[72.28848,10.94264],[72.28848,10.94209],[72.28875,10.94209],[72.28875,10.94125],[72.28902,10.94125],[72.28902,10.94097],[72.28931,10.94097],[72.28931,10.93958],[72.28958,10.93958],[72.28958,10.93931],[72.28986,10.93931],[72.28986,10.93875],[72.29014,10.93875],[72.29014,10.93819],[72.29041,10.93819],[72.29041,10.93764],[72.2907,10.93764],[72.2907,10.93681],[72.29097,10.93681],[72.29097,10.93625],[72.2907,10.93625],[72.2907,10.93596],[72.29041,10.93597],[72.29041,10.93569],[72.29014,10.93569],[72.29014,10.93542],[72.28958,10.93542],[72.28958,10.93514],[72.28819,10.93514],[72.28819,10.93486],[72.2857,10.93486],[72.2857,10.93514],[72.28486,10.93514],[72.28486,10.93542],[72.2843,10.93542],[72.2843,10.93597],[72.28403,10.93596],[72.28403,10.93764],[72.2843,10.93764],[72.2843,10.94014],[72.28458,10.94014],[72.28458,10.94125],[72.28486,10.94125],[72.28486,10.94236],[72.28514,10.94236],[72.28514,10.94347],[72.28542,10.94347],[72.28542,10.94431],[72.2857,10.94431],[72.2857,10.94486],[72.28596,10.94486],[72.28596,10.94515],[72.28625,10.94515],[72.28625,10.94542],[72.28653,10.94542],[72.28653,10.94569],[72.2868,10.94569],[72.2868,10.94597],[72.29125,10.94597]]],[[[72.32653,10.95319],[72.32653,10.95236],[72.32625,10.95236],[72.32625,10.9518],[72.32597,10.95181],[72.32597,10.95153],[72.32569,10.95153],[72.32569,10.95125],[72.32513,10.95125],[72.32513,10.95096],[72.32458,10.95097],[72.32458,10.95069],[72.3243,10.95069],[72.3243,10.95042],[72.32403,10.95042],[72.32403,10.95014],[72.32375,10.95014],[72.32375,10.94986],[72.32347,10.94986],[72.32347,10.94958],[72.3232,10.94958],[72.3232,10.94903],[72.32291,10.94903],[72.32291,10.94875],[72.32236,10.94875],[72.32236,10.94819],[72.32181,10.94819],[72.32181,10.94792],[72.32153,10.94792],[72.32153,10.94764],[72.32125,10.94764],[72.32125,10.94736],[72.32097,10.94736],[72.32097,10.94708],[72.32069,10.94708],[72.32069,10.94681],[72.32042,10.94681],[72.32042,10.94653],[72.32014,10.94653],[72.32014,10.94597],[72.31986,10.94597],[72.31986,10.94569],[72.31958,10.94569],[72.31958,10.94542],[72.31903,10.94542],[72.31903,10.94515],[72.31875,10.94515],[72.31875,10.94486],[72.31847,10.94486],[72.31847,10.94458],[72.31819,10.94458],[72.31819,10.94431],[72.31792,10.94431],[72.31792,10.94403],[72.31764,10.94403],[72.31764,10.94375],[72.31709,10.94375],[72.31709,10.94347],[72.31653,10.94347],[72.31653,10.94319],[72.31597,10.94319],[72.31597,10.94292],[72.31514,10.94292],[72.31514,10.94264],[72.31403,10.94264],[72.31403,10.94292],[72.31375,10.94292],[72.31375,10.94319],[72.31347,10.94319],[72.31347,10.94486],[72.31375,10.94486],[72.31375,10.94597],[72.31347,10.94597],[72.31347,10.94653],[72.31375,10.94653],[72.31375,10.94736],[72.31403,10.94736],[72.31403,10.94764],[72.31431,10.94764],[72.31431,10.94792],[72.31458,10.94792],[72.31458,10.94819],[72.31486,10.94819],[72.31486,10.94847],[72.31541,10.94847],[72.31541,10.94875],[72.3168,10.94875],[72.3168,10.94903],[72.31875,10.94903],[72.31875,10.94931],[72.31958,10.94931],[72.31958,10.94958],[72.32069,10.94958],[72.32069,10.94986],[72.32153,10.94986],[72.32153,10.95014],[72.32209,10.95014],[72.32209,10.95042],[72.32236,10.95042],[72.32236,10.95069],[72.3232,10.95069],[72.3232,10.95097],[72.32347,10.95096],[72.32347,10.95153],[72.32458,10.95153],[72.32458,10.95181],[72.32514,10.9518],[72.32514,10.95208],[72.32542,10.95208],[72.32542,10.95236],[72.32569,10.95236],[72.32569,10.95292],[72.32597,10.95292],[72.32597,10.95319],[72.32653,10.95319]]],[[[72.33375,10.95847],[72.33375,10.95819],[72.3343,10.95819],[72.3343,10.95597],[72.33403,10.95597],[72.33403,10.9557],[72.33375,10.9557],[72.33375,10.95542],[72.33347,10.95542],[72.33347,10.95514],[72.3318,10.95514],[72.3318,10.9557],[72.33208,10.95569],[72.33208,10.95681],[72.33236,10.95681],[72.33236,10.95764],[72.33208,10.95764],[72.33208,10.95847],[72.33375,10.95847]]],[[[72.73154,11.13625],[72.73154,11.13597],[72.73236,11.13597],[72.73236,11.13569],[72.73292,11.13569],[72.73292,11.13542],[72.73347,11.13542],[72.73347,11.13514],[72.73375,11.13514],[72.73375,11.13486],[72.73402,11.13486],[72.73402,11.13431],[72.73431,11.13431],[72.73431,11.13264],[72.73402,11.13264],[72.73402,11.13097],[72.73375,11.13097],[72.73375,11.13014],[72.73347,11.13014],[72.73347,11.12931],[72.73319,11.12931],[72.73319,11.12876],[72.73292,11.12876],[72.73292,11.12836],[72.73292,11.12792],[72.73264,11.12792],[72.73264,11.12736],[72.73236,11.12736],[72.73236,11.12681],[72.73209,11.12681],[72.73209,11.12625],[72.7318,11.12625],[72.7318,11.12569],[72.73153,11.12569],[72.73153,11.12514],[72.73125,11.12514],[72.73125,11.12431],[72.73097,11.12431],[72.73097,11.12375],[72.7307,11.12375],[72.7307,11.12319],[72.73042,11.12319],[72.73042,11.12292],[72.73014,11.12292],[72.73014,11.12263],[72.72986,11.12264],[72.72986,11.12236],[72.72958,11.12236],[72.72958,11.12181],[72.72932,11.12181],[72.72931,11.12123],[72.72931,11.12097],[72.72903,11.12097],[72.72903,11.12042],[72.72875,11.12042],[72.72875,11.11986],[72.72903,11.11986],[72.72903,11.11958],[72.72791,11.11959],[72.72791,11.11903],[72.72764,11.11903],[72.72764,11.11875],[72.72736,11.11875],[72.72736,11.11847],[72.72708,11.11847],[72.72708,11.11819],[72.72681,11.11819],[72.72681,11.11792],[72.72652,11.11792],[72.72652,11.11764],[72.72598,11.11764],[72.72598,11.11736],[72.72569,11.11736],[72.72569,11.11708],[72.72542,11.11708],[72.72542,11.11653],[72.72514,11.11653],[72.72514,11.11625],[72.72486,11.11625],[72.72486,11.11597],[72.7243,11.11597],[72.7243,11.11569],[72.72375,11.11569],[72.72375,11.11542],[72.72347,11.11542],[72.72347,11.11514],[72.7232,11.11514],[72.7232,11.11486],[72.72292,11.11486],[72.72292,11.11458],[72.72264,11.11458],[72.72264,11.11431],[72.72235,11.11431],[72.72235,11.11403],[72.72181,11.11403],[72.7218,11.11375],[72.72153,11.11375],[72.72153,11.11346],[72.72097,11.11347],[72.72097,11.11319],[72.7207,11.11319],[72.7207,11.11292],[72.72041,11.11292],[72.72041,11.11236],[72.72014,11.11236],[72.72014,11.11208],[72.72041,11.11208],[72.72041,11.11181],[72.7207,11.11181],[72.7207,11.11153],[72.72097,11.11153],[72.72097,11.11125],[72.7207,11.11125],[72.7207,11.11069],[72.72014,11.11069],[72.72014,11.11097],[72.71986,11.11097],[72.71986,11.11125],[72.71902,11.11125],[72.71902,11.11153],[72.71986,11.11153],[72.71986,11.11208],[72.71819,11.11208],[72.71819,11.11292],[72.71792,11.11292],[72.71792,11.11319],[72.71764,11.11319],[72.71764,11.11375],[72.71736,11.11375],[72.71736,11.11403],[72.71709,11.11403],[72.71709,11.11431],[72.7168,11.11431],[72.7168,11.11458],[72.71653,11.11458],[72.71653,11.11486],[72.71625,11.11486],[72.71625,11.11542],[72.71597,11.11542],[72.71597,11.11569],[72.7157,11.11569],[72.71569,11.11625],[72.71542,11.11625],[72.71542,11.11682],[72.71514,11.11682],[72.71514,11.11792],[72.71542,11.11792],[72.71542,11.12153],[72.71569,11.12153],[72.7157,11.12236],[72.71597,11.12236],[72.71597,11.12347],[72.71625,11.12347],[72.71625,11.12431],[72.71597,11.12431],[72.71597,11.12514],[72.71625,11.12514],[72.71625,11.12542],[72.71653,11.12542],[72.71653,11.12569],[72.71709,11.12569],[72.71709,11.12597],[72.71736,11.12597],[72.71736,11.12653],[72.71764,11.12653],[72.71764,11.12708],[72.71792,11.12708],[72.71792,11.12764],[72.71819,11.12764],[72.71819,11.12792],[72.71848,11.12792],[72.71848,11.1282],[72.71902,11.1282],[72.71902,11.12847],[72.71958,11.12847],[72.71958,11.12876],[72.71986,11.12876],[72.71986,11.12931],[72.72014,11.12931],[72.72014,11.12958],[72.72041,11.12958],[72.72041,11.12986],[72.7207,11.12986],[72.7207,11.13014],[72.72097,11.13014],[72.72097,11.13042],[72.72153,11.13042],[72.72153,11.13069],[72.72208,11.13069],[72.72208,11.13097],[72.72235,11.13097],[72.72235,11.13125],[72.72264,11.13125],[72.72264,11.13153],[72.72292,11.13153],[72.72292,11.13182],[72.7232,11.13181],[72.7232,11.13208],[72.72403,11.13208],[72.72403,11.13236],[72.72459,11.13236],[72.72459,11.13264],[72.72486,11.13264],[72.72486,11.13292],[72.72542,11.13292],[72.72542,11.13319],[72.72569,11.13319],[72.72569,11.13347],[72.72598,11.13347],[72.72598,11.13375],[72.72625,11.13375],[72.72625,11.13403],[72.72681,11.13403],[72.72681,11.13431],[72.72708,11.13431],[72.72708,11.13458],[72.72764,11.13458],[72.72764,11.13486],[72.72791,11.13486],[72.72791,11.13514],[72.7282,11.13514],[72.7282,11.13542],[72.72875,11.13542],[72.72875,11.13569],[72.72903,11.13569],[72.72903,11.13597],[72.73014,11.13597],[72.73014,11.13625],[72.73154,11.13625]]],[[[72.1057,11.21292],[72.1057,11.21264],[72.10597,11.21264],[72.10597,11.21208],[72.10625,11.21208],[72.10625,11.21097],[72.10597,11.21097],[72.10597,11.20986],[72.1057,11.20986],[72.1057,11.20931],[72.10541,11.20931],[72.10541,11.20875],[72.10514,11.20875],[72.10514,11.20847],[72.10458,11.20847],[72.10458,11.20875],[72.10431,11.20875],[72.10431,11.20819],[72.10375,11.2082],[72.10375,11.20847],[72.10347,11.20847],[72.10347,11.20875],[72.10375,11.20875],[72.10375,11.20931],[72.10403,11.20931],[72.10403,11.21125],[72.10431,11.21125],[72.10431,11.21153],[72.10458,11.21153],[72.10458,11.21236],[72.10514,11.21236],[72.10514,11.21292],[72.1057,11.21292]]],[[[72.10291,11.21514],[72.10291,11.21486],[72.1032,11.21486],[72.1032,11.21458],[72.10375,11.21458],[72.10375,11.21431],[72.10403,11.21431],[72.10403,11.21403],[72.10458,11.21403],[72.10458,11.21375],[72.10486,11.21375],[72.10486,11.21319],[72.10458,11.21319],[72.10458,11.21292],[72.10431,11.21292],[72.10431,11.21264],[72.10403,11.21264],[72.10403,11.21292],[72.10347,11.21292],[72.10347,11.21319],[72.1032,11.21319],[72.1032,11.21347],[72.10235,11.21347],[72.10235,11.21375],[72.10152,11.21375],[72.10152,11.21403],[72.10098,11.21403],[72.10098,11.21431],[72.10014,11.21431],[72.10014,11.21486],[72.10042,11.21486],[72.10042,11.21514],[72.10291,11.21514]]],[[[72.79014,11.25986],[72.79014,11.25958],[72.79041,11.25958],[72.79041,11.25903],[72.7907,11.25903],[72.7907,11.25819],[72.79097,11.25819],[72.79097,11.25792],[72.7907,11.25792],[72.7907,11.25542],[72.79041,11.25542],[72.79041,11.25431],[72.79014,11.25431],[72.79014,11.25375],[72.78986,11.25375],[72.78986,11.25319],[72.78958,11.25319],[72.78958,11.25264],[72.78931,11.25264],[72.78931,11.25181],[72.78902,11.25181],[72.78902,11.25153],[72.78876,11.25153],[72.78876,11.25069],[72.78848,11.2507],[72.78848,11.24958],[72.78819,11.24958],[72.78819,11.24875],[72.78792,11.24875],[72.78792,11.24819],[72.78764,11.24819],[72.78764,11.24792],[72.78736,11.24792],[72.78736,11.24708],[72.78709,11.24708],[72.78709,11.2468],[72.7868,11.24681],[72.7868,11.24596],[72.78653,11.24597],[72.78653,11.24569],[72.78625,11.24569],[72.78625,11.24486],[72.78597,11.24486],[72.78597,11.24431],[72.78569,11.24431],[72.78569,11.24347],[72.78542,11.24347],[72.78542,11.24236],[72.78514,11.24236],[72.78514,11.24125],[72.78486,11.24125],[72.78486,11.24042],[72.78458,11.24042],[72.78458,11.24015],[72.78403,11.24015],[72.78403,11.23931],[72.78375,11.23931],[72.78375,11.23764],[72.78347,11.23764],[72.78347,11.23736],[72.7832,11.23736],[72.7832,11.23597],[72.78291,11.23597],[72.78291,11.23514],[72.78263,11.23514],[72.78263,11.23431],[72.78236,11.23431],[72.78236,11.23347],[72.78208,11.23347],[72.78208,11.23208],[72.78181,11.23208],[72.78181,11.2318],[72.78152,11.23181],[72.78152,11.23098],[72.78125,11.23098],[72.78125,11.23042],[72.78098,11.23042],[72.78098,11.22931],[72.78069,11.22931],[72.78069,11.22875],[72.78098,11.22875],[72.78098,11.22847],[72.78069,11.22847],[72.78069,11.22708],[72.78042,11.22708],[72.78042,11.22653],[72.78014,11.22653],[72.78014,11.22569],[72.77986,11.22569],[72.77986,11.22486],[72.77959,11.22486],[72.77959,11.22375],[72.7793,11.22375],[72.7793,11.22319],[72.77959,11.2232],[72.77959,11.22292],[72.7793,11.22292],[72.7793,11.22236],[72.77903,11.22236],[72.77903,11.22181],[72.77875,11.22181],[72.77875,11.22042],[72.77847,11.22042],[72.77847,11.21958],[72.7782,11.21958],[72.7782,11.21736],[72.77792,11.21736],[72.77792,11.21681],[72.77764,11.21681],[72.77764,11.21598],[72.77736,11.21598],[72.77736,11.21542],[72.77708,11.21542],[72.77708,11.21431],[72.77653,11.21431],[72.77653,11.21403],[72.77625,11.21403],[72.77625,11.21347],[72.77597,11.21347],[72.77597,11.21264],[72.7757,11.21264],[72.7757,11.21208],[72.77541,11.21208],[72.77541,11.21181],[72.77514,11.21181],[72.77514,11.21153],[72.77486,11.21153],[72.77486,11.21125],[72.77431,11.21125],[72.77431,11.21097],[72.77402,11.21097],[72.77402,11.21069],[72.77375,11.21069],[72.77375,11.21014],[72.77348,11.21014],[72.77348,11.20985],[72.77319,11.20986],[72.77319,11.20931],[72.77292,11.20931],[72.77292,11.20903],[72.77264,11.20903],[72.77264,11.20819],[72.77236,11.2082],[72.77236,11.20792],[72.77209,11.20792],[72.77209,11.20764],[72.7718,11.20764],[72.7718,11.20736],[72.77153,11.20736],[72.77153,11.20708],[72.77125,11.20708],[72.77125,11.20681],[72.77097,11.20681],[72.77097,11.20625],[72.77069,11.20625],[72.77069,11.20569],[72.77042,11.20569],[72.77042,11.20486],[72.77014,11.20486],[72.77014,11.20458],[72.76986,11.20458],[72.76986,11.2043],[72.76958,11.20431],[72.76958,11.20404],[72.7693,11.20404],[72.7693,11.20319],[72.76903,11.20319],[72.76903,11.20181],[72.76875,11.20181],[72.76875,11.20125],[72.76847,11.20125],[72.76847,11.20069],[72.7682,11.2007],[72.7682,11.20042],[72.76791,11.20042],[72.76791,11.19931],[72.76765,11.19931],[72.76765,11.19819],[72.76736,11.1982],[72.76736,11.19764],[72.76708,11.19764],[72.76708,11.19597],[72.76681,11.19597],[72.76681,11.19542],[72.76653,11.19542],[72.76653,11.19514],[72.76625,11.19514],[72.76625,11.19347],[72.76569,11.19347],[72.76569,11.19264],[72.76542,11.19264],[72.76542,11.19208],[72.76514,11.19208],[72.76514,11.19181],[72.76486,11.19181],[72.76486,11.19097],[72.76514,11.19097],[72.76514,11.19014],[72.76486,11.19014],[72.76486,11.18903],[72.76514,11.18903],[72.76514,11.18875],[72.76458,11.18875],[72.76458,11.18847],[72.76431,11.18847],[72.76431,11.18819],[72.76403,11.18819],[72.76403,11.18653],[72.76375,11.18653],[72.76375,11.18486],[72.76347,11.18486],[72.76347,11.18375],[72.76319,11.18375],[72.76319,11.18292],[72.76292,11.18293],[72.76292,11.18208],[72.76264,11.18208],[72.76264,11.18097],[72.76236,11.18097],[72.76236,11.18042],[72.76208,11.18042],[72.76208,11.18014],[72.76125,11.18014],[72.76125,11.18458],[72.76153,11.18458],[72.76153,11.18569],[72.7618,11.18568],[72.7618,11.18681],[72.76208,11.18681],[72.76208,11.19097],[72.76236,11.19097],[72.76236,11.19181],[72.76264,11.19181],[72.76264,11.19264],[72.76292,11.19264],[72.76292,11.19347],[72.76319,11.19347],[72.76319,11.19431],[72.76347,11.1943],[72.76347,11.19458],[72.76375,11.19458],[72.76375,11.19569],[72.76403,11.1957],[72.76403,11.19653],[72.76431,11.19653],[72.76431,11.19847],[72.76459,11.19847],[72.76459,11.19875],[72.76486,11.19875],[72.76486,11.19903],[72.76514,11.19903],[72.76514,11.19931],[72.76542,11.19931],[72.76542,11.20014],[72.76569,11.20014],[72.76569,11.2007],[72.76598,11.2007],[72.76598,11.20208],[72.76625,11.20208],[72.76625,11.20375],[72.76653,11.20375],[72.76653,11.20404],[72.76681,11.20403],[72.76681,11.20458],[72.76708,11.20458],[72.76708,11.20542],[72.76736,11.20542],[72.76736,11.20625],[72.76765,11.20625],[72.76765,11.20681],[72.76791,11.20681],[72.76791,11.20764],[72.7682,11.20764],[72.7682,11.20847],[72.76847,11.20847],[72.76847,11.20958],[72.76875,11.20958],[72.76875,11.21014],[72.76903,11.21014],[72.76903,11.21069],[72.7693,11.21069],[72.7693,11.21097],[72.76958,11.21097],[72.76958,11.21181],[72.76986,11.21181],[72.76986,11.21319],[72.77014,11.21319],[72.77014,11.21375],[72.77042,11.21375],[72.77042,11.21514],[72.77069,11.21514],[72.77069,11.21569],[72.77097,11.21569],[72.77097,11.21625],[72.77125,11.21625],[72.77125,11.21764],[72.77153,11.21764],[72.77153,11.21819],[72.7718,11.21819],[72.7718,11.21875],[72.77209,11.21875],[72.77209,11.21958],[72.77236,11.21958],[72.77236,11.21986],[72.77264,11.21986],[72.77264,11.22042],[72.77292,11.22042],[72.77292,11.22208],[72.77319,11.22208],[72.77319,11.22292],[72.77348,11.22292],[72.77348,11.22347],[72.77375,11.22347],[72.77375,11.22431],[72.77348,11.22431],[72.77348,11.22458],[72.77319,11.22458],[72.77319,11.22625],[72.77431,11.22625],[72.77431,11.22653],[72.77458,11.22653],[72.77458,11.22708],[72.77486,11.22708],[72.77486,11.22792],[72.77514,11.22792],[72.77514,11.22958],[72.77541,11.22958],[72.77541,11.23042],[72.7757,11.23042],[72.7757,11.23125],[72.77597,11.23125],[72.77597,11.23292],[72.77625,11.23292],[72.77625,11.23431],[72.77653,11.23431],[72.77653,11.23514],[72.7768,11.23514],[72.7768,11.2357],[72.77708,11.23569],[72.77708,11.23653],[72.77736,11.23653],[72.77736,11.23792],[72.77764,11.23792],[72.77764,11.23847],[72.77792,11.23847],[72.77792,11.23903],[72.77819,11.23903],[72.77819,11.23986],[72.77792,11.23986],[72.77792,11.24097],[72.77819,11.24097],[72.7782,11.24125],[72.77847,11.24125],[72.77847,11.24181],[72.77875,11.24181],[72.77875,11.24208],[72.77903,11.24208],[72.77903,11.24264],[72.7793,11.24264],[72.7793,11.24319],[72.77959,11.24319],[72.77959,11.24403],[72.77986,11.24403],[72.77986,11.24458],[72.78014,11.24458],[72.78014,11.24486],[72.78042,11.24486],[72.78042,11.24569],[72.78069,11.24569],[72.78069,11.24653],[72.78098,11.24653],[72.78098,11.24708],[72.78125,11.24708],[72.78125,11.24736],[72.78152,11.24736],[72.78152,11.24819],[72.78181,11.24819],[72.78181,11.24847],[72.78208,11.24847],[72.78208,11.24931],[72.78236,11.24931],[72.78236,11.24986],[72.78263,11.24986],[72.78263,11.25042],[72.78291,11.25042],[72.78291,11.25097],[72.7832,11.25097],[72.7832,11.25181],[72.78347,11.25181],[72.78347,11.25236],[72.78375,11.25236],[72.78375,11.25292],[72.78403,11.25292],[72.78403,11.25375],[72.7843,11.25375],[72.7843,11.25431],[72.78458,11.25431],[72.78458,11.25486],[72.78486,11.25486],[72.78486,11.25515],[72.78514,11.25515],[72.78514,11.25542],[72.78542,11.25542],[72.78542,11.25597],[72.78569,11.25597],[72.78569,11.25653],[72.78597,11.25653],[72.78597,11.25708],[72.78625,11.25708],[72.78625,11.25736],[72.78653,11.25736],[72.78653,11.25764],[72.7868,11.25764],[72.7868,11.25792],[72.78709,11.25792],[72.78709,11.25819],[72.78792,11.25819],[72.78792,11.25847],[72.78876,11.25847],[72.78876,11.25875],[72.78931,11.25875],[72.78931,11.25958],[72.78958,11.25958],[72.78958,11.25986],[72.79014,11.25986]]],[[[73.00097,11.48819],[73.00097,11.48792],[73.00153,11.48792],[73.00153,11.48681],[73.00208,11.48681],[73.00208,11.48569],[73.00236,11.48569],[73.00236,11.48486],[73.00181,11.48486],[73.00181,11.48458],[73.00125,11.48458],[73.00125,11.48486],[73.00097,11.48486],[73.00097,11.48542],[73.00069,11.48542],[73.00069,11.48708],[73.00042,11.48708],[73.00042,11.48792],[73.00069,11.48792],[73.00069,11.48819],[73.00097,11.48819]]],[[[72.99986,11.49792],[72.99986,11.49736],[73.00014,11.49736],[73.00014,11.49764],[73.00153,11.49764],[73.00153,11.49736],[73.00208,11.49736],[73.00208,11.49708],[73.0022,11.49708],[73.00236,11.49708],[73.00236,11.49681],[73.00264,11.49681],[73.00264,11.49653],[73.00291,11.49653],[73.00291,11.49625],[73.0032,11.49625],[73.0032,11.49597],[73.00375,11.49597],[73.00375,11.49542],[73.00403,11.49542],[73.00403,11.49514],[73.0043,11.49514],[73.0043,11.49458],[73.00459,11.49458],[73.00459,11.49403],[73.00486,11.49403],[73.00486,11.49347],[73.00514,11.49347],[73.00514,11.49319],[73.00542,11.49319],[73.00542,11.49292],[73.00569,11.49293],[73.00569,11.49264],[73.00597,11.49264],[73.00597,11.49236],[73.00625,11.49236],[73.00625,11.49208],[73.00653,11.49208],[73.00653,11.49153],[73.00681,11.49153],[73.00681,11.49125],[73.00708,11.49125],[73.00708,11.49069],[73.00736,11.49069],[73.00736,11.49014],[73.00764,11.49014],[73.00764,11.48987],[73.00792,11.48987],[73.00792,11.48931],[73.00818,11.48931],[73.00818,11.48875],[73.00847,11.48875],[73.00847,11.48819],[73.00875,11.48819],[73.00875,11.48736],[73.00903,11.48736],[73.00903,11.48625],[73.00931,11.48625],[73.00931,11.48514],[73.00958,11.48514],[73.00958,11.48374],[73.00931,11.48375],[73.00931,11.48236],[73.00958,11.48236],[73.00958,11.48181],[73.00986,11.48181],[73.00986,11.48042],[73.01014,11.48042],[73.01014,11.47986],[73.00986,11.47986],[73.00986,11.47792],[73.01014,11.47793],[73.01014,11.47736],[73.01041,11.47736],[73.01041,11.47514],[73.0107,11.47514],[73.0107,11.47403],[73.01097,11.47403],[73.01097,11.47347],[73.01125,11.47347],[73.01125,11.47236],[73.01153,11.47236],[73.01153,11.47153],[73.01125,11.47153],[73.01125,11.47097],[73.01097,11.47097],[73.01097,11.47042],[73.0107,11.47042],[73.0107,11.46986],[73.01041,11.46986],[73.01041,11.46958],[73.01014,11.46958],[73.01014,11.46931],[73.00986,11.46931],[73.00986,11.46903],[73.00958,11.46903],[73.00958,11.46874],[73.00931,11.46875],[73.00931,11.46847],[73.00875,11.46847],[73.00875,11.46819],[73.00819,11.46819],[73.00819,11.46792],[73.00764,11.46792],[73.00764,11.46764],[73.00708,11.46764],[73.00708,11.46792],[73.00681,11.46792],[73.00681,11.46819],[73.00653,11.46819],[73.00653,11.47014],[73.00681,11.47014],[73.00681,11.47042],[73.00708,11.47042],[73.00708,11.47097],[73.00736,11.47097],[73.00736,11.4718],[73.00708,11.4718],[73.00708,11.47264],[73.00681,11.47264],[73.00681,11.47347],[73.00653,11.47347],[73.00653,11.47403],[73.00625,11.47403],[73.00625,11.47458],[73.00597,11.47458],[73.00597,11.47542],[73.00569,11.47542],[73.00569,11.47625],[73.00541,11.47625],[73.00541,11.47681],[73.00514,11.47681],[73.00514,11.47793],[73.00486,11.47793],[73.00486,11.47875],[73.00459,11.47875],[73.00459,11.47931],[73.0043,11.47931],[73.0043,11.48014],[73.00403,11.48014],[73.00403,11.48097],[73.00375,11.48097],[73.00375,11.48319],[73.00347,11.48319],[73.00347,11.48455],[73.00347,11.48542],[73.0032,11.48542],[73.0032,11.48764],[73.00291,11.48764],[73.00291,11.48819],[73.00264,11.48819],[73.00264,11.48847],[73.00236,11.48847],[73.00237,11.48875],[73.00208,11.48875],[73.00208,11.48953],[73.00208,11.49069],[73.00197,11.49069],[73.00181,11.49069],[73.00181,11.49153],[73.00153,11.49153],[73.00153,11.49181],[73.00125,11.49181],[73.00125,11.49208],[73.00042,11.49208],[73.00042,11.49236],[73.00014,11.49236],[72.99986,11.49236],[72.99958,11.49236],[72.99958,11.49208],[72.99903,11.49208],[72.99903,11.49236],[72.99875,11.49236],[72.99875,11.49264],[72.99847,11.49264],[72.99847,11.49319],[72.99819,11.49319],[72.99819,11.49375],[72.99792,11.49375],[72.99792,11.49431],[72.99764,11.4943],[72.99764,11.49458],[72.99736,11.49458],[72.99736,11.49514],[72.99709,11.49514],[72.99709,11.49542],[72.9968,11.49542],[72.9968,11.49653],[72.99709,11.49653],[72.99709,11.49681],[72.99736,11.49681],[72.99736,11.49708],[72.99764,11.49708],[72.99764,11.49736],[72.99819,11.49736],[72.99819,11.49764],[72.99875,11.49764],[72.99875,11.49792],[72.99986,11.49792]]],[[[72.18625,11.60126],[72.18625,11.60097],[72.18653,11.60097],[72.18653,11.60042],[72.18708,11.60042],[72.18708,11.60014],[72.18736,11.60014],[72.18736,11.59986],[72.18792,11.59986],[72.18792,11.59958],[72.18819,11.59958],[72.18819,11.5993],[72.18847,11.59931],[72.18847,11.59903],[72.18875,11.59903],[72.18875,11.59875],[72.18903,11.59875],[72.18903,11.59819],[72.18931,11.59819],[72.18931,11.59764],[72.18957,11.59764],[72.18957,11.59681],[72.18931,11.59681],[72.18931,11.59625],[72.18903,11.59625],[72.18903,11.59597],[72.18597,11.59597],[72.18597,11.59625],[72.18569,11.59625],[72.18569,11.59653],[72.18542,11.59653],[72.18542,11.59708],[72.18514,11.59708],[72.18514,11.59736],[72.18486,11.59736],[72.18486,11.59792],[72.18459,11.59792],[72.18459,11.59847],[72.1843,11.59847],[72.1843,11.60014],[72.18459,11.60014],[72.18459,11.60069],[72.18486,11.60069],[72.18486,11.60107],[72.18486,11.60126],[72.18509,11.60126],[72.18625,11.60126]]],[[[72.71403,11.70625],[72.71403,11.70597],[72.7143,11.70597],[72.7143,11.70542],[72.71458,11.70542],[72.71458,11.70514],[72.71486,11.70514],[72.71486,11.70486],[72.71514,11.70486],[72.71514,11.70403],[72.71542,11.70403],[72.71542,11.70375],[72.7157,11.70375],[72.7157,11.70346],[72.71597,11.70347],[72.71597,11.70319],[72.71625,11.70319],[72.71625,11.70236],[72.71653,11.70236],[72.71653,11.70208],[72.7168,11.70208],[72.7168,11.69903],[72.71654,11.69903],[72.71654,11.69875],[72.7168,11.69875],[72.7168,11.69819],[72.71709,11.69819],[72.71709,11.69736],[72.71736,11.69736],[72.71736,11.69687],[72.71709,11.69681],[72.71709,11.69644],[72.71709,11.69458],[72.7168,11.69458],[72.7168,11.69364],[72.7168,11.69319],[72.71653,11.69319],[72.71653,11.69208],[72.71625,11.69208],[72.71625,11.69153],[72.71597,11.69154],[72.71597,11.69097],[72.7157,11.69097],[72.7157,11.69042],[72.71542,11.69042],[72.71542,11.69014],[72.71514,11.69014],[72.71514,11.68958],[72.71486,11.68958],[72.71486,11.68931],[72.71458,11.68931],[72.71458,11.68903],[72.7143,11.68903],[72.7143,11.68848],[72.71403,11.68848],[72.71403,11.68819],[72.71375,11.6882],[72.71375,11.68785],[72.71375,11.68764],[72.71359,11.68764],[72.71347,11.68764],[72.71347,11.68737],[72.7132,11.68736],[72.7132,11.68708],[72.71291,11.68708],[72.71291,11.6868],[72.71264,11.68681],[72.71264,11.68653],[72.71236,11.68653],[72.71236,11.68625],[72.71208,11.68625],[72.71208,11.68569],[72.71181,11.68569],[72.71181,11.68542],[72.71152,11.68542],[72.71152,11.68514],[72.71125,11.68514],[72.71125,11.68458],[72.71098,11.68458],[72.71098,11.68431],[72.71069,11.68431],[72.71069,11.68403],[72.71041,11.68403],[72.71041,11.68319],[72.71014,11.6832],[72.71014,11.68264],[72.70986,11.68264],[72.70986,11.68235],[72.70959,11.68236],[72.70959,11.68208],[72.7093,11.68208],[72.7093,11.6818],[72.70903,11.68181],[72.70903,11.68153],[72.70875,11.68153],[72.70875,11.68125],[72.70847,11.68125],[72.70847,11.68097],[72.70792,11.68097],[72.70792,11.68069],[72.70708,11.68069],[72.70708,11.68042],[72.70597,11.68042],[72.70597,11.68069],[72.70486,11.68069],[72.70486,11.68097],[72.70458,11.68097],[72.70458,11.68125],[72.70403,11.68125],[72.70403,11.68236],[72.70431,11.68235],[72.70431,11.68375],[72.70458,11.68375],[72.70458,11.68403],[72.70514,11.68403],[72.70514,11.68431],[72.70597,11.68431],[72.70597,11.68458],[72.70653,11.68458],[72.70653,11.68486],[72.7068,11.68486],[72.7068,11.68514],[72.70708,11.68514],[72.70708,11.68542],[72.70736,11.68542],[72.70736,11.68597],[72.70764,11.68597],[72.70764,11.68681],[72.70792,11.68681],[72.70792,11.68764],[72.70819,11.68764],[72.70819,11.6882],[72.70847,11.68819],[72.70847,11.69042],[72.70875,11.69042],[72.70875,11.69125],[72.70903,11.69125],[72.70903,11.69181],[72.7093,11.6918],[72.7093,11.69208],[72.70959,11.69208],[72.70959,11.69264],[72.70986,11.69264],[72.70986,11.69375],[72.70959,11.69375],[72.70959,11.69431],[72.7093,11.69431],[72.7093,11.69514],[72.70986,11.69514],[72.70986,11.69486],[72.71014,11.69486],[72.71014,11.69458],[72.71069,11.69458],[72.71069,11.69486],[72.71098,11.69486],[72.71098,11.69542],[72.71125,11.69542],[72.71125,11.69597],[72.71152,11.69597],[72.71152,11.69625],[72.71181,11.69625],[72.71181,11.69736],[72.71208,11.69736],[72.71208,11.69792],[72.71236,11.69792],[72.71236,11.69847],[72.71264,11.69847],[72.71264,11.69958],[72.71291,11.69958],[72.71291,11.70069],[72.7132,11.70069],[72.7132,11.70125],[72.71347,11.70125],[72.71347,11.70153],[72.71375,11.70153],[72.71375,11.70181],[72.71403,11.7018],[72.71403,11.70208],[72.7143,11.70208],[72.7143,11.70236],[72.71458,11.70236],[72.71458,11.70264],[72.71486,11.70264],[72.71486,11.70319],[72.71458,11.70319],[72.71458,11.70403],[72.7143,11.70403],[72.7143,11.70458],[72.71403,11.70458],[72.71403,11.70514],[72.71375,11.70514],[72.71375,11.70542],[72.71347,11.70542],[72.71347,11.70625],[72.71403,11.70625]]]]}}],"state":"Lakshadweep","source":"geohacker/india (Datameet-derived), Census 2011 boundaries"}