{"type":"FeatureCollection","features":[{"type":"Feature","properties":{"ID_0":105,"ISO":"IND","NAME_0":"India","ID_1":22,"NAME_1":"Manipur","ID_2":340,"NAME_2":"Bishnupur","NL_NAME_2":null,"VARNAME_2":"Bishenpur|Sishnupur","TYPE_2":"District","ENGTYPE_2":"District","STATE":"Manipur","DISTRICT":"Bishnupur"},"geometry":{"type":"Polygon","coordinates":[[[93.79093,24.73438],[93.80096,24.73312],[93.80673,24.73563],[93.82531,24.72431],[93.83391,24.72305],[93.84396,24.72429],[93.87408,24.71993],[93.8841,24.7149],[93.89413,24.71493],[93.89269,24.71114],[93.89408,24.70609],[93.89407,24.7023],[93.89259,24.69471],[93.87818,24.6846],[93.86956,24.68208],[93.84947,24.68085],[93.84806,24.68589],[93.83801,24.68464],[93.8021,24.67337],[93.80628,24.64818],[93.81915,24.64059],[93.81625,24.6343],[93.80763,24.62677],[93.80759,24.62047],[93.8133,24.61417],[93.82189,24.61165],[93.85063,24.62921],[93.85493,24.62794],[93.8578,24.62542],[93.8549,24.6204],[93.85773,24.61413],[93.87064,24.61663],[93.8735,24.61411],[93.87492,24.60913],[93.87347,24.60414],[93.89064,24.59054],[93.89207,24.58562],[93.89062,24.58192],[93.87342,24.57571],[93.87057,24.5683],[93.87769,24.55714],[93.87189,24.54312],[93.87187,24.53075],[93.87171,24.52507],[93.87313,24.52251],[93.87599,24.5238],[93.87885,24.52251],[93.87875,24.51226],[93.88303,24.51097],[93.88156,24.50588],[93.87724,24.50334],[93.88435,24.497],[93.88576,24.4932],[93.8843,24.4894],[93.88143,24.48689],[93.87709,24.47933],[93.87563,24.47429],[93.867,24.46552],[93.86272,24.46427],[93.85842,24.46177],[93.86124,24.45925],[93.86124,24.45674],[93.85838,24.45423],[93.85834,24.44669],[93.85546,24.4442],[93.85258,24.43792],[93.84829,24.43794],[93.84256,24.43293],[93.84252,24.42791],[93.85105,24.41657],[93.84533,24.41535],[93.8439,24.41284],[93.84532,24.40781],[93.84957,24.40403],[93.85098,24.40026],[93.85093,24.38772],[93.85375,24.38394],[93.85375,24.38269],[93.8509,24.3802],[93.85227,24.36765],[93.85655,24.36638],[93.85653,24.36262],[93.85365,24.36012],[93.85365,24.35511],[93.85936,24.3576],[93.86225,24.3601],[93.86509,24.35633],[93.86079,24.35259],[93.85648,24.34635],[93.86646,24.33885],[93.86359,24.33511],[93.86359,24.32889],[93.85787,24.33137],[93.85931,24.32267],[93.85643,24.31645],[93.85931,24.31524],[93.86792,24.31531],[93.87223,24.31288],[93.87228,24.30798],[93.88237,24.29075],[93.87808,24.29074],[93.87521,24.29197],[93.86944,24.29188],[93.86945,24.29687],[93.85358,24.31394],[93.85071,24.32138],[93.84509,24.35764],[93.84082,24.36267],[93.83653,24.36518],[93.81652,24.36022],[93.81223,24.36023],[93.80366,24.36653],[93.81092,24.38785],[93.80948,24.3891],[93.81094,24.39413],[93.79095,24.40046],[93.77667,24.40302],[93.75951,24.40306],[93.75382,24.40935],[93.74954,24.40936],[93.7481,24.40559],[93.74523,24.40435],[93.74235,24.39681],[93.73663,24.39683],[93.73378,24.40186],[93.73382,24.41316],[93.73815,24.42321],[93.73672,24.42572],[93.72526,24.41821],[93.71529,24.42702],[93.71388,24.43707],[93.70961,24.44839],[93.71392,24.45341],[93.71537,24.45843],[93.71684,24.46974],[93.72116,24.47602],[93.7212,24.48859],[93.73412,24.50364],[93.73444,24.52583],[93.73451,24.55224],[93.73167,24.5585],[93.73026,24.57107],[93.72458,24.58741],[93.72604,24.5962],[93.74044,24.6251],[93.74187,24.62636],[93.75344,24.65274],[93.75201,24.66405],[93.75059,24.66781],[93.75351,24.68666],[93.75783,24.69043],[93.7607,24.68917],[93.76642,24.68917],[93.77074,24.6967],[93.77075,24.70299],[93.77365,24.71053],[93.77371,24.73063],[93.77803,24.73566],[93.77517,24.73942],[93.77518,24.74195],[93.79093,24.73438]]]}},{"type":"Feature","properties":{"ID_0":105,"ISO":"IND","NAME_0":"India","ID_1":22,"NAME_1":"Manipur","ID_2":341,"NAME_2":"Chandel","NL_NAME_2":null,"VARNAME_2":"Tengnoupal","TYPE_2":"District","ENGTYPE_2":"District","STATE":"Manipur","DISTRICT":"Chandel"},"geometry":{"type":"Polygon","coordinates":[[[94.23019,24.62451],[94.23751,24.6226],[94.25405,24.62228],[94.25676,24.6215],[94.26207,24.61565],[94.2659,24.60953],[94.27347,24.60192],[94.28769,24.60715],[94.29525,24.59971],[94.29884,24.59394],[94.31007,24.58879],[94.31487,24.58378],[94.3161,24.57972],[94.32013,24.5777],[94.3316,24.57578],[94.33342,24.57132],[94.33719,24.57068],[94.33954,24.56951],[94.33633,24.56784],[94.33887,24.56101],[94.33569,24.55809],[94.33873,24.55491],[94.35327,24.55897],[94.35667,24.55885],[94.35905,24.55474],[94.36419,24.55504],[94.36637,24.5568],[94.37633,24.55608],[94.37786,24.5531],[94.37756,24.55102],[94.37513,24.54786],[94.3758,24.54552],[94.37514,24.54205],[94.37284,24.53821],[94.3693,24.5358],[94.36968,24.52946],[94.36651,24.52693],[94.3689,24.52496],[94.37534,24.52424],[94.37647,24.52212],[94.37374,24.51921],[94.38242,24.52065],[94.38313,24.51761],[94.38239,24.51546],[94.37904,24.51703],[94.37827,24.51488],[94.38216,24.51367],[94.38151,24.51067],[94.38503,24.51019],[94.38475,24.50747],[94.38087,24.50426],[94.38258,24.50318],[94.38673,24.5033],[94.38846,24.50079],[94.39074,24.49915],[94.39246,24.49606],[94.39867,24.49061],[94.40192,24.49313],[94.40664,24.49216],[94.40898,24.48963],[94.40342,24.48778],[94.40618,24.48159],[94.4115,24.46965],[94.40316,24.46503],[94.40045,24.46207],[94.40797,24.45379],[94.40891,24.44412],[94.40749,24.43122],[94.40391,24.42114],[94.39917,24.41314],[94.39164,24.40969],[94.39094,24.40951],[94.38341,24.40758],[94.37439,24.40476],[94.36681,24.40455],[94.36534,24.39968],[94.36752,24.39832],[94.37632,24.39283],[94.38611,24.38462],[94.38337,24.37941],[94.37755,24.37106],[94.36936,24.36191],[94.35574,24.34648],[94.35175,24.34201],[94.34707,24.33942],[94.34001,24.33896],[94.33482,24.33862],[94.32635,24.33895],[94.32522,24.33417],[94.32686,24.33064],[94.32754,24.32301],[94.3279,24.31899],[94.32825,24.30607],[94.32799,24.29243],[94.32178,24.27595],[94.31479,24.25975],[94.31325,24.25408],[94.30726,24.24864],[94.30378,24.24548],[94.29514,24.23985],[94.29161,24.22308],[94.29037,24.22001],[94.28766,24.21327],[94.28507,24.20262],[94.28445,24.19162],[94.28373,24.17988],[94.27974,24.17593],[94.27861,24.17562],[94.2665,24.17224],[94.26272,24.16775],[94.26011,24.15576],[94.25993,24.15466],[94.25799,24.14295],[94.25906,24.13165],[94.25923,24.11982],[94.25672,24.10665],[94.25834,24.10159],[94.26005,24.09624],[94.2597,24.08956],[94.25404,24.07768],[94.25022,24.07048],[94.24718,24.06256],[94.24645,24.0629],[94.23994,24.06595],[94.23307,24.0669],[94.23522,24.05866],[94.23677,24.05668],[94.24358,24.04795],[94.24532,24.04424],[94.2316,24.02148],[94.2256,24.01412],[94.22031,24.00603],[94.2154,23.99746],[94.2103,23.99236],[94.2013,23.97797],[94.1945,23.96501],[94.19354,23.9512],[94.19683,23.94404],[94.19597,23.93772],[94.19042,23.93406],[94.18343,23.93711],[94.1818,23.93782],[94.1769,23.93884],[94.17078,23.93509],[94.16952,23.92869],[94.16896,23.9115],[94.16823,23.88914],[94.16504,23.86486],[94.16146,23.85278],[94.15767,23.85195],[94.15545,23.85146],[94.14715,23.85612],[94.14615,23.85609],[94.1393,23.8559],[94.13515,23.84607],[94.12883,23.84278],[94.12287,23.84273],[94.12264,23.84273],[94.11479,23.85245],[94.11476,23.85316],[94.11411,23.86663],[94.11161,23.87088],[94.10419,23.87717],[94.10097,23.88902],[94.09609,23.89357],[94.09061,23.8945],[94.08546,23.89318],[94.07574,23.89306],[94.06848,23.89562],[94.06093,23.8973],[94.05661,23.8976],[94.05112,23.90043],[94.04932,23.90739],[94.04691,23.91337],[94.04322,23.918],[94.03794,23.92056],[94.0341,23.92211],[94.02775,23.92604],[94.02149,23.93149],[94.01769,23.93395],[94.01337,23.93452],[94.00804,23.9332],[94.00153,23.93116],[93.99544,23.93154],[93.98963,23.93203],[93.98158,23.93326],[93.97639,23.93526],[93.96938,23.93394],[93.96224,23.93715],[93.96179,23.94339],[93.95997,23.94692],[93.95378,23.9502],[93.94162,23.95279],[93.93581,23.95337],[93.92638,23.95541],[93.92097,23.95678],[93.9139,23.95745],[93.90702,23.95714],[93.90208,23.95561],[93.89608,23.95483],[93.89104,23.95178],[93.88706,23.94747],[93.88156,23.94714],[93.87702,23.94688],[93.87317,23.94392],[93.86623,23.93792],[93.84863,23.93808],[93.83755,23.93208],[93.82822,23.9314],[93.81599,23.92983],[93.80929,23.93261],[93.80806,23.93312],[93.80573,23.93737],[93.80531,23.94722],[93.80357,23.95111],[93.80114,23.95555],[93.79722,23.95665],[93.79429,23.96282],[93.79355,23.96751],[93.78562,23.96944],[93.77934,23.97787],[93.77349,23.9824],[93.77028,23.99001],[93.76659,23.99698],[93.76222,24.00414],[93.75694,24.00949],[93.74661,24.00854],[93.74028,24.00776],[93.74158,24.01408],[93.74491,24.02169],[93.74525,24.02676],[93.74862,24.03436],[93.75799,24.04576],[93.75835,24.05209],[93.76283,24.05461],[93.76313,24.06092],[93.76485,24.06849],[93.77079,24.07479],[93.76804,24.08109],[93.77381,24.08486],[93.77246,24.09241],[93.77821,24.09617],[93.77967,24.10244],[93.77968,24.10999],[93.77684,24.11502],[93.77398,24.12506],[93.77969,24.13009],[93.77761,24.13378],[93.78291,24.14311],[93.79147,24.14436],[93.79291,24.14814],[93.80288,24.14938],[93.81005,24.15816],[93.81438,24.17196],[93.82722,24.17821],[93.83012,24.18449],[93.83867,24.18824],[93.84158,24.19828],[93.84587,24.20078],[93.84875,24.21083],[93.85449,24.2171],[93.86017,24.21207],[93.86729,24.20955],[93.87019,24.21584],[93.8702,24.22086],[93.87879,24.22213],[93.88166,24.22465],[93.8817,24.22969],[93.87457,24.23346],[93.86459,24.23471],[93.86317,24.23723],[93.8675,24.24228],[93.87041,24.24734],[93.86611,24.2486],[93.86762,24.25622],[93.8648,24.26254],[93.86632,24.26766],[93.87214,24.27283],[93.87507,24.27671],[93.88237,24.29075],[93.88805,24.28819],[93.88944,24.2831],[93.88497,24.27032],[93.88613,24.24614],[93.88752,24.24108],[93.89471,24.24365],[93.90052,24.25132],[93.91351,24.25405],[93.91366,24.26675],[93.91939,24.2643],[93.92368,24.26682],[93.92513,24.27553],[93.92222,24.28291],[93.92364,24.28535],[93.92935,24.28409],[93.93642,24.28892],[93.93924,24.29381],[93.94207,24.29501],[93.94207,24.29996],[93.93496,24.31368],[93.92644,24.32618],[93.91788,24.3337],[93.91363,24.34245],[93.91511,24.35494],[93.91798,24.36119],[93.92089,24.37371],[93.92809,24.37997],[93.931,24.39127],[93.93961,24.39883],[93.94962,24.39759],[93.94965,24.40139],[93.94822,24.40518],[93.9497,24.409],[93.95401,24.41286],[93.95972,24.41294],[93.96545,24.41045],[93.96832,24.41178],[93.96977,24.4144],[93.96841,24.42353],[93.9757,24.43472],[93.98023,24.45218],[93.97884,24.45881],[93.97455,24.46814],[93.97312,24.47615],[93.97316,24.48983],[93.97462,24.49106],[93.97892,24.49241],[93.9818,24.49254],[93.9861,24.4874],[93.98758,24.47304],[94.00192,24.4685],[94.0053,24.46538],[94.00514,24.45112],[94.00727,24.44631],[94.0146,24.44695],[94.02424,24.44925],[94.04042,24.4603],[94.05299,24.47528],[94.03871,24.50658],[94.03835,24.50737],[94.04299,24.52839],[94.0428,24.54328],[94.05079,24.5387],[94.05612,24.53375],[94.06082,24.53571],[94.06111,24.533],[94.05737,24.52995],[94.05589,24.52767],[94.05646,24.52237],[94.05997,24.51786],[94.06456,24.52243],[94.06734,24.52685],[94.06929,24.52135],[94.07481,24.52211],[94.08627,24.52089],[94.0914,24.52316],[94.07764,24.5463],[94.07433,24.55985],[94.07609,24.56863],[94.08335,24.56748],[94.0941,24.55745],[94.09955,24.55903],[94.10431,24.56498],[94.11083,24.58205],[94.12132,24.59652],[94.1235,24.60365],[94.12225,24.6079],[94.12547,24.61078],[94.13186,24.60984],[94.1376,24.6078],[94.14376,24.6067],[94.14867,24.60688],[94.1535,24.60892],[94.15396,24.61677],[94.15226,24.62388],[94.15323,24.62372],[94.16025,24.6254],[94.16599,24.62883],[94.17641,24.64035],[94.17918,24.64097],[94.2055,24.63197],[94.21005,24.62996],[94.21784,24.62761],[94.22202,24.62479],[94.23019,24.62451]]]}},{"type":"Feature","properties":{"ID_0":105,"ISO":"IND","NAME_0":"India","ID_1":22,"NAME_1":"Manipur","ID_2":342,"NAME_2":"Churachandpur","NL_NAME_2":null,"VARNAME_2":"Manipur South|Churchandpur","TYPE_2":"District","ENGTYPE_2":"District","STATE":"Manipur","DISTRICT":"Churachandpur"},"geometry":{"type":"Polygon","coordinates":[[[93.16579,24.71223],[93.18156,24.70851],[93.19305,24.70855],[93.20737,24.70608],[93.20738,24.70357],[93.20882,24.70231],[93.21743,24.69983],[93.21886,24.70109],[93.21742,24.69731],[93.21026,24.6885],[93.20743,24.67089],[93.22175,24.67471],[93.22177,24.66716],[93.21891,24.6659],[93.21461,24.6684],[93.21175,24.66588],[93.21173,24.6621],[93.21606,24.65458],[93.21607,24.6483],[93.2218,24.64454],[93.22468,24.64078],[93.22469,24.63576],[93.22183,24.62946],[93.21324,24.62943],[93.2118,24.62566],[93.21898,24.6194],[93.21757,24.61436],[93.21757,24.60934],[93.22043,24.60306],[93.21758,24.59049],[93.21618,24.58797],[93.21329,24.5867],[93.20472,24.59045],[93.20327,24.59171],[93.20471,24.58039],[93.20901,24.57789],[93.20618,24.57537],[93.20903,24.57412],[93.21192,24.57036],[93.20903,24.5691],[93.20617,24.56909],[93.2033,24.57159],[93.19757,24.57409],[93.19472,24.57031],[93.19759,24.5678],[93.19901,24.5653],[93.19903,24.56279],[93.19617,24.55901],[93.19189,24.55396],[93.18472,24.54891],[93.18187,24.54387],[93.17903,24.53507],[93.17332,24.53128],[93.17617,24.52375],[93.17477,24.51872],[93.17906,24.51873],[93.1848,24.51624],[93.18621,24.52504],[93.1948,24.52381],[93.19911,24.51754],[93.2077,24.51631],[93.21487,24.50125],[93.22346,24.49751],[93.23061,24.50507],[93.23633,24.51388],[93.24777,24.51643],[93.25494,24.51142],[93.26209,24.51144],[93.26781,24.51271],[93.2678,24.52025],[93.27067,24.52403],[93.26207,24.52652],[93.26923,24.53911],[93.27493,24.54416],[93.27206,24.54791],[93.27779,24.55045],[93.28638,24.56303],[93.28209,24.5668],[93.28924,24.56932],[93.30928,24.5656],[93.3193,24.56813],[93.3279,24.56941],[93.33793,24.56944],[93.34221,24.57573],[93.34935,24.57826],[93.35652,24.57702],[93.39089,24.56829],[93.39663,24.57835],[93.40235,24.57585],[93.40378,24.57208],[93.40808,24.56707],[93.41381,24.56329],[93.43098,24.55831],[93.4496,24.542],[93.45532,24.54831],[93.46678,24.57092],[93.47252,24.57345],[93.47968,24.57346],[93.4854,24.5697],[93.49399,24.55463],[93.49973,24.55965],[93.50258,24.55841],[93.50974,24.56344],[93.51404,24.56848],[93.53409,24.55969],[93.53838,24.56096],[93.53839,24.57227],[93.54124,24.57479],[93.54413,24.58232],[93.54842,24.58108],[93.55128,24.58484],[93.55988,24.58484],[93.56133,24.58863],[93.57278,24.59491],[93.57706,24.58863],[93.58422,24.58361],[93.58852,24.57858],[93.59138,24.5723],[93.5971,24.5698],[93.59995,24.57357],[93.60854,24.57484],[93.61287,24.57986],[93.61718,24.58614],[93.62437,24.605],[93.62724,24.60751],[93.63583,24.60877],[93.65156,24.59495],[93.65443,24.59872],[93.65588,24.60626],[93.66306,24.61129],[93.66879,24.61129],[93.68167,24.60877],[93.69028,24.6138],[93.70175,24.61626],[93.71891,24.60877],[93.7232,24.60374],[93.72604,24.5962],[93.72458,24.58741],[93.73026,24.57107],[93.73167,24.5585],[93.73451,24.55224],[93.73444,24.52583],[93.73412,24.50364],[93.7212,24.48859],[93.72116,24.47602],[93.71684,24.46974],[93.71537,24.45843],[93.71392,24.45341],[93.70961,24.44839],[93.71388,24.43707],[93.71529,24.42702],[93.72526,24.41821],[93.73672,24.42572],[93.73815,24.42321],[93.73382,24.41316],[93.73378,24.40186],[93.73663,24.39683],[93.74235,24.39681],[93.74523,24.40435],[93.7481,24.40559],[93.74954,24.40936],[93.75382,24.40935],[93.75951,24.40306],[93.77667,24.40302],[93.79095,24.40046],[93.81094,24.39413],[93.80948,24.3891],[93.81092,24.38785],[93.80366,24.36653],[93.81223,24.36023],[93.81652,24.36022],[93.83653,24.36518],[93.84082,24.36267],[93.84509,24.35764],[93.85071,24.32138],[93.85358,24.31394],[93.86945,24.29687],[93.86944,24.29188],[93.87521,24.29197],[93.87808,24.29074],[93.88237,24.29075],[93.87507,24.27671],[93.87214,24.27283],[93.86632,24.26766],[93.8648,24.26254],[93.86762,24.25622],[93.86611,24.2486],[93.87041,24.24734],[93.8675,24.24228],[93.86317,24.23723],[93.86459,24.23471],[93.87457,24.23346],[93.8817,24.22969],[93.88166,24.22465],[93.87879,24.22213],[93.8702,24.22086],[93.87019,24.21584],[93.86729,24.20955],[93.86017,24.21207],[93.85449,24.2171],[93.84875,24.21083],[93.84587,24.20078],[93.84158,24.19828],[93.83867,24.18824],[93.83012,24.18449],[93.82722,24.17821],[93.81438,24.17196],[93.81005,24.15816],[93.80288,24.14938],[93.79291,24.14814],[93.79147,24.14436],[93.78291,24.14311],[93.77761,24.13378],[93.77969,24.13009],[93.77398,24.12506],[93.77684,24.11502],[93.77968,24.10999],[93.77967,24.10244],[93.77821,24.09617],[93.77246,24.09241],[93.77381,24.08486],[93.76804,24.08109],[93.77079,24.07479],[93.76485,24.06849],[93.76313,24.06092],[93.76283,24.05461],[93.75835,24.05209],[93.75799,24.04576],[93.74862,24.03436],[93.74525,24.02676],[93.74491,24.02169],[93.74158,24.01408],[93.74028,24.00776],[93.74661,24.00854],[93.74439,24.00123],[93.73995,23.99917],[93.7328,24.00181],[93.72678,24.00383],[93.72021,24.00557],[93.71272,24.00524],[93.70613,24.00644],[93.69699,24.00747],[93.68648,24.00968],[93.67752,24.01107],[93.67445,24.00809],[93.66754,24.00541],[93.66282,24.00471],[93.65881,24.00725],[93.65498,24.00998],[93.65244,24.01351],[93.64496,24.01408],[93.63532,24.01338],[93.62766,24.01522],[93.62066,24.01424],[93.6163,24.01074],[93.61666,24.00297],[93.6196,24.0],[93.62008,23.99952],[93.62075,23.99529],[93.62091,23.9912],[93.61594,23.98147],[93.61226,23.97715],[93.60929,23.97345],[93.60615,23.97137],[93.60346,23.96959],[93.59715,23.96726],[93.59264,23.96799],[93.58387,23.96847],[93.58049,23.97009],[93.58006,23.97029],[93.57715,23.97789],[93.57245,23.98324],[93.56884,23.98867],[93.56354,23.98958],[93.56125,23.98562],[93.55726,23.97966],[93.55752,23.9701],[93.55493,23.96522],[93.54636,23.96326],[93.53947,23.96328],[93.5305,23.96078],[93.52417,23.95473],[93.51987,23.9505],[93.51942,23.95005],[93.51508,23.94717],[93.50871,23.9489],[93.50254,23.95578],[93.49595,23.95716],[93.48939,23.96151],[93.48577,23.96758],[93.47803,23.96949],[93.47221,23.97068],[93.46886,23.97394],[93.46616,23.97919],[93.4667,23.98759],[93.46739,23.99202],[93.46735,23.99283],[93.46698,23.99931],[93.46614,24.00024],[93.46313,24.00359],[93.45882,24.00966],[93.45737,24.01507],[93.45326,24.02285],[93.44403,24.02776],[93.44112,24.03472],[93.43996,24.04357],[93.43287,24.06166],[93.42474,24.07171],[93.42023,24.07605],[93.41543,24.07922],[93.41051,24.08167],[93.40422,24.0843],[93.39113,24.08822],[93.38336,24.08932],[93.37046,24.09223],[93.36864,24.09256],[93.36643,24.09297],[93.36152,24.1002],[93.35674,24.10907],[93.35143,24.11242],[93.34692,24.11297],[93.34904,24.1051],[93.3509,24.10157],[93.35384,24.09768],[93.34682,24.09227],[93.34358,24.09436],[93.33934,24.0932],[93.33401,24.09013],[93.33583,24.08537],[93.33598,24.08497],[93.33762,24.07892],[93.33887,24.07232],[93.34201,24.06744],[93.33735,24.06094],[93.33635,24.0567],[93.33737,24.0534],[93.31255,24.05413],[93.29825,24.05159],[93.28819,24.05155],[93.28537,24.04652],[93.27678,24.04021],[93.27395,24.03392],[93.25529,24.02379],[93.25671,24.02881],[93.25238,24.03383],[93.26233,24.05773],[93.26374,24.05774],[93.26661,24.06026],[93.26373,24.06779],[93.26372,24.07282],[93.24802,24.08534],[93.24233,24.08657],[93.23663,24.08404],[93.22668,24.08653],[93.22384,24.08401],[93.22242,24.08149],[93.22525,24.07396],[93.22243,24.06767],[93.221,24.06137],[93.21674,24.05006],[93.19826,24.0525],[93.19401,24.05627],[93.17838,24.0541],[93.17552,24.0537],[93.16984,24.05495],[93.16698,24.06122],[93.16987,24.07128],[93.16988,24.07506],[93.16132,24.07756],[93.15846,24.08382],[93.14791,24.08809],[93.1422,24.08679],[93.13509,24.07921],[93.13508,24.07292],[93.12937,24.06408],[93.12082,24.06026],[93.11941,24.05647],[93.11231,24.05519],[93.11088,24.05015],[93.10663,24.04886],[93.10092,24.04509],[93.09951,24.04884],[93.10377,24.05263],[93.10093,24.05639],[93.10234,24.06269],[93.10091,24.06645],[93.10235,24.07401],[93.09521,24.08028],[93.08951,24.08405],[93.08523,24.09035],[93.07949,24.10297],[93.07378,24.10049],[93.06519,24.09427],[93.05369,24.09069],[93.0377,24.09518],[93.0347,24.09924],[93.0303,24.10083],[93.0273,24.10364],[93.02149,24.10145],[93.01411,24.10453],[93.00968,24.10995],[93.00069,24.11519],[92.99642,24.11673],[92.9893,24.11633],[92.98478,24.11482],[92.97638,24.11482],[92.97487,24.11702],[92.9736,24.12388],[92.97756,24.12639],[92.98607,24.12888],[92.98941,24.13178],[92.99287,24.14039],[92.99092,24.14687],[92.99113,24.15033],[92.99308,24.15318],[93.00067,24.15673],[93.00545,24.16061],[93.0055,24.16321],[93.00331,24.17405],[93.01092,24.18221],[93.0031,24.19431],[93.00304,24.19752],[93.01237,24.19754],[93.01662,24.20003],[93.018,24.20755],[93.02229,24.21006],[93.02368,24.21757],[93.0194,24.22509],[93.01941,24.22885],[93.02659,24.23263],[93.01804,24.23637],[93.00671,24.25396],[93.00674,24.26279],[93.01392,24.27167],[93.00822,24.28048],[93.01108,24.28808],[93.01822,24.29316],[93.02392,24.30074],[93.03523,24.3184],[93.04337,24.34339],[93.03176,24.34449],[93.02157,24.34682],[93.01933,24.35885],[93.02011,24.36597],[93.02209,24.37422],[93.0171,24.37996],[93.02435,24.39047],[93.0005,24.40327],[93.00645,24.41193],[93.0089,24.40537],[93.01599,24.40253],[93.02921,24.40634],[93.03917,24.41113],[93.03933,24.41757],[93.03215,24.42886],[93.03674,24.44394],[93.0379,24.46115],[93.04826,24.46396],[93.04852,24.47548],[93.04572,24.48182],[93.03577,24.49695],[93.04433,24.5058],[93.04002,24.51081],[93.04142,24.51459],[93.05283,24.51965],[93.05283,24.52467],[93.04847,24.53091],[93.0513,24.53719],[93.05268,24.54472],[93.06122,24.55478],[93.06554,24.54727],[93.07269,24.56109],[93.06112,24.57483],[93.07123,24.57613],[93.07845,24.57491],[93.08714,24.57118],[93.09623,24.58022],[93.09727,24.58254],[93.10448,24.58257],[93.10698,24.58356],[93.11729,24.57255],[93.13,24.56503],[93.13622,24.56412],[93.14671,24.57161],[93.15439,24.58159],[93.15439,24.5885],[93.14671,24.59541],[93.13443,24.60309],[93.12061,24.6146],[93.11984,24.63149],[93.11984,24.64607],[93.12061,24.66527],[93.12675,24.67832],[93.13443,24.69213],[93.14211,24.70135],[93.15593,24.70288],[93.16131,24.71222],[93.16579,24.71223]]]}},{"type":"Feature","properties":{"ID_0":105,"ISO":"IND","NAME_0":"India","ID_1":22,"NAME_1":"Manipur","ID_2":343,"NAME_2":"East Imphal","NL_NAME_2":null,"VARNAME_2":null,"TYPE_2":"District","ENGTYPE_2":"District","STATE":"Manipur","DISTRICT":"East Imphal"},"geometry":{"type":"MultiPolygon","coordinates":[[[[93.23294,24.85822],[93.23869,24.85698],[93.24444,24.857],[93.24586,24.85449],[93.24302,24.84442],[93.23299,24.82555],[93.22585,24.80919],[93.22443,24.80291],[93.22443,24.79788],[93.22157,24.79535],[93.21727,24.79408],[93.20868,24.78651],[93.20579,24.78275],[93.20008,24.78021],[93.19578,24.78019],[93.19291,24.78145],[93.19002,24.7852],[93.19001,24.78772],[93.17999,24.78643],[93.17285,24.76504],[93.15855,24.74614],[93.15,24.72852],[93.14858,24.72098],[93.14571,24.71468],[93.14859,24.71217],[93.16131,24.71222],[93.15593,24.70288],[93.14211,24.70135],[93.13443,24.69213],[93.12675,24.67832],[93.12061,24.66527],[93.11984,24.64607],[93.11984,24.63149],[93.12061,24.6146],[93.13443,24.60309],[93.14671,24.59541],[93.15439,24.5885],[93.15439,24.58159],[93.14671,24.57161],[93.13622,24.56412],[93.13,24.56503],[93.11729,24.57255],[93.10698,24.58356],[93.10675,24.58396],[93.10445,24.5876],[93.09866,24.59134],[93.08855,24.59003],[93.07982,24.5925],[93.07542,24.59623],[93.07539,24.6],[93.07678,24.60377],[93.08676,24.61133],[93.08673,24.61382],[93.08234,24.61758],[93.07942,24.62132],[93.07935,24.62634],[93.08221,24.6276],[93.08939,24.62763],[93.0893,24.63389],[93.08485,24.64767],[93.08626,24.65144],[93.08913,24.65271],[93.09628,24.65272],[93.09626,24.65648],[93.09766,24.659],[93.09763,24.66276],[93.09904,24.66653],[93.1033,24.67156],[93.10471,24.67534],[93.10469,24.6791],[93.10182,24.68035],[93.09754,24.67782],[93.09325,24.67655],[93.0918,24.67781],[93.0918,24.68032],[93.0932,24.68408],[93.09319,24.68785],[93.09029,24.69287],[93.08453,24.69787],[93.08307,24.70164],[93.08021,24.70414],[93.07587,24.71039],[93.0787,24.71417],[93.08878,24.70919],[93.09303,24.71548],[93.09444,24.72051],[93.09299,24.72426],[93.09443,24.72428],[93.09729,24.72805],[93.09726,24.73181],[93.10442,24.73687],[93.10725,24.7419],[93.1058,24.74566],[93.10292,24.7469],[93.10294,24.74315],[93.1015,24.74188],[93.09864,24.74438],[93.10147,24.74941],[93.10004,24.75067],[93.10003,24.75444],[93.10428,24.76324],[93.10567,24.76953],[93.10281,24.77329],[93.10133,24.77831],[93.10706,24.78334],[93.10563,24.7846],[93.10558,24.78837],[93.10846,24.79088],[93.1127,24.80221],[93.10979,24.80974],[93.11122,24.81226],[93.1198,24.81731],[93.12267,24.81983],[93.1227,24.81481],[93.11984,24.81103],[93.12128,24.80853],[93.12701,24.80854],[93.13134,24.80604],[93.13706,24.81109],[93.13995,24.80481],[93.14285,24.80106],[93.14429,24.7998],[93.14861,24.79856],[93.15148,24.79605],[93.15293,24.79354],[93.15295,24.78978],[93.15724,24.79231],[93.16154,24.79734],[93.16582,24.79861],[93.16868,24.80113],[93.17442,24.80367],[93.17587,24.79739],[93.1773,24.79612],[93.17876,24.79614],[93.18018,24.79865],[93.18018,24.80242],[93.18159,24.80494],[93.1859,24.80495],[93.1902,24.80622],[93.19308,24.80623],[93.1945,24.80875],[93.19736,24.81126],[93.19878,24.81504],[93.19591,24.81629],[93.1916,24.82256],[93.193,24.82632],[93.19729,24.83388],[93.19298,24.83387],[93.19297,24.83638],[93.19439,24.83764],[93.19583,24.83764],[93.19871,24.83639],[93.20155,24.84017],[93.20013,24.84143],[93.1987,24.84016],[93.19727,24.84016],[93.19438,24.84392],[93.1958,24.84644],[93.20155,24.84394],[93.20152,24.85022],[93.19865,24.85273],[93.1972,24.85649],[93.20007,24.85776],[93.20584,24.85526],[93.2087,24.85653],[93.21014,24.85904],[93.21429,24.86195],[93.22721,24.86072],[93.23294,24.85822]]],[[[94.03379,25.0252],[94.03647,25.02246],[94.04063,25.02288],[94.0427,25.02428],[94.04498,25.02389],[94.0502,25.01736],[94.04768,25.01602],[94.04611,25.01647],[94.04426,25.01848],[94.04281,25.01841],[94.04112,25.01553],[94.03539,25.01561],[94.03356,25.0118],[94.03359,25.00945],[94.03333,25.00855],[94.0385,25.00754],[94.04147,25.00873],[94.04312,25.0092],[94.04475,25.00897],[94.04723,25.00606],[94.04899,25.00545],[94.04866,25.00422],[94.05167,25.00163],[94.04864,25.00057],[94.04228,24.99997],[94.03707,24.99329],[94.03683,24.99121],[94.04599,24.99233],[94.04805,24.98683],[94.04041,24.98555],[94.03598,24.97757],[94.035,24.97454],[94.03551,24.9715],[94.04145,24.97361],[94.04558,24.97669],[94.04977,24.97819],[94.05019,24.97162],[94.04873,24.96732],[94.04845,24.96259],[94.0509,24.96038],[94.06261,24.95912],[94.06619,24.95634],[94.0635,24.95318],[94.05575,24.94943],[94.05494,24.94751],[94.06021,24.9458],[94.06627,24.94624],[94.06992,24.94578],[94.062,24.90632],[94.06377,24.89244],[94.06665,24.88782],[94.07178,24.8849],[94.08096,24.88586],[94.091,24.89051],[94.09668,24.89481],[94.10064,24.90877],[94.10819,24.91044],[94.11478,24.9109],[94.12054,24.91762],[94.12229,24.92175],[94.13078,24.9276],[94.13084,24.94162],[94.13393,24.94403],[94.13854,24.9432],[94.13995,24.93888],[94.13987,24.93398],[94.14103,24.93036],[94.1445,24.92707],[94.14662,24.92376],[94.14105,24.91668],[94.12914,24.90536],[94.12431,24.89075],[94.11963,24.88686],[94.11595,24.88162],[94.11405,24.87363],[94.11224,24.85843],[94.10843,24.85721],[94.10184,24.85734],[94.0977,24.85514],[94.10139,24.83598],[94.09821,24.8282],[94.09351,24.82137],[94.08951,24.81177],[94.08785,24.8018],[94.0799,24.75762],[94.07645,24.75636],[94.07742,24.75181],[94.07569,24.74775],[94.07117,24.74727],[94.07182,24.74394],[94.0676,24.74595],[94.06667,24.74368],[94.069,24.74159],[94.06638,24.73964],[94.06622,24.73641],[94.07001,24.73427],[94.0682,24.73309],[94.0648,24.73298],[94.0616,24.7237],[94.07102,24.7261],[94.07082,24.72373],[94.06705,24.72159],[94.06898,24.72121],[94.06773,24.71918],[94.06852,24.71781],[94.06561,24.71637],[94.06818,24.71336],[94.06535,24.71119],[94.06318,24.70804],[94.06333,24.70065],[94.06455,24.69727],[94.06909,24.69999],[94.07177,24.71064],[94.07992,24.71244],[94.08408,24.70387],[94.08755,24.70062],[94.08899,24.69814],[94.08762,24.69258],[94.08365,24.69419],[94.08278,24.69157],[94.08121,24.69276],[94.07749,24.693],[94.07758,24.69006],[94.06344,24.69093],[94.06176,24.68923],[94.06049,24.68489],[94.04846,24.68591],[94.04897,24.67949],[94.04324,24.67734],[94.04373,24.68167],[94.03725,24.67787],[94.03651,24.68046],[94.0344,24.68268],[94.03522,24.67779],[94.03121,24.6768],[94.02699,24.67776],[94.02511,24.67202],[94.02165,24.67209],[94.01959,24.67585],[94.01736,24.68735],[94.01188,24.69136],[94.01939,24.70043],[94.01944,24.70568],[94.01593,24.70954],[94.00943,24.71382],[94.00576,24.71923],[94.00601,24.7295],[94.00172,24.73273],[93.99744,24.73275],[93.98351,24.73055],[93.97533,24.72839],[93.97398,24.72471],[93.97543,24.71719],[93.97128,24.71609],[93.96989,24.70984],[93.96142,24.7126],[93.94856,24.71405],[93.94859,24.71659],[93.94575,24.72288],[93.94429,24.72038],[93.93587,24.75408],[93.93883,24.77182],[93.93885,24.78572],[93.94175,24.79452],[93.94477,24.82718],[93.94725,24.83726],[93.93864,24.84232],[93.93577,24.84863],[93.91711,24.85876],[93.91286,24.85498],[93.89996,24.8575],[93.90276,24.86633],[93.93648,24.90132],[93.93793,24.89881],[93.94372,24.90131],[93.94808,24.90133],[93.95543,24.90636],[93.95399,24.90762],[93.94958,24.90761],[93.94961,24.90887],[93.96292,24.91753],[93.9644,24.92118],[93.95122,24.91639],[93.94987,24.9214],[93.95284,24.92385],[93.96301,24.92726],[93.96445,24.92839],[93.96588,24.9342],[93.95734,24.93466],[93.95451,24.93719],[93.95596,24.94307],[93.9658,24.94108],[93.97137,24.94161],[93.97289,24.93705],[93.97856,24.93545],[93.97881,24.92656],[93.98028,24.9242],[93.98319,24.92178],[93.98878,24.92721],[93.98731,24.92838],[93.98677,24.93874],[93.98523,24.94087],[93.98238,24.94222],[93.98219,24.94516],[93.96836,24.95083],[93.96693,24.95447],[93.95742,24.95598],[93.9615,24.95896],[93.95753,24.96572],[93.9655,24.96058],[93.96815,24.96238],[93.97214,24.96131],[93.9748,24.95934],[93.97629,24.95451],[93.98036,24.95236],[93.98572,24.9518],[93.99551,24.94798],[93.99605,24.95579],[94.00151,24.96077],[94.00867,24.95645],[94.01212,24.9555],[94.01682,24.95588],[94.01965,24.95962],[94.02108,24.97754],[94.02538,24.99742],[94.02399,25.0023],[94.01944,25.00268],[94.01359,25.00453],[94.00134,25.00518],[94.00797,25.00814],[94.01793,25.00849],[94.02026,25.00932],[94.02182,25.01154],[94.02311,25.01932],[94.0226,25.02327],[94.01968,25.03255],[94.01717,25.03722],[94.02134,25.04649],[94.025,25.05064],[94.03506,25.05501],[94.03481,25.05284],[94.03249,25.04983],[94.02917,25.03945],[94.02969,25.03694],[94.0337,25.03152],[94.03379,25.0252]]]]}},{"type":"Feature","properties":{"ID_0":105,"ISO":"IND","NAME_0":"India","ID_1":22,"NAME_1":"Manipur","ID_2":344,"NAME_2":"Senapati","NL_NAME_2":null,"VARNAME_2":null,"TYPE_2":"District","ENGTYPE_2":"District","STATE":"Manipur","DISTRICT":"Senapati"},"geometry":{"type":"Polygon","coordinates":[[[94.45041,25.54227],[94.44419,25.53263],[94.44237,25.52738],[94.43984,25.52466],[94.43958,25.52173],[94.43649,25.51918],[94.43426,25.51531],[94.4289,25.49549],[94.42438,25.48712],[94.42053,25.47708],[94.4234,25.47226],[94.41258,25.46122],[94.40675,25.45406],[94.40527,25.44622],[94.39826,25.43501],[94.39497,25.42815],[94.39206,25.42911],[94.38908,25.42875],[94.38727,25.42691],[94.39017,25.423],[94.38367,25.41399],[94.3876,25.40882],[94.38294,25.40241],[94.38022,25.39735],[94.37928,25.39371],[94.37874,25.38253],[94.37977,25.37454],[94.38268,25.37115],[94.38068,25.36579],[94.38195,25.36309],[94.37874,25.35899],[94.37144,25.35383],[94.36363,25.34544],[94.36028,25.34133],[94.35897,25.33758],[94.35336,25.32916],[94.34933,25.31981],[94.34428,25.31662],[94.34061,25.3132],[94.33235,25.2987],[94.33075,25.29041],[94.32772,25.28411],[94.31834,25.27306],[94.31649,25.2707],[94.3127,25.26826],[94.30029,25.25472],[94.28608,25.24458],[94.26569,25.23662],[94.26014,25.23343],[94.25832,25.22927],[94.25677,25.22246],[94.25266,25.2146],[94.24751,25.20882],[94.23754,25.20335],[94.23007,25.20101],[94.22574,25.19487],[94.22343,25.18761],[94.2172,25.18371],[94.20943,25.18154],[94.19716,25.18163],[94.19326,25.17706],[94.18631,25.17334],[94.1841,25.17217],[94.18457,25.16884],[94.18604,25.16602],[94.18212,25.16628],[94.17772,25.16407],[94.17866,25.15803],[94.17576,25.15744],[94.17198,25.15309],[94.16887,25.14668],[94.16474,25.14873],[94.16406,25.14504],[94.16674,25.14126],[94.16333,25.13904],[94.15955,25.14156],[94.15783,25.13792],[94.15291,25.13846],[94.15023,25.13131],[94.14142,25.12463],[94.13729,25.12305],[94.13732,25.12074],[94.1363,25.11872],[94.13309,25.11749],[94.1322,25.10574],[94.12907,25.09886],[94.12643,25.09626],[94.12518,25.09112],[94.12605,25.08434],[94.12352,25.08144],[94.12222,25.07454],[94.12337,25.07124],[94.12584,25.06948],[94.12877,25.06541],[94.12904,25.0626],[94.13074,25.05823],[94.14265,25.05381],[94.15116,25.04045],[94.15251,25.03235],[94.15418,25.02879],[94.15047,25.00597],[94.15565,24.99661],[94.16591,24.97038],[94.16802,24.95905],[94.17159,24.9501],[94.17786,24.94636],[94.17761,24.94419],[94.17586,24.94364],[94.17392,24.94408],[94.17359,24.94211],[94.17471,24.94034],[94.17498,24.93804],[94.17374,24.93393],[94.17525,24.93118],[94.17457,24.92655],[94.17272,24.9234],[94.16717,24.9225],[94.1665,24.92094],[94.16785,24.91806],[94.1648,24.90849],[94.16708,24.90553],[94.16641,24.90274],[94.16479,24.90145],[94.16396,24.89659],[94.16478,24.89291],[94.16338,24.89109],[94.15716,24.88934],[94.15578,24.87997],[94.15177,24.88082],[94.14977,24.87976],[94.14874,24.87755],[94.1516,24.87707],[94.14942,24.86688],[94.14726,24.86639],[94.14539,24.86474],[94.14655,24.86159],[94.14985,24.85871],[94.14908,24.85333],[94.15197,24.85116],[94.15467,24.84781],[94.15461,24.84596],[94.15155,24.8446],[94.15562,24.84108],[94.15626,24.83901],[94.15401,24.83759],[94.15571,24.83485],[94.1543,24.83263],[94.15202,24.83472],[94.14891,24.83433],[94.14993,24.82424],[94.14437,24.8163],[94.14345,24.81242],[94.13931,24.81032],[94.13932,24.80982],[94.14149,24.80811],[94.14434,24.80551],[94.14878,24.80455],[94.16,24.80433],[94.1647,24.80285],[94.17091,24.78907],[94.17925,24.78182],[94.18587,24.77138],[94.18664,24.76608],[94.1824,24.76158],[94.18559,24.75753],[94.18418,24.75013],[94.17966,24.74377],[94.17857,24.74035],[94.19064,24.7256],[94.19299,24.71872],[94.19355,24.6982],[94.19296,24.68984],[94.18765,24.67659],[94.19411,24.66678],[94.20244,24.66015],[94.20462,24.64595],[94.20457,24.63885],[94.2055,24.63197],[94.17918,24.64097],[94.17641,24.64035],[94.16599,24.62883],[94.16025,24.6254],[94.15323,24.62372],[94.15226,24.62388],[94.13491,24.62662],[94.12757,24.63071],[94.12094,24.63707],[94.11697,24.64294],[94.11369,24.65459],[94.11693,24.65517],[94.11418,24.65859],[94.11147,24.66459],[94.10836,24.6668],[94.10328,24.67445],[94.10743,24.6797],[94.11161,24.6823],[94.11681,24.68452],[94.12112,24.68211],[94.1248,24.68425],[94.12339,24.68676],[94.1252,24.68818],[94.12815,24.68839],[94.13367,24.69437],[94.13288,24.69794],[94.12669,24.70025],[94.1195,24.70175],[94.12134,24.7053],[94.12598,24.70584],[94.12891,24.70264],[94.13287,24.70393],[94.13081,24.70741],[94.13271,24.71045],[94.13723,24.71231],[94.13363,24.71525],[94.13275,24.72412],[94.13125,24.72872],[94.12496,24.72203],[94.12464,24.71758],[94.12312,24.71352],[94.11976,24.70971],[94.11371,24.70557],[94.10705,24.70402],[94.09631,24.6975],[94.08899,24.69814],[94.08755,24.70062],[94.08408,24.70387],[94.07992,24.71244],[94.07177,24.71064],[94.06909,24.69999],[94.06455,24.69727],[94.06333,24.70065],[94.06318,24.70804],[94.06535,24.71119],[94.06818,24.71336],[94.06561,24.71637],[94.06852,24.71781],[94.06773,24.71918],[94.06898,24.72121],[94.06705,24.72159],[94.07082,24.72373],[94.07102,24.7261],[94.0616,24.7237],[94.0648,24.73298],[94.0682,24.73309],[94.07001,24.73427],[94.06622,24.73641],[94.06638,24.73964],[94.069,24.74159],[94.06667,24.74368],[94.0676,24.74595],[94.07182,24.74394],[94.07117,24.74727],[94.07569,24.74775],[94.07742,24.75181],[94.07645,24.75636],[94.0799,24.75762],[94.08785,24.8018],[94.08951,24.81177],[94.09351,24.82137],[94.09821,24.8282],[94.10139,24.83598],[94.0977,24.85514],[94.10184,24.85734],[94.10843,24.85721],[94.11224,24.85843],[94.11405,24.87363],[94.11595,24.88162],[94.11963,24.88686],[94.12431,24.89075],[94.12914,24.90536],[94.14105,24.91668],[94.14662,24.92376],[94.1445,24.92707],[94.14103,24.93036],[94.13987,24.93398],[94.13995,24.93888],[94.13854,24.9432],[94.13393,24.94403],[94.13084,24.94162],[94.13078,24.9276],[94.12229,24.92175],[94.12054,24.91762],[94.11478,24.9109],[94.10819,24.91044],[94.10064,24.90877],[94.09668,24.89481],[94.091,24.89051],[94.08096,24.88586],[94.07178,24.8849],[94.06665,24.88782],[94.06377,24.89244],[94.062,24.90632],[94.06992,24.94578],[94.06627,24.94624],[94.06021,24.9458],[94.05494,24.94751],[94.05575,24.94943],[94.0635,24.95318],[94.06619,24.95634],[94.06261,24.95912],[94.0509,24.96038],[94.04845,24.96259],[94.04873,24.96732],[94.05019,24.97162],[94.04977,24.97819],[94.04558,24.97669],[94.04145,24.97361],[94.03551,24.9715],[94.035,24.97454],[94.03598,24.97757],[94.04041,24.98555],[94.04805,24.98683],[94.04599,24.99233],[94.03683,24.99121],[94.03707,24.99329],[94.04228,24.99997],[94.04864,25.00057],[94.05167,25.00163],[94.04866,25.00422],[94.04899,25.00545],[94.04723,25.00606],[94.04475,25.00897],[94.04312,25.0092],[94.04147,25.00873],[94.0385,25.00754],[94.03333,25.00855],[94.03359,25.00945],[94.03356,25.0118],[94.03539,25.01561],[94.04112,25.01553],[94.04281,25.01841],[94.04426,25.01848],[94.04611,25.01647],[94.04768,25.01602],[94.0502,25.01736],[94.04498,25.02389],[94.0427,25.02428],[94.04063,25.02288],[94.03647,25.02246],[94.03379,25.0252],[94.0337,25.03152],[94.02969,25.03694],[94.02917,25.03945],[94.03249,25.04983],[94.03481,25.05284],[94.03506,25.05501],[94.025,25.05064],[94.02134,25.04649],[94.01717,25.03722],[94.01968,25.03255],[94.0226,25.02327],[94.02311,25.01932],[94.02182,25.01154],[94.02026,25.00932],[94.01793,25.00849],[94.00797,25.00814],[94.00134,25.00518],[94.01359,25.00453],[94.01944,25.00268],[94.02399,25.0023],[94.02538,24.99742],[94.02108,24.97754],[94.01965,24.95962],[94.01682,24.95588],[94.01212,24.9555],[94.00867,24.95645],[94.00151,24.96077],[93.99605,24.95579],[93.99551,24.94798],[93.98572,24.9518],[93.98036,24.95236],[93.97629,24.95451],[93.9748,24.95934],[93.97214,24.96131],[93.96815,24.96238],[93.9655,24.96058],[93.95753,24.96572],[93.9615,24.95896],[93.95742,24.95598],[93.96693,24.95447],[93.96836,24.95083],[93.98219,24.94516],[93.98238,24.94222],[93.98523,24.94087],[93.98677,24.93874],[93.98731,24.92838],[93.98878,24.92721],[93.98319,24.92178],[93.98028,24.9242],[93.97881,24.92656],[93.97856,24.93545],[93.97289,24.93705],[93.97137,24.94161],[93.9658,24.94108],[93.95596,24.94307],[93.95451,24.93719],[93.95734,24.93466],[93.96588,24.9342],[93.96445,24.92839],[93.96301,24.92726],[93.95284,24.92385],[93.94987,24.9214],[93.95122,24.91639],[93.9644,24.92118],[93.96292,24.91753],[93.94961,24.90887],[93.94958,24.90761],[93.95399,24.90762],[93.95543,24.90636],[93.94808,24.90133],[93.94372,24.90131],[93.93793,24.89881],[93.93648,24.90132],[93.9365,24.90384],[93.93511,24.90762],[93.92941,24.9089],[93.92229,24.90768],[93.91525,24.90522],[93.92096,24.91148],[93.91966,24.91653],[93.92397,24.91903],[93.92416,24.92535],[93.92709,24.92785],[93.92638,24.94419],[93.92751,24.95927],[93.93487,24.96533],[93.93796,24.97025],[93.93377,24.96792],[93.93141,24.97056],[93.91122,24.94944],[93.90877,24.93177],[93.89767,24.93814],[93.89095,24.94574],[93.89484,24.95715],[93.89961,24.96093],[93.90708,24.96344],[93.90919,24.96851],[93.91236,24.97103],[93.92123,24.97471],[93.91888,24.97731],[93.91312,24.97611],[93.91208,24.97867],[93.90793,24.97996],[93.91493,24.98882],[93.91626,25.00525],[93.92737,25.01413],[93.93575,25.0195],[93.9593,25.03175],[93.96593,25.03767],[93.98591,25.06015],[93.98911,25.06922],[93.98769,25.0749],[93.98371,25.07816],[93.9767,25.08007],[93.96591,25.07709],[93.92298,25.0603],[93.92229,25.05647],[93.9193,25.04972],[93.9175,25.04747],[93.91206,25.04529],[93.90218,25.03589],[93.89445,25.02288],[93.89317,25.01448],[93.88956,25.00526],[93.87365,24.97998],[93.86729,24.96089],[93.84919,24.95572],[93.84594,24.9481],[93.84554,24.93421],[93.83677,24.92661],[93.83379,24.91023],[93.82949,24.89511],[93.82377,24.89132],[93.81949,24.87622],[93.81232,24.87368],[93.80948,24.86865],[93.81381,24.8611],[93.81094,24.85857],[93.81241,24.84976],[93.81243,24.84095],[93.7952,24.82835],[93.78947,24.82331],[93.78948,24.81324],[93.78518,24.80947],[93.78806,24.79688],[93.79093,24.78932],[93.79523,24.78304],[93.79666,24.77925],[93.79234,24.77422],[93.7952,24.77044],[93.78368,24.75156],[93.78223,24.74401],[93.77518,24.74195],[93.77517,24.73942],[93.77803,24.73566],[93.77371,24.73063],[93.77365,24.71053],[93.77075,24.70299],[93.77074,24.6967],[93.76642,24.68917],[93.7607,24.68917],[93.75783,24.69043],[93.75351,24.68666],[93.75059,24.66781],[93.75201,24.66405],[93.75344,24.65274],[93.74187,24.62636],[93.74044,24.6251],[93.72604,24.5962],[93.7232,24.60374],[93.71891,24.60877],[93.70175,24.61626],[93.70122,24.62491],[93.69566,24.66354],[93.68846,24.71158],[93.66631,24.79726],[93.67484,24.80237],[93.6777,24.80363],[93.68058,24.80362],[93.68343,24.80739],[93.68917,24.8099],[93.69061,24.81366],[93.69345,24.81492],[93.69631,24.81869],[93.70348,24.81867],[93.70634,24.82495],[93.7092,24.8237],[93.7178,24.82495],[93.72495,24.82997],[93.72495,24.83373],[93.72205,24.83875],[93.72918,24.85256],[93.73774,24.85883],[93.73196,24.86763],[93.73186,24.87641],[93.72462,24.88144],[93.72167,24.88647],[93.71584,24.89024],[93.71432,24.89401],[93.71142,24.89652],[93.7113,24.90154],[93.70682,24.91537],[93.71254,24.92291],[93.72124,24.93044],[93.72713,24.93798],[93.73591,24.94175],[93.74907,24.94553],[93.77139,24.95815],[93.77456,24.96196],[93.78192,24.96196],[93.78811,24.96577],[93.79546,24.96705],[93.80205,24.97469],[93.80303,24.98237],[93.80241,24.98876],[93.79721,24.99261],[93.80174,24.99641],[93.79629,25.00274],[93.7963,25.00527],[93.79472,25.0116],[93.79673,25.01686],[93.80089,25.0211],[93.80567,25.02274],[93.81196,25.02257],[93.81802,25.0205],[93.82084,25.02155],[93.82215,25.02819],[93.82137,25.03295],[93.81924,25.0388],[93.81528,25.04596],[93.81525,25.0497],[93.81196,25.05508],[93.80814,25.05884],[93.8052,25.0652],[93.80161,25.08157],[93.80228,25.08509],[93.80029,25.08748],[93.80059,25.09094],[93.80087,25.10337],[93.79924,25.11066],[93.79698,25.11697],[93.79469,25.12068],[93.79099,25.12544],[93.78492,25.13004],[93.78185,25.14491],[93.77847,25.15449],[93.77986,25.1576],[93.78342,25.15961],[93.78436,25.16266],[93.79265,25.17068],[93.7961,25.17088],[93.79916,25.17412],[93.79752,25.17681],[93.79824,25.17953],[93.80127,25.17997],[93.80262,25.18946],[93.80666,25.18921],[93.81463,25.19976],[93.81921,25.20399],[93.81972,25.21119],[93.82508,25.21837],[93.83136,25.22556],[93.83702,25.22775],[93.84249,25.22807],[93.84682,25.22944],[93.85077,25.23182],[93.85632,25.23304],[93.86967,25.24828],[93.8817,25.25718],[93.88878,25.2615],[93.88864,25.26391],[93.89472,25.26703],[93.89621,25.26932],[93.90022,25.27264],[93.90637,25.27603],[93.9271,25.27603],[93.93188,25.27739],[93.94337,25.28317],[93.95647,25.29128],[93.95948,25.29452],[93.95078,25.29492],[93.94833,25.29696],[93.94168,25.30647],[93.93765,25.31661],[93.93189,25.31864],[93.92828,25.32281],[93.92483,25.32935],[93.92184,25.33311],[93.90973,25.33451],[93.90682,25.3361],[93.90005,25.33731],[93.89685,25.33982],[93.89048,25.33878],[93.89052,25.34189],[93.89391,25.34388],[93.89444,25.34963],[93.89295,25.35388],[93.89413,25.35544],[93.90323,25.36179],[93.90468,25.37037],[93.90845,25.37328],[93.90965,25.38145],[93.91759,25.38975],[93.92389,25.39084],[93.92374,25.39389],[93.92464,25.3946],[93.92296,25.40143],[93.91749,25.40886],[93.91367,25.41199],[93.9086,25.41449],[93.90357,25.42117],[93.89333,25.42627],[93.88998,25.42745],[93.88116,25.42576],[93.87284,25.42604],[93.86619,25.42879],[93.85432,25.43077],[93.84326,25.43177],[93.83394,25.43146],[93.83284,25.44106],[93.82739,25.45194],[93.82575,25.45947],[93.82294,25.46508],[93.81759,25.46314],[93.81241,25.46355],[93.809,25.46559],[93.81389,25.48473],[93.80761,25.49556],[93.80405,25.49903],[93.79725,25.50438],[93.78847,25.50649],[93.77339,25.49784],[93.76935,25.49677],[93.76579,25.4999],[93.76429,25.51548],[93.76932,25.51771],[93.76818,25.52529],[93.76895,25.53071],[93.77097,25.53602],[93.77064,25.54028],[93.77182,25.54081],[93.77949,25.53805],[93.80785,25.54452],[93.81594,25.54545],[93.81972,25.54439],[93.82335,25.54816],[93.82504,25.556],[93.83326,25.55642],[93.83347,25.56137],[93.83649,25.56306],[93.84421,25.56169],[93.85232,25.55865],[93.86224,25.55753],[93.87837,25.56198],[93.89196,25.56842],[93.90024,25.56873],[93.90485,25.56743],[93.9109,25.56753],[93.91709,25.56672],[93.91933,25.56403],[93.93012,25.56539],[93.94352,25.56343],[93.95739,25.55675],[93.96522,25.55658],[93.97265,25.56118],[93.97785,25.56616],[93.98047,25.57125],[94.00061,25.57388],[94.00745,25.56985],[94.01042,25.57131],[94.0116,25.57275],[94.01228,25.5753],[94.01176,25.57909],[94.00783,25.58753],[94.00765,25.59094],[94.0104,25.5954],[94.01473,25.59613],[94.02551,25.59339],[94.02727,25.58799],[94.03341,25.5847],[94.0349,25.58149],[94.03792,25.58193],[94.03916,25.58303],[94.03901,25.57986],[94.04362,25.57748],[94.046,25.58095],[94.05412,25.57676],[94.0647,25.56637],[94.06942,25.55898],[94.08004,25.5616],[94.08595,25.55973],[94.09496,25.54644],[94.0962,25.54172],[94.09252,25.53797],[94.09211,25.53273],[94.10608,25.5289],[94.12851,25.52588],[94.13873,25.5237],[94.14523,25.52764],[94.1482,25.53169],[94.15184,25.54185],[94.15288,25.54784],[94.16011,25.55525],[94.16353,25.54992],[94.16791,25.54701],[94.17954,25.55019],[94.18277,25.55325],[94.19185,25.55095],[94.19487,25.55243],[94.19391,25.5422],[94.19014,25.53463],[94.19073,25.53078],[94.19925,25.52277],[94.20689,25.51395],[94.2069,25.51164],[94.21293,25.50817],[94.21281,25.50282],[94.21485,25.50024],[94.21986,25.49963],[94.22298,25.49677],[94.22914,25.49601],[94.23174,25.49831],[94.25206,25.49907],[94.25726,25.50342],[94.26694,25.50244],[94.27415,25.50299],[94.27987,25.50545],[94.28674,25.5117],[94.29074,25.50952],[94.299,25.50071],[94.30264,25.49463],[94.30898,25.4938],[94.31354,25.49447],[94.32069,25.49928],[94.32901,25.50835],[94.36467,25.52149],[94.38854,25.53657],[94.40449,25.5409],[94.4109,25.54352],[94.41681,25.54194],[94.42027,25.54265],[94.42559,25.55292],[94.42639,25.56145],[94.4251,25.573],[94.42238,25.57599],[94.42566,25.58147],[94.43002,25.59272],[94.43774,25.59586],[94.44428,25.59601],[94.44782,25.59804],[94.44927,25.60109],[94.47404,25.62164],[94.49118,25.6198],[94.49111,25.61865],[94.49342,25.61433],[94.49416,25.61297],[94.48771,25.602],[94.47719,25.59402],[94.47137,25.5884],[94.46795,25.57654],[94.46519,25.56046],[94.45041,25.54227]]]}},{"type":"Feature","properties":{"ID_0":105,"ISO":"IND","NAME_0":"India","ID_1":22,"NAME_1":"Manipur","ID_2":345,"NAME_2":"Tamenglong","NL_NAME_2":null,"VARNAME_2":"Manipur West","TYPE_2":"District","ENGTYPE_2":"District","STATE":"Manipur","DISTRICT":"Tamenglong"},"geometry":{"type":"Polygon","coordinates":[[[93.81241,25.46355],[93.81759,25.46314],[93.82294,25.46508],[93.82575,25.45947],[93.82739,25.45194],[93.83284,25.44106],[93.83394,25.43146],[93.84326,25.43177],[93.85432,25.43077],[93.86619,25.42879],[93.87284,25.42604],[93.88116,25.42576],[93.88998,25.42745],[93.89333,25.42627],[93.90357,25.42117],[93.9086,25.41449],[93.91367,25.41199],[93.91749,25.40886],[93.92296,25.40143],[93.92464,25.3946],[93.92374,25.39389],[93.92389,25.39084],[93.91759,25.38975],[93.90965,25.38145],[93.90845,25.37328],[93.90468,25.37037],[93.90323,25.36179],[93.89413,25.35544],[93.89295,25.35388],[93.89444,25.34963],[93.89391,25.34388],[93.89052,25.34189],[93.89048,25.33878],[93.89685,25.33982],[93.90005,25.33731],[93.90682,25.3361],[93.90973,25.33451],[93.92184,25.33311],[93.92483,25.32935],[93.92828,25.32281],[93.93189,25.31864],[93.93765,25.31661],[93.94168,25.30647],[93.94833,25.29696],[93.95078,25.29492],[93.95948,25.29452],[93.95647,25.29128],[93.94337,25.28317],[93.93188,25.27739],[93.9271,25.27603],[93.90637,25.27603],[93.90022,25.27264],[93.89621,25.26932],[93.89472,25.26703],[93.88864,25.26391],[93.88878,25.2615],[93.8817,25.25718],[93.86967,25.24828],[93.85632,25.23304],[93.85077,25.23182],[93.84682,25.22944],[93.84249,25.22807],[93.83702,25.22775],[93.83136,25.22556],[93.82508,25.21837],[93.81972,25.21119],[93.81921,25.20399],[93.81463,25.19976],[93.80666,25.18921],[93.80262,25.18946],[93.80127,25.17997],[93.79824,25.17953],[93.79752,25.17681],[93.79916,25.17412],[93.7961,25.17088],[93.79265,25.17068],[93.78436,25.16266],[93.78342,25.15961],[93.77986,25.1576],[93.77847,25.15449],[93.78185,25.14491],[93.78492,25.13004],[93.79099,25.12544],[93.79469,25.12068],[93.79698,25.11697],[93.79924,25.11066],[93.80087,25.10337],[93.80059,25.09094],[93.80029,25.08748],[93.80228,25.08509],[93.80161,25.08157],[93.8052,25.0652],[93.80814,25.05884],[93.81196,25.05508],[93.81525,25.0497],[93.81528,25.04596],[93.81924,25.0388],[93.82137,25.03295],[93.82215,25.02819],[93.82084,25.02155],[93.81802,25.0205],[93.81196,25.02257],[93.80567,25.02274],[93.80089,25.0211],[93.79673,25.01686],[93.79472,25.0116],[93.7963,25.00527],[93.79629,25.00274],[93.80174,24.99641],[93.79721,24.99261],[93.80241,24.98876],[93.80303,24.98237],[93.80205,24.97469],[93.79546,24.96705],[93.78811,24.96577],[93.78192,24.96196],[93.77456,24.96196],[93.77139,24.95815],[93.74907,24.94553],[93.73591,24.94175],[93.72713,24.93798],[93.72124,24.93044],[93.71254,24.92291],[93.70682,24.91537],[93.7113,24.90154],[93.71142,24.89652],[93.71432,24.89401],[93.71584,24.89024],[93.72167,24.88647],[93.72462,24.88144],[93.73186,24.87641],[93.73196,24.86763],[93.73774,24.85883],[93.72918,24.85256],[93.72205,24.83875],[93.72495,24.83373],[93.72495,24.82997],[93.7178,24.82495],[93.7092,24.8237],[93.70634,24.82495],[93.70348,24.81867],[93.69631,24.81869],[93.69345,24.81492],[93.69061,24.81366],[93.68917,24.8099],[93.68343,24.80739],[93.68058,24.80362],[93.6777,24.80363],[93.67484,24.80237],[93.66631,24.79726],[93.68846,24.71158],[93.69566,24.66354],[93.70122,24.62491],[93.70175,24.61626],[93.69028,24.6138],[93.68167,24.60877],[93.66879,24.61129],[93.66306,24.61129],[93.65588,24.60626],[93.65443,24.59872],[93.65156,24.59495],[93.63583,24.60877],[93.62724,24.60751],[93.62437,24.605],[93.61718,24.58614],[93.61287,24.57986],[93.60854,24.57484],[93.59995,24.57357],[93.5971,24.5698],[93.59138,24.5723],[93.58852,24.57858],[93.58422,24.58361],[93.57706,24.58863],[93.57278,24.59491],[93.56133,24.58863],[93.55988,24.58484],[93.55128,24.58484],[93.54842,24.58108],[93.54413,24.58232],[93.54124,24.57479],[93.53839,24.57227],[93.53838,24.56096],[93.53409,24.55969],[93.51404,24.56848],[93.50974,24.56344],[93.50258,24.55841],[93.49973,24.55965],[93.49399,24.55463],[93.4854,24.5697],[93.47968,24.57346],[93.47252,24.57345],[93.46678,24.57092],[93.45532,24.54831],[93.4496,24.542],[93.43098,24.55831],[93.41381,24.56329],[93.40808,24.56707],[93.40378,24.57208],[93.40235,24.57585],[93.39663,24.57835],[93.39089,24.56829],[93.35652,24.57702],[93.34935,24.57826],[93.34221,24.57573],[93.33793,24.56944],[93.3279,24.56941],[93.3193,24.56813],[93.30928,24.5656],[93.28924,24.56932],[93.28209,24.5668],[93.28638,24.56303],[93.27779,24.55045],[93.27206,24.54791],[93.27493,24.54416],[93.26923,24.53911],[93.26207,24.52652],[93.27067,24.52403],[93.2678,24.52025],[93.26781,24.51271],[93.26209,24.51144],[93.25494,24.51142],[93.24777,24.51643],[93.23633,24.51388],[93.23061,24.50507],[93.22346,24.49751],[93.21487,24.50125],[93.2077,24.51631],[93.19911,24.51754],[93.1948,24.52381],[93.18621,24.52504],[93.1848,24.51624],[93.17906,24.51873],[93.17477,24.51872],[93.17617,24.52375],[93.17332,24.53128],[93.17903,24.53507],[93.18187,24.54387],[93.18472,24.54891],[93.19189,24.55396],[93.19617,24.55901],[93.19903,24.56279],[93.19901,24.5653],[93.19759,24.5678],[93.19472,24.57031],[93.19757,24.57409],[93.2033,24.57159],[93.20617,24.56909],[93.20903,24.5691],[93.21192,24.57036],[93.20903,24.57412],[93.20618,24.57537],[93.20901,24.57789],[93.20471,24.58039],[93.20327,24.59171],[93.20472,24.59045],[93.21329,24.5867],[93.21618,24.58797],[93.21758,24.59049],[93.22043,24.60306],[93.21757,24.60934],[93.21757,24.61436],[93.21898,24.6194],[93.2118,24.62566],[93.21324,24.62943],[93.22183,24.62946],[93.22469,24.63576],[93.22468,24.64078],[93.2218,24.64454],[93.21607,24.6483],[93.21606,24.65458],[93.21173,24.6621],[93.21175,24.66588],[93.21461,24.6684],[93.21891,24.6659],[93.22177,24.66716],[93.22175,24.67471],[93.20743,24.67089],[93.21026,24.6885],[93.21742,24.69731],[93.21886,24.70109],[93.21743,24.69983],[93.20882,24.70231],[93.20738,24.70357],[93.20737,24.70608],[93.19305,24.70855],[93.18156,24.70851],[93.16579,24.71223],[93.16131,24.71222],[93.14859,24.71217],[93.14571,24.71468],[93.14858,24.72098],[93.15,24.72852],[93.15855,24.74614],[93.17285,24.76504],[93.17999,24.78643],[93.19001,24.78772],[93.19002,24.7852],[93.19291,24.78145],[93.19578,24.78019],[93.20008,24.78021],[93.20579,24.78275],[93.20868,24.78651],[93.21727,24.79408],[93.22157,24.79535],[93.22443,24.79788],[93.22443,24.80291],[93.22585,24.80919],[93.23299,24.82555],[93.24302,24.84442],[93.24586,24.85449],[93.24444,24.857],[93.23869,24.85698],[93.23294,24.85822],[93.22721,24.86072],[93.21429,24.86195],[93.21619,24.86469],[93.21906,24.86972],[93.22195,24.87099],[93.22481,24.87478],[93.22909,24.8773],[93.22622,24.88107],[93.22909,24.88484],[93.23339,24.88485],[93.23483,24.88989],[93.23049,24.8949],[93.23338,24.89491],[93.23338,24.89869],[93.23622,24.90245],[93.24195,24.90122],[93.24338,24.90374],[93.24336,24.9075],[93.24189,24.91127],[93.23899,24.91503],[93.24043,24.91628],[93.24186,24.91504],[93.25046,24.91506],[93.25326,24.91883],[93.2502,24.93008],[93.24451,24.93008],[93.24305,24.93133],[93.2472,24.93634],[93.2485,24.9401],[93.24708,24.9401],[93.24144,24.93759],[93.24004,24.93758],[93.23998,24.93884],[93.24132,24.94134],[93.24408,24.94384],[93.24693,24.94385],[93.24984,24.9426],[93.25412,24.94262],[93.25111,24.94635],[93.25092,24.9501],[93.24939,24.95259],[93.24924,24.95508],[93.25354,24.95509],[93.25951,24.95136],[93.26241,24.95137],[93.26083,24.95387],[93.26059,24.95887],[93.26333,24.96388],[93.26324,24.96638],[93.25871,24.97265],[93.25291,24.97263],[93.25288,24.97515],[93.25433,24.97892],[93.25153,24.98142],[93.25302,24.98266],[93.25326,24.98637],[93.25202,24.98881],[93.25526,24.9924],[93.25696,24.99602],[93.25706,24.99847],[93.25562,24.99971],[93.25568,25.0022],[93.25711,25.00094],[93.26144,25.00092],[93.26332,25.00424],[93.26245,25.00603],[93.2599,25.00645],[93.258,25.00421],[93.25768,25.0035],[93.2571,25.00319],[93.25646,25.00311],[93.25581,25.00326],[93.25533,25.00364],[93.25521,25.00421],[93.25348,25.00637],[93.25182,25.00418],[93.25121,25.00348],[93.25064,25.00316],[93.25,25.00295],[93.24936,25.00287],[93.24869,25.0029],[93.24808,25.00303],[93.24747,25.00328],[93.24695,25.00363],[93.2467,25.00417],[93.24916,25.01316],[93.25172,25.01602],[93.24884,25.0188],[93.25383,25.02135],[93.25779,25.02174],[93.25837,25.0252],[93.25561,25.02868],[93.25985,25.03207],[93.26381,25.03592],[93.26392,25.03891],[93.26292,25.04184],[93.26836,25.04409],[93.26946,25.04659],[93.2678,25.04881],[93.26818,25.04968],[93.28449,25.05155],[93.28687,25.0468],[93.29189,25.04709],[93.29698,25.04767],[93.29934,25.05046],[93.30009,25.0526],[93.30241,25.05194],[93.30246,25.04819],[93.3046,25.04799],[93.30425,25.05603],[93.30893,25.05852],[93.30608,25.06442],[93.30879,25.07059],[93.31079,25.07263],[93.31272,25.07796],[93.32234,25.08838],[93.32363,25.09167],[93.32951,25.0945],[93.33578,25.09584],[93.33917,25.10641],[93.34046,25.11442],[93.34435,25.11615],[93.34436,25.12133],[93.34644,25.12509],[93.34921,25.12541],[93.34705,25.12746],[93.34608,25.12987],[93.3489,25.13479],[93.34686,25.1377],[93.35101,25.14454],[93.34856,25.15349],[93.34884,25.15717],[93.34736,25.16389],[93.34915,25.16673],[93.35307,25.1818],[93.36082,25.19196],[93.36222,25.19561],[93.36854,25.20005],[93.37057,25.20359],[93.36958,25.20806],[93.37809,25.2161],[93.3795,25.22079],[93.38199,25.22387],[93.3848,25.22573],[93.38551,25.22856],[93.38763,25.23204],[93.3871,25.24239],[93.38872,25.24592],[93.39459,25.2503],[93.40357,25.26307],[93.40634,25.26408],[93.41206,25.26345],[93.42071,25.26626],[93.42331,25.27216],[93.42332,25.27791],[93.42643,25.28106],[93.43864,25.28655],[93.44482,25.29231],[93.45197,25.29475],[93.45997,25.29473],[93.46559,25.29905],[93.47402,25.30928],[93.47514,25.29968],[93.47463,25.29242],[93.47259,25.28544],[93.47675,25.27904],[93.48338,25.27664],[93.48754,25.27593],[93.4949,25.27872],[93.50438,25.27577],[93.51079,25.27561],[93.50417,25.25338],[93.50514,25.24413],[93.50843,25.24371],[93.51643,25.24477],[93.52061,25.24878],[93.52936,25.24836],[93.54121,25.24538],[93.54717,25.24849],[93.55471,25.25053],[93.56313,25.24659],[93.5701,25.23561],[93.57076,25.23245],[93.57485,25.22755],[93.5782,25.22569],[93.58165,25.22601],[93.58585,25.22231],[93.58806,25.22217],[93.59029,25.21995],[93.59198,25.21391],[93.59484,25.21113],[93.59286,25.20667],[93.59303,25.20391],[93.5971,25.2043],[93.60104,25.20239],[93.60429,25.20432],[93.60802,25.20205],[93.61258,25.20619],[93.62115,25.22491],[93.62891,25.23575],[93.63187,25.24292],[93.63809,25.2504],[93.64312,25.26001],[93.64355,25.26588],[93.64991,25.26912],[93.65137,25.27366],[93.65162,25.27902],[93.66561,25.29843],[93.66475,25.30424],[93.66609,25.30828],[93.67294,25.31151],[93.67396,25.31728],[93.67207,25.32871],[93.68392,25.32963],[93.68713,25.33121],[93.69145,25.34742],[93.69278,25.36159],[93.69998,25.35942],[93.71159,25.35809],[93.71804,25.3616],[93.71898,25.37036],[93.72311,25.37558],[93.731,25.38037],[93.73979,25.38442],[93.74132,25.38944],[93.74007,25.39518],[93.74199,25.39992],[93.74667,25.40571],[93.76034,25.41412],[93.76442,25.41813],[93.78107,25.42471],[93.78053,25.4295],[93.78448,25.43194],[93.78811,25.43588],[93.79021,25.44338],[93.79375,25.44866],[93.79836,25.45393],[93.80243,25.46041],[93.80523,25.46342],[93.809,25.46559],[93.81241,25.46355]]]}},{"type":"Feature","properties":{"ID_0":105,"ISO":"IND","NAME_0":"India","ID_1":22,"NAME_1":"Manipur","ID_2":346,"NAME_2":"Thoubal","NL_NAME_2":null,"VARNAME_2":null,"TYPE_2":"District","ENGTYPE_2":"District","STATE":"Manipur","DISTRICT":"Thoubal"},"geometry":{"type":"Polygon","coordinates":[[[94.00943,24.71382],[94.01593,24.70954],[94.01944,24.70568],[94.01939,24.70043],[94.01188,24.69136],[94.01736,24.68735],[94.01959,24.67585],[94.02165,24.67209],[94.02511,24.67202],[94.02699,24.67776],[94.03121,24.6768],[94.03522,24.67779],[94.0344,24.68268],[94.03651,24.68046],[94.03725,24.67787],[94.04373,24.68167],[94.04324,24.67734],[94.04897,24.67949],[94.04846,24.68591],[94.06049,24.68489],[94.06176,24.68923],[94.06344,24.69093],[94.07758,24.69006],[94.07749,24.693],[94.08121,24.69276],[94.08278,24.69157],[94.08365,24.69419],[94.08762,24.69258],[94.08899,24.69814],[94.09631,24.6975],[94.10705,24.70402],[94.11371,24.70557],[94.11976,24.70971],[94.12312,24.71352],[94.12464,24.71758],[94.12496,24.72203],[94.13125,24.72872],[94.13275,24.72412],[94.13363,24.71525],[94.13723,24.71231],[94.13271,24.71045],[94.13081,24.70741],[94.13287,24.70393],[94.12891,24.70264],[94.12598,24.70584],[94.12134,24.7053],[94.1195,24.70175],[94.12669,24.70025],[94.13288,24.69794],[94.13367,24.69437],[94.12815,24.68839],[94.1252,24.68818],[94.12339,24.68676],[94.1248,24.68425],[94.12112,24.68211],[94.11681,24.68452],[94.11161,24.6823],[94.10743,24.6797],[94.10328,24.67445],[94.10836,24.6668],[94.11147,24.66459],[94.11418,24.65859],[94.11693,24.65517],[94.11369,24.65459],[94.11697,24.64294],[94.12094,24.63707],[94.12757,24.63071],[94.13491,24.62662],[94.15226,24.62388],[94.15396,24.61677],[94.1535,24.60892],[94.14867,24.60688],[94.14376,24.6067],[94.1376,24.6078],[94.13186,24.60984],[94.12547,24.61078],[94.12225,24.6079],[94.1235,24.60365],[94.12132,24.59652],[94.11083,24.58205],[94.10431,24.56498],[94.09955,24.55903],[94.0941,24.55745],[94.08335,24.56748],[94.07609,24.56863],[94.07433,24.55985],[94.07764,24.5463],[94.0914,24.52316],[94.08627,24.52089],[94.07481,24.52211],[94.06929,24.52135],[94.06734,24.52685],[94.06456,24.52243],[94.05997,24.51786],[94.05646,24.52237],[94.05589,24.52767],[94.05737,24.52995],[94.06111,24.533],[94.06082,24.53571],[94.05612,24.53375],[94.05079,24.5387],[94.0428,24.54328],[94.04299,24.52839],[94.03835,24.50737],[94.03871,24.50658],[94.05299,24.47528],[94.04042,24.4603],[94.02424,24.44925],[94.0146,24.44695],[94.00727,24.44631],[94.00514,24.45112],[94.0053,24.46538],[94.00192,24.4685],[93.98758,24.47304],[93.9861,24.4874],[93.9818,24.49254],[93.97892,24.49241],[93.97462,24.49106],[93.97316,24.48983],[93.97312,24.47615],[93.97455,24.46814],[93.97884,24.45881],[93.98023,24.45218],[93.9757,24.43472],[93.96841,24.42353],[93.96977,24.4144],[93.96832,24.41178],[93.96545,24.41045],[93.95972,24.41294],[93.95401,24.41286],[93.9497,24.409],[93.94822,24.40518],[93.94965,24.40139],[93.94962,24.39759],[93.93961,24.39883],[93.931,24.39127],[93.92809,24.37997],[93.92089,24.37371],[93.91798,24.36119],[93.91511,24.35494],[93.91363,24.34245],[93.91788,24.3337],[93.92644,24.32618],[93.93496,24.31368],[93.94207,24.29996],[93.94207,24.29501],[93.93924,24.29381],[93.93642,24.28892],[93.92935,24.28409],[93.92364,24.28535],[93.92222,24.28291],[93.92513,24.27553],[93.92368,24.26682],[93.91939,24.2643],[93.91366,24.26675],[93.91351,24.25405],[93.90052,24.25132],[93.89471,24.24365],[93.88752,24.24108],[93.88613,24.24614],[93.88497,24.27032],[93.88944,24.2831],[93.88805,24.28819],[93.88237,24.29075],[93.87228,24.30798],[93.87223,24.31288],[93.86792,24.31531],[93.85931,24.31524],[93.85643,24.31645],[93.85931,24.32267],[93.85787,24.33137],[93.86359,24.32889],[93.86359,24.33511],[93.86646,24.33885],[93.85648,24.34635],[93.86079,24.35259],[93.86509,24.35633],[93.86225,24.3601],[93.85936,24.3576],[93.85365,24.35511],[93.85365,24.36012],[93.85653,24.36262],[93.85655,24.36638],[93.85227,24.36765],[93.8509,24.3802],[93.85375,24.38269],[93.85375,24.38394],[93.85093,24.38772],[93.85098,24.40026],[93.84957,24.40403],[93.84532,24.40781],[93.8439,24.41284],[93.84533,24.41535],[93.85105,24.41657],[93.84252,24.42791],[93.84256,24.43293],[93.84829,24.43794],[93.85258,24.43792],[93.85546,24.4442],[93.85834,24.44669],[93.85838,24.45423],[93.86124,24.45674],[93.86124,24.45925],[93.85842,24.46177],[93.86272,24.46427],[93.867,24.46552],[93.87563,24.47429],[93.87709,24.47933],[93.88143,24.48689],[93.8843,24.4894],[93.88576,24.4932],[93.88435,24.497],[93.87724,24.50334],[93.88156,24.50588],[93.88303,24.51097],[93.87875,24.51226],[93.87885,24.52251],[93.87599,24.5238],[93.87313,24.52251],[93.87171,24.52507],[93.87187,24.53075],[93.87189,24.54312],[93.87769,24.55714],[93.89201,24.55829],[93.89775,24.55959],[93.9035,24.56213],[93.90924,24.5671],[93.91354,24.57447],[93.91499,24.58429],[93.90927,24.59541],[93.91356,24.59538],[93.91359,24.60405],[93.91505,24.61152],[93.91362,24.61529],[93.90934,24.61654],[93.90216,24.61157],[93.89359,24.6191],[93.90219,24.62283],[93.90227,24.63288],[93.90659,24.63663],[93.91234,24.6404],[93.92239,24.64163],[93.92963,24.65677],[93.93393,24.65551],[93.93677,24.65044],[93.93687,24.66689],[93.92972,24.66563],[93.92828,24.6669],[93.91824,24.66817],[93.91683,24.67071],[93.91971,24.67451],[93.91974,24.67705],[93.91115,24.67703],[93.90685,24.67956],[93.9083,24.6821],[93.91117,24.68464],[93.90835,24.69224],[93.90979,24.69605],[93.90982,24.69986],[93.90842,24.70492],[93.91415,24.7037],[93.91991,24.70883],[93.92847,24.70766],[93.92851,24.71273],[93.93138,24.71782],[93.93995,24.71787],[93.94429,24.72038],[93.94575,24.72288],[93.94859,24.71659],[93.94856,24.71405],[93.96142,24.7126],[93.96989,24.70984],[93.97128,24.71609],[93.97543,24.71719],[93.97398,24.72471],[93.97533,24.72839],[93.98351,24.73055],[93.99744,24.73275],[94.00172,24.73273],[94.00601,24.7295],[94.00576,24.71923],[94.00943,24.71382]]]}},{"type":"Feature","properties":{"ID_0":105,"ISO":"IND","NAME_0":"India","ID_1":22,"NAME_1":"Manipur","ID_2":347,"NAME_2":"Ukhrul","NL_NAME_2":null,"VARNAME_2":"Manipur East, Ukhurul","TYPE_2":"District","ENGTYPE_2":"District","STATE":"Manipur","DISTRICT":"Ukhrul"},"geometry":{"type":"Polygon","coordinates":[[[94.57723,25.64833],[94.57609,25.6447],[94.58694,25.64659],[94.5952,25.64385],[94.59455,25.64265],[94.59051,25.64027],[94.58377,25.63449],[94.57851,25.62625],[94.57692,25.62037],[94.57282,25.61131],[94.56863,25.60779],[94.56691,25.6041],[94.56515,25.6026],[94.55957,25.59411],[94.55574,25.58581],[94.56154,25.57833],[94.56041,25.56799],[94.56466,25.56794],[94.56138,25.56051],[94.5629,25.54951],[94.55987,25.54571],[94.56348,25.53967],[94.55827,25.53488],[94.56126,25.53069],[94.559,25.52434],[94.55742,25.51277],[94.56818,25.50659],[94.57459,25.50523],[94.58501,25.49687],[94.5872,25.49245],[94.59084,25.48975],[94.59489,25.48815],[94.59737,25.48626],[94.60748,25.48244],[94.62534,25.46909],[94.63297,25.46566],[94.64823,25.46162],[94.65646,25.4586],[94.65874,25.45705],[94.66598,25.4554],[94.66976,25.45536],[94.68243,25.45973],[94.6823,25.45659],[94.68205,25.4505],[94.67966,25.4424],[94.67912,25.43293],[94.67812,25.42653],[94.67625,25.42059],[94.67383,25.4162],[94.67095,25.41253],[94.6588,25.40952],[94.65627,25.40889],[94.64919,25.40635],[94.64442,25.40161],[94.64384,25.40029],[94.64177,25.39902],[94.63824,25.39351],[94.63496,25.39235],[94.63118,25.38729],[94.62742,25.37467],[94.62761,25.36207],[94.62771,25.3554],[94.62212,25.33676],[94.62162,25.33606],[94.61898,25.33193],[94.6152,25.3252],[94.61316,25.32196],[94.60957,25.31352],[94.60689,25.30832],[94.60192,25.2987],[94.59868,25.28907],[94.59888,25.28113],[94.59809,25.27464],[94.59926,25.26687],[94.59717,25.25696],[94.59354,25.24617],[94.59193,25.23743],[94.58873,25.22988],[94.58659,25.22503],[94.58536,25.21575],[94.59209,25.20548],[94.59759,25.20001],[94.60168,25.19519],[94.60887,25.19105],[94.61313,25.18948],[94.61739,25.1898],[94.62268,25.19128],[94.63092,25.19038],[94.63386,25.1872],[94.63814,25.18156],[94.64355,25.17654],[94.64778,25.17441],[94.65768,25.17242],[94.66696,25.16818],[94.67744,25.165],[94.68116,25.16127],[94.68719,25.15787],[94.69363,25.15952],[94.69864,25.16063],[94.70348,25.15978],[94.70817,25.15385],[94.71358,25.14991],[94.72888,25.14371],[94.73582,25.14283],[94.74194,25.13942],[94.74566,25.13659],[94.74522,25.12684],[94.74569,25.11871],[94.74529,25.11123],[94.7454,25.1069],[94.74554,25.10166],[94.74815,25.0899],[94.74978,25.07995],[94.75101,25.07543],[94.75063,25.07064],[94.75072,25.06352],[94.74924,25.05794],[94.74772,25.04928],[94.74568,25.04443],[94.74501,25.03948],[94.74298,25.03011],[94.74221,25.02525],[94.73946,25.02049],[94.73519,25.01269],[94.73447,25.01179],[94.7261,25.00132],[94.71319,24.99369],[94.7058,24.98357],[94.70314,24.97827],[94.70303,24.97737],[94.7019,24.96844],[94.70381,24.96355],[94.70573,24.95964],[94.70914,24.95582],[94.71358,24.95298],[94.71715,24.94645],[94.71907,24.94247],[94.71468,24.93953],[94.70586,24.93428],[94.70151,24.92756],[94.70097,24.92632],[94.69379,24.90971],[94.69301,24.90789],[94.69209,24.89986],[94.68894,24.89502],[94.68601,24.89244],[94.67971,24.8869],[94.67201,24.88219],[94.66163,24.87742],[94.65684,24.8736],[94.65792,24.86717],[94.65609,24.86285],[94.65446,24.86124],[94.64816,24.85507],[94.64122,24.84874],[94.63968,24.84582],[94.63785,24.84236],[94.63479,24.82931],[94.63541,24.82306],[94.63536,24.82249],[94.63479,24.81476],[94.63245,24.81092],[94.62733,24.80429],[94.62483,24.79581],[94.62531,24.78603],[94.62537,24.7848],[94.62962,24.77727],[94.63302,24.77281],[94.63331,24.76496],[94.62505,24.75402],[94.62408,24.75285],[94.62122,24.74936],[94.61768,24.74407],[94.61239,24.73356],[94.61219,24.7328],[94.61134,24.7296],[94.61085,24.72211],[94.60722,24.71995],[94.59937,24.71527],[94.59099,24.71093],[94.58451,24.71486],[94.5865,24.72234],[94.5858,24.73003],[94.58166,24.73134],[94.57761,24.73019],[94.57456,24.72562],[94.57344,24.72202],[94.57537,24.71857],[94.57556,24.71751],[94.57656,24.71206],[94.57062,24.71157],[94.56739,24.71395],[94.56248,24.71833],[94.55666,24.71919],[94.55099,24.71654],[94.54662,24.70746],[94.54939,24.70218],[94.55077,24.69957],[94.55294,24.69278],[94.55074,24.67492],[94.54715,24.66646],[94.5406,24.64901],[94.53772,24.64376],[94.53149,24.63239],[94.5208,24.61679],[94.50753,24.60155],[94.50242,24.59636],[94.49824,24.59279],[94.48988,24.58916],[94.48534,24.58224],[94.47829,24.57905],[94.47253,24.57794],[94.46549,24.57556],[94.45955,24.56676],[94.4583,24.56291],[94.45584,24.55532],[94.45016,24.54273],[94.44547,24.53149],[94.44049,24.52043],[94.43658,24.51595],[94.43513,24.51108],[94.43239,24.50424],[94.4296,24.49334],[94.42155,24.49051],[94.42022,24.49042],[94.40898,24.48963],[94.40664,24.49216],[94.40192,24.49313],[94.39867,24.49061],[94.39246,24.49606],[94.39074,24.49915],[94.38846,24.50079],[94.38673,24.5033],[94.38258,24.50318],[94.38087,24.50426],[94.38475,24.50747],[94.38503,24.51019],[94.38151,24.51067],[94.38216,24.51367],[94.37827,24.51488],[94.37904,24.51703],[94.38239,24.51546],[94.38313,24.51761],[94.38242,24.52065],[94.37374,24.51921],[94.37647,24.52212],[94.37534,24.52424],[94.3689,24.52496],[94.36651,24.52693],[94.36968,24.52946],[94.3693,24.5358],[94.37284,24.53821],[94.37514,24.54205],[94.3758,24.54552],[94.37513,24.54786],[94.37756,24.55102],[94.37786,24.5531],[94.37633,24.55608],[94.36637,24.5568],[94.36419,24.55504],[94.35905,24.55474],[94.35667,24.55885],[94.35327,24.55897],[94.33873,24.55491],[94.33569,24.55809],[94.33887,24.56101],[94.33633,24.56784],[94.33954,24.56951],[94.33719,24.57068],[94.33342,24.57132],[94.3316,24.57578],[94.32013,24.5777],[94.3161,24.57972],[94.31487,24.58378],[94.31007,24.58879],[94.29884,24.59394],[94.29525,24.59971],[94.28769,24.60715],[94.27347,24.60192],[94.2659,24.60953],[94.26207,24.61565],[94.25676,24.6215],[94.25405,24.62228],[94.23751,24.6226],[94.23019,24.62451],[94.22202,24.62479],[94.21784,24.62761],[94.21005,24.62996],[94.2055,24.63197],[94.20457,24.63885],[94.20462,24.64595],[94.20244,24.66015],[94.19411,24.66678],[94.18765,24.67659],[94.19296,24.68984],[94.19355,24.6982],[94.19299,24.71872],[94.19064,24.7256],[94.17857,24.74035],[94.17966,24.74377],[94.18418,24.75013],[94.18559,24.75753],[94.1824,24.76158],[94.18664,24.76608],[94.18587,24.77138],[94.17925,24.78182],[94.17091,24.78907],[94.1647,24.80285],[94.16,24.80433],[94.14878,24.80455],[94.14434,24.80551],[94.14149,24.80811],[94.13932,24.80982],[94.13931,24.81032],[94.14345,24.81242],[94.14437,24.8163],[94.14993,24.82424],[94.14891,24.83433],[94.15202,24.83472],[94.1543,24.83263],[94.15571,24.83485],[94.15401,24.83759],[94.15626,24.83901],[94.15562,24.84108],[94.15155,24.8446],[94.15461,24.84596],[94.15467,24.84781],[94.15197,24.85116],[94.14908,24.85333],[94.14985,24.85871],[94.14655,24.86159],[94.14539,24.86474],[94.14726,24.86639],[94.14942,24.86688],[94.1516,24.87707],[94.14874,24.87755],[94.14977,24.87976],[94.15177,24.88082],[94.15578,24.87997],[94.15716,24.88934],[94.16338,24.89109],[94.16478,24.89291],[94.16396,24.89659],[94.16479,24.90145],[94.16641,24.90274],[94.16708,24.90553],[94.1648,24.90849],[94.16785,24.91806],[94.1665,24.92094],[94.16717,24.9225],[94.17272,24.9234],[94.17457,24.92655],[94.17525,24.93118],[94.17374,24.93393],[94.17498,24.93804],[94.17471,24.94034],[94.17359,24.94211],[94.17392,24.94408],[94.17586,24.94364],[94.17761,24.94419],[94.17786,24.94636],[94.17159,24.9501],[94.16802,24.95905],[94.16591,24.97038],[94.15565,24.99661],[94.15047,25.00597],[94.15418,25.02879],[94.15251,25.03235],[94.15116,25.04045],[94.14265,25.05381],[94.13074,25.05823],[94.12904,25.0626],[94.12877,25.06541],[94.12584,25.06948],[94.12337,25.07124],[94.12222,25.07454],[94.12352,25.08144],[94.12605,25.08434],[94.12518,25.09112],[94.12643,25.09626],[94.12907,25.09886],[94.1322,25.10574],[94.13309,25.11749],[94.1363,25.11872],[94.13732,25.12074],[94.13729,25.12305],[94.14142,25.12463],[94.15023,25.13131],[94.15291,25.13846],[94.15783,25.13792],[94.15955,25.14156],[94.16333,25.13904],[94.16674,25.14126],[94.16406,25.14504],[94.16474,25.14873],[94.16887,25.14668],[94.17198,25.15309],[94.17576,25.15744],[94.17866,25.15803],[94.17772,25.16407],[94.18212,25.16628],[94.18604,25.16602],[94.18457,25.16884],[94.1841,25.17217],[94.18631,25.17334],[94.19326,25.17706],[94.19716,25.18163],[94.20943,25.18154],[94.2172,25.18371],[94.22343,25.18761],[94.22574,25.19487],[94.23007,25.20101],[94.23754,25.20335],[94.24751,25.20882],[94.25266,25.2146],[94.25677,25.22246],[94.25832,25.22927],[94.26014,25.23343],[94.26569,25.23662],[94.28608,25.24458],[94.30029,25.25472],[94.3127,25.26826],[94.31649,25.2707],[94.31834,25.27306],[94.32772,25.28411],[94.33075,25.29041],[94.33235,25.2987],[94.34061,25.3132],[94.34428,25.31662],[94.34933,25.31981],[94.35336,25.32916],[94.35897,25.33758],[94.36028,25.34133],[94.36363,25.34544],[94.37144,25.35383],[94.37874,25.35899],[94.38195,25.36309],[94.38068,25.36579],[94.38268,25.37115],[94.37977,25.37454],[94.37874,25.38253],[94.37928,25.39371],[94.38022,25.39735],[94.38294,25.40241],[94.3876,25.40882],[94.38367,25.41399],[94.39017,25.423],[94.38727,25.42691],[94.38908,25.42875],[94.39206,25.42911],[94.39497,25.42815],[94.39826,25.43501],[94.40527,25.44622],[94.40675,25.45406],[94.41258,25.46122],[94.4234,25.47226],[94.42053,25.47708],[94.42438,25.48712],[94.4289,25.49549],[94.43426,25.51531],[94.43649,25.51918],[94.43958,25.52173],[94.43984,25.52466],[94.44237,25.52738],[94.44419,25.53263],[94.45041,25.54227],[94.46519,25.56046],[94.46795,25.57654],[94.47137,25.5884],[94.47719,25.59402],[94.48771,25.602],[94.49416,25.61297],[94.49342,25.61433],[94.4993,25.6165],[94.49994,25.61882],[94.50183,25.62002],[94.50537,25.61699],[94.5078,25.61895],[94.50867,25.6269],[94.5109,25.62991],[94.51451,25.63049],[94.52419,25.64343],[94.52818,25.64429],[94.53066,25.64259],[94.53155,25.65013],[94.53954,25.65108],[94.54474,25.65754],[94.55178,25.66246],[94.55222,25.66741],[94.56508,25.68082],[94.56799,25.69222],[94.57301,25.69765],[94.57861,25.696],[94.58298,25.6932],[94.58705,25.69189],[94.59562,25.69128],[94.59695,25.68691],[94.58997,25.68125],[94.58813,25.67727],[94.58533,25.67485],[94.58737,25.6718],[94.58559,25.67001],[94.58344,25.66522],[94.58522,25.66178],[94.58205,25.66061],[94.58135,25.65739],[94.57679,25.65283],[94.57723,25.64833]]]}},{"type":"Feature","properties":{"ID_0":105,"ISO":"IND","NAME_0":"India","ID_1":22,"NAME_1":"Manipur","ID_2":348,"NAME_2":"West Imphal","NL_NAME_2":null,"VARNAME_2":null,"TYPE_2":"District","ENGTYPE_2":"District","STATE":"Manipur","DISTRICT":"West Imphal"},"geometry":{"type":"Polygon","coordinates":[[[93.91208,24.97867],[93.91312,24.97611],[93.91888,24.97731],[93.92123,24.97471],[93.91236,24.97103],[93.90919,24.96851],[93.90708,24.96344],[93.89961,24.96093],[93.89484,24.95715],[93.89095,24.94574],[93.89767,24.93814],[93.90877,24.93177],[93.91122,24.94944],[93.93141,24.97056],[93.93377,24.96792],[93.93796,24.97025],[93.93487,24.96533],[93.92751,24.95927],[93.92638,24.94419],[93.92709,24.92785],[93.92416,24.92535],[93.92397,24.91903],[93.91966,24.91653],[93.92096,24.91148],[93.91525,24.90522],[93.92229,24.90768],[93.92941,24.9089],[93.93511,24.90762],[93.9365,24.90384],[93.93648,24.90132],[93.90276,24.86633],[93.89996,24.8575],[93.91286,24.85498],[93.91711,24.85876],[93.93577,24.84863],[93.93864,24.84232],[93.94725,24.83726],[93.94477,24.82718],[93.94175,24.79452],[93.93885,24.78572],[93.93883,24.77182],[93.93587,24.75408],[93.94429,24.72038],[93.93995,24.71787],[93.93138,24.71782],[93.92851,24.71273],[93.92847,24.70766],[93.91991,24.70883],[93.91415,24.7037],[93.90842,24.70492],[93.90982,24.69986],[93.90979,24.69605],[93.90835,24.69224],[93.91117,24.68464],[93.9083,24.6821],[93.90685,24.67956],[93.91115,24.67703],[93.91974,24.67705],[93.91971,24.67451],[93.91683,24.67071],[93.91824,24.66817],[93.92828,24.6669],[93.92972,24.66563],[93.93687,24.66689],[93.93677,24.65044],[93.93393,24.65551],[93.92963,24.65677],[93.92239,24.64163],[93.91234,24.6404],[93.90659,24.63663],[93.90227,24.63288],[93.90219,24.62283],[93.89359,24.6191],[93.90216,24.61157],[93.90934,24.61654],[93.91362,24.61529],[93.91505,24.61152],[93.91359,24.60405],[93.91356,24.59538],[93.90927,24.59541],[93.91499,24.58429],[93.91354,24.57447],[93.90924,24.5671],[93.9035,24.56213],[93.89775,24.55959],[93.89201,24.55829],[93.87769,24.55714],[93.87057,24.5683],[93.87342,24.57571],[93.89062,24.58192],[93.89207,24.58562],[93.89064,24.59054],[93.87347,24.60414],[93.87492,24.60913],[93.8735,24.61411],[93.87064,24.61663],[93.85773,24.61413],[93.8549,24.6204],[93.8578,24.62542],[93.85493,24.62794],[93.85063,24.62921],[93.82189,24.61165],[93.8133,24.61417],[93.80759,24.62047],[93.80763,24.62677],[93.81625,24.6343],[93.81915,24.64059],[93.80628,24.64818],[93.8021,24.67337],[93.83801,24.68464],[93.84806,24.68589],[93.84947,24.68085],[93.86956,24.68208],[93.87818,24.6846],[93.89259,24.69471],[93.89407,24.7023],[93.89408,24.70609],[93.89269,24.71114],[93.89413,24.71493],[93.8841,24.7149],[93.87408,24.71993],[93.84396,24.72429],[93.83391,24.72305],[93.82531,24.72431],[93.80673,24.73563],[93.80096,24.73312],[93.79093,24.73438],[93.77518,24.74195],[93.78223,24.74401],[93.78368,24.75156],[93.7952,24.77044],[93.79234,24.77422],[93.79666,24.77925],[93.79523,24.78304],[93.79093,24.78932],[93.78806,24.79688],[93.78518,24.80947],[93.78948,24.81324],[93.78947,24.82331],[93.7952,24.82835],[93.81243,24.84095],[93.81241,24.84976],[93.81094,24.85857],[93.81381,24.8611],[93.80948,24.86865],[93.81232,24.87368],[93.81949,24.87622],[93.82377,24.89132],[93.82949,24.89511],[93.83379,24.91023],[93.83677,24.92661],[93.84554,24.93421],[93.84594,24.9481],[93.84919,24.95572],[93.86729,24.96089],[93.87365,24.97998],[93.88956,25.00526],[93.89317,25.01448],[93.89445,25.02288],[93.90218,25.03589],[93.91206,25.04529],[93.9175,25.04747],[93.9193,25.04972],[93.92229,25.05647],[93.92298,25.0603],[93.96591,25.07709],[93.9767,25.08007],[93.98371,25.07816],[93.98769,25.0749],[93.98911,25.06922],[93.98591,25.06015],[93.96593,25.03767],[93.9593,25.03175],[93.93575,25.0195],[93.92737,25.01413],[93.91626,25.00525],[93.91493,24.98882],[93.90793,24.97996],[93.91208,24.97867]]]}}],"state":"Manipur","source":"geohacker/india (Datameet-derived), Census 2011 boundaries"}