{"type":"FeatureCollection","features":[{"type":"Feature","properties":{"ID_0":105,"ISO":"IND","NAME_0":"India","ID_1":23,"NAME_1":"Meghalaya","ID_2":349,"NAME_2":"East Garo Hills","NL_NAME_2":null,"VARNAME_2":null,"TYPE_2":"District","ENGTYPE_2":"District","STATE":"Meghalaya","DISTRICT":"East Garo Hills"},"geometry":{"type":"Polygon","coordinates":[[[90.11865,25.96126],[90.12,25.95772],[90.12323,25.95716],[90.12845,25.95877],[90.13408,25.95781],[90.14003,25.95814],[90.14739,25.96448],[90.1534,25.9647],[90.15449,25.96021],[90.15839,25.95826],[90.1635,25.95736],[90.16849,25.95738],[90.17265,25.95875],[90.17612,25.95708],[90.18053,25.947],[90.18251,25.94445],[90.18567,25.94557],[90.18945,25.95324],[90.19396,25.957],[90.20844,25.96157],[90.21112,25.95564],[90.21276,25.95389],[90.22737,25.95514],[90.27782,25.96317],[90.28658,25.9639],[90.32434,25.97438],[90.32906,25.9827],[90.32995,25.9885],[90.33692,25.99017],[90.33932,25.99686],[90.34486,26.00124],[90.34666,26.00295],[90.36499,26.01032],[90.38081,26.01165],[90.38737,26.01126],[90.39395,26.0141],[90.3965,26.01415],[90.39729,26.01223],[90.40019,26.00928],[90.40756,26.00756],[90.41104,26.00587],[90.41394,26.00132],[90.4165,25.99685],[90.41743,25.99234],[90.42863,25.98904],[90.44711,25.99653],[90.45752,25.99957],[90.45792,26.00134],[90.4591,26.00323],[90.4653,26.00722],[90.4709,26.0126],[90.47729,26.01526],[90.48122,26.01402],[90.48959,26.00964],[90.49236,26.00651],[90.49793,26.00365],[90.50014,26.00136],[90.50574,25.99602],[90.51356,25.98237],[90.52406,25.9699],[90.52984,25.96186],[90.53446,25.95802],[90.5348,25.94564],[90.53378,25.93629],[90.53221,25.93255],[90.52616,25.92828],[90.51852,25.9094],[90.5111,25.90014],[90.51254,25.89624],[90.51801,25.89648],[90.52548,25.90101],[90.53361,25.9088],[90.53918,25.91546],[90.54682,25.91988],[90.55336,25.92912],[90.56324,25.93557],[90.57137,25.93903],[90.57274,25.944],[90.57278,25.94815],[90.5788,25.95803],[90.58246,25.95979],[90.58727,25.95391],[90.59185,25.95212],[90.60194,25.95178],[90.60539,25.94695],[90.62901,25.93743],[90.60757,25.91958],[90.60651,25.91228],[90.60809,25.90802],[90.61075,25.90745],[90.6142,25.89951],[90.62481,25.8989],[90.62672,25.90136],[90.62894,25.90655],[90.62686,25.91127],[90.62733,25.91699],[90.63783,25.92333],[90.65399,25.92966],[90.67019,25.93426],[90.67565,25.93648],[90.68604,25.95081],[90.7131,25.95218],[90.71774,25.95471],[90.72068,25.94917],[90.7254,25.94877],[90.73227,25.95256],[90.74029,25.95491],[90.74355,25.95667],[90.74744,25.95732],[90.74605,25.95264],[90.74379,25.94943],[90.7447,25.9465],[90.7403,25.94089],[90.74413,25.93279],[90.74747,25.93232],[90.75071,25.93408],[90.75264,25.93396],[90.74619,25.92193],[90.74054,25.91521],[90.74234,25.91295],[90.74544,25.91229],[90.75006,25.91924],[90.75895,25.92164],[90.75763,25.91657],[90.75772,25.91107],[90.76905,25.90851],[90.77806,25.90829],[90.77849,25.9143],[90.78168,25.92125],[90.7917,25.93574],[90.7971,25.94147],[90.80869,25.94719],[90.80989,25.95216],[90.82045,25.94843],[90.82388,25.9451],[90.828,25.94743],[90.83226,25.94528],[90.8362,25.94726],[90.83676,25.93819],[90.83984,25.93843],[90.84104,25.94317],[90.84324,25.94481],[90.8568,25.94433],[90.86961,25.9424],[90.87289,25.94292],[90.87241,25.94673],[90.87524,25.94912],[90.88023,25.94625],[90.88144,25.95064],[90.88298,25.95175],[90.88836,25.94362],[90.89239,25.93906],[90.89646,25.93747],[90.89704,25.93538],[90.89538,25.93151],[90.90119,25.92959],[90.91253,25.9203],[90.91608,25.91506],[90.91911,25.91331],[90.9163,25.92814],[90.91588,25.94316],[90.91834,25.94316],[90.93207,25.93967],[90.93466,25.94114],[90.93749,25.94476],[90.94275,25.94757],[90.94557,25.93912],[90.95385,25.9367],[90.95792,25.93394],[90.96064,25.9277],[90.9669,25.90533],[90.96731,25.89664],[90.96661,25.891],[90.96745,25.88718],[90.97133,25.88767],[90.97539,25.88945],[90.9848,25.88993],[90.99689,25.88868],[91.00133,25.88649],[91.01373,25.88432],[91.02061,25.88728],[91.02568,25.88838],[91.02829,25.88857],[91.02922,25.88805],[91.02911,25.87985],[91.02652,25.86662],[91.02183,25.86133],[91.01513,25.85906],[91.01311,25.85719],[91.01274,25.84884],[91.00867,25.83824],[91.00159,25.8258],[91.00079,25.82225],[90.99847,25.81976],[90.99694,25.81927],[90.99417,25.81739],[90.99036,25.81156],[90.98368,25.80523],[90.97976,25.80249],[90.97591,25.79809],[90.96999,25.79408],[90.9657,25.78147],[90.9572,25.77824],[90.9507,25.77244],[90.94381,25.77037],[90.94061,25.76382],[90.94128,25.7565],[90.94342,25.75299],[90.94818,25.75266],[90.95223,25.75502],[90.95404,25.75468],[90.95747,25.75147],[90.96159,25.74995],[90.96584,25.75067],[90.97132,25.75299],[90.97538,25.7514],[90.97905,25.74878],[90.98241,25.74449],[90.97573,25.73808],[90.97002,25.72621],[90.96301,25.7213],[90.95993,25.71611],[90.95467,25.71081],[90.95156,25.69484],[90.94556,25.68901],[90.93869,25.68436],[90.93118,25.67702],[90.92687,25.66879],[90.91765,25.65715],[90.91219,25.65429],[90.91093,25.6466],[90.90818,25.64083],[90.90214,25.63762],[90.89416,25.63581],[90.88851,25.62933],[90.88505,25.62374],[90.88004,25.61948],[90.87975,25.61091],[90.87518,25.60776],[90.87211,25.60368],[90.86724,25.60116],[90.86234,25.60052],[90.84912,25.59065],[90.84332,25.59099],[90.83775,25.58813],[90.82988,25.58999],[90.81741,25.58601],[90.8166,25.57912],[90.81237,25.57703],[90.81019,25.57847],[90.80835,25.5839],[90.80159,25.58628],[90.79974,25.58167],[90.79422,25.57763],[90.79283,25.57256],[90.7896,25.57225],[90.78405,25.58275],[90.77888,25.58548],[90.77648,25.57918],[90.77288,25.57398],[90.77187,25.56815],[90.76643,25.5619],[90.76721,25.55758],[90.76641,25.55417],[90.75869,25.55178],[90.74989,25.54762],[90.73016,25.53299],[90.70166,25.507],[90.67896,25.48137],[90.65887,25.45201],[90.6554,25.43788],[90.64446,25.41577],[90.63951,25.4151],[90.63166,25.41848],[90.60489,25.42459],[90.57979,25.42112],[90.57114,25.4274],[90.55156,25.43329],[90.51859,25.433],[90.50167,25.43831],[90.48619,25.44648],[90.47569,25.4535],[90.46008,25.45092],[90.44619,25.45087],[90.4355,25.45341],[90.40475,25.45805],[90.365,25.45425],[90.35592,25.45754],[90.34877,25.45914],[90.33495,25.46011],[90.33083,25.4604],[90.31948,25.46536],[90.32218,25.47343],[90.33109,25.4841],[90.34376,25.49386],[90.40256,25.55134],[90.40618,25.60034],[90.41138,25.61109],[90.41657,25.6322],[90.43181,25.67197],[90.43213,25.6798],[90.44104,25.69582],[90.43745,25.70363],[90.4062,25.75056],[90.39886,25.76705],[90.39365,25.7937],[90.39096,25.79865],[90.3746,25.80267],[90.33993,25.80215],[90.3381,25.80453],[90.34155,25.82796],[90.34862,25.83179],[90.36703,25.83089],[90.37917,25.83422],[90.38313,25.8407],[90.38159,25.86756],[90.4137,25.92239],[90.42182,25.95291],[90.39578,25.94941],[90.38038,25.9463],[90.3605,25.94113],[90.32808,25.93047],[90.31654,25.92972],[90.29217,25.93228],[90.22433,25.92539],[90.18088,25.90099],[90.16952,25.90822],[90.15859,25.91369],[90.15063,25.92369],[90.13503,25.93421],[90.11092,25.95411],[90.11378,25.95744],[90.11865,25.96126]]]}},{"type":"Feature","properties":{"ID_0":105,"ISO":"IND","NAME_0":"India","ID_1":23,"NAME_1":"Meghalaya","ID_2":350,"NAME_2":"East Khasi Hills","NL_NAME_2":null,"VARNAME_2":null,"TYPE_2":"District","ENGTYPE_2":"District","STATE":"Meghalaya","DISTRICT":"East Khasi Hills"},"geometry":{"type":"Polygon","coordinates":[[[91.8109,25.65541],[91.83212,25.65056],[91.85429,25.64801],[91.86537,25.64374],[91.87219,25.64971],[91.87475,25.65994],[91.87901,25.6608],[91.88498,25.65568],[91.89265,25.65568],[91.90459,25.65994],[91.91909,25.6625],[91.93103,25.67359],[91.93956,25.68382],[91.94979,25.68638],[91.95576,25.68297],[91.95831,25.67956],[91.96088,25.67274],[91.96088,25.66506],[91.96599,25.65994],[91.97196,25.65568],[91.98646,25.65568],[91.99669,25.65483],[92.00436,25.64801],[92.02654,25.6463],[92.05041,25.64119],[92.0794,25.64289],[92.10669,25.64715],[92.12119,25.65483],[92.1425,25.66591],[92.153,25.66838],[92.15198,25.66528],[92.15697,25.6532],[92.15703,25.64882],[92.15523,25.64688],[92.15106,25.65046],[92.14869,25.64374],[92.14262,25.64083],[92.13921,25.64072],[92.13677,25.64217],[92.13455,25.64232],[92.13749,25.63625],[92.13714,25.63002],[92.14073,25.62709],[92.13349,25.61684],[92.12248,25.60475],[92.12237,25.6033],[92.12558,25.60001],[92.12637,25.59778],[92.1235,25.59543],[92.12241,25.59207],[92.12203,25.58348],[92.12019,25.58028],[92.1152,25.57578],[92.10818,25.56277],[92.10761,25.55474],[92.10847,25.55205],[92.11212,25.54922],[92.11497,25.54396],[92.11246,25.53787],[92.10697,25.52062],[92.10139,25.51426],[92.10093,25.51176],[92.10262,25.50384],[92.10019,25.50127],[92.09778,25.49391],[92.09827,25.49029],[92.09977,25.48737],[92.10755,25.48231],[92.11168,25.47165],[92.11119,25.4672],[92.10374,25.45891],[92.09825,25.4545],[92.09811,25.45196],[92.10076,25.44634],[92.1048,25.44214],[92.10443,25.43361],[92.10944,25.42694],[92.1144,25.41192],[92.11353,25.40671],[92.11232,25.40434],[92.10375,25.39837],[92.10383,25.39658],[92.11151,25.38529],[92.11337,25.38019],[92.11221,25.37296],[92.11306,25.36202],[92.1119,25.35859],[92.11081,25.35633],[92.1106,25.35297],[92.1116,25.35074],[92.11492,25.34728],[92.11402,25.34393],[92.11423,25.33886],[92.11708,25.33337],[92.12125,25.33194],[92.1218,25.33027],[92.11652,25.31993],[92.1169,25.31561],[92.11497,25.30866],[92.11057,25.30496],[92.10132,25.30734],[92.0956,25.31377],[92.09404,25.31368],[92.08698,25.30966],[92.08283,25.31261],[92.06905,25.31897],[92.06271,25.31803],[92.05795,25.31563],[92.0554,25.31654],[92.05334,25.32006],[92.0496,25.32089],[92.04095,25.31843],[92.03822,25.31556],[92.03382,25.31441],[92.03255,25.31195],[92.0238,25.31124],[92.02231,25.31038],[92.01575,25.30289],[92.01381,25.30317],[92.01012,25.30154],[92.00951,25.29998],[92.00602,25.29799],[92.0043,25.29395],[92.00092,25.28988],[91.99869,25.2882],[91.99177,25.28163],[91.98756,25.27625],[91.98383,25.25707],[91.98692,25.2519],[91.98669,25.24654],[91.99001,25.24053],[91.99702,25.23209],[91.99876,25.22425],[92.00404,25.21859],[92.00931,25.20955],[92.01203,25.20761],[92.01804,25.20567],[92.023,25.20288],[92.02383,25.19829],[92.02301,25.19408],[92.02198,25.19188],[92.01802,25.18944],[92.01788,25.18951],[92.01394,25.19019],[92.01308,25.18996],[92.00798,25.18864],[92.00327,25.18664],[91.9997,25.18363],[91.99583,25.17959],[91.99221,25.17698],[91.98886,25.17562],[91.98823,25.17562],[91.97964,25.17559],[91.97693,25.17694],[91.97539,25.18011],[91.97323,25.1822],[91.96677,25.18309],[91.9616,25.18346],[91.95474,25.18385],[91.95027,25.18398],[91.9489,25.18414],[91.94799,25.18412],[91.94261,25.184],[91.93806,25.18628],[91.93386,25.18552],[91.93021,25.18583],[91.92696,25.18631],[91.92225,25.18706],[91.91819,25.18659],[91.91459,25.18535],[91.91162,25.18415],[91.90796,25.18423],[91.90307,25.18361],[91.90053,25.18222],[91.89733,25.18143],[91.89336,25.18169],[91.8889,25.18089],[91.88622,25.17916],[91.8831,25.17974],[91.88137,25.18049],[91.87742,25.17973],[91.87331,25.17862],[91.86747,25.17787],[91.8631,25.17764],[91.85779,25.17761],[91.85347,25.17834],[91.8487,25.18026],[91.83745,25.18241],[91.83473,25.1824],[91.83037,25.18107],[91.8258,25.17809],[91.82318,25.17641],[91.81902,25.17548],[91.81442,25.17548],[91.81263,25.17377],[91.80917,25.17281],[91.80527,25.17302],[91.79927,25.17187],[91.79275,25.17137],[91.78748,25.16962],[91.78574,25.16906],[91.78458,25.16869],[91.78191,25.16828],[91.78086,25.1684],[91.77878,25.16863],[91.77541,25.1695],[91.77193,25.17061],[91.7693,25.17117],[91.76667,25.17155],[91.76379,25.17327],[91.76167,25.17496],[91.75971,25.1775],[91.75742,25.17971],[91.75555,25.18012],[91.75288,25.17982],[91.75127,25.17793],[91.75176,25.17499],[91.75095,25.17283],[91.75022,25.17182],[91.74925,25.17048],[91.74681,25.16679],[91.74619,25.16588],[91.74475,25.16377],[91.74489,25.16032],[91.74548,25.15685],[91.74534,25.15289],[91.744,25.15122],[91.7412,25.15081],[91.7381,25.1507],[91.7333,25.15208],[91.73255,25.15217],[91.72778,25.15269],[91.72403,25.15358],[91.72191,25.15538],[91.72037,25.15728],[91.72018,25.15751],[91.71745,25.15825],[91.71326,25.15909],[91.71111,25.15895],[91.70844,25.1587],[91.70731,25.1588],[91.70709,25.15745],[91.70668,25.15503],[91.70795,25.15269],[91.70781,25.15114],[91.70419,25.1495],[91.70262,25.14715],[91.70127,25.14698],[91.7002,25.14684],[91.6993,25.14503],[91.69922,25.14439],[91.69881,25.14149],[91.69585,25.13908],[91.69054,25.13795],[91.68576,25.13693],[91.68176,25.13759],[91.67901,25.13822],[91.67522,25.13692],[91.67262,25.13529],[91.67081,25.13341],[91.67004,25.1316],[91.66845,25.13028],[91.66531,25.13045],[91.66473,25.13086],[91.66354,25.13172],[91.66051,25.13178],[91.65914,25.1312],[91.65503,25.12946],[91.65126,25.1273],[91.64999,25.1258],[91.64824,25.12368],[91.64453,25.12272],[91.64123,25.12377],[91.63697,25.12626],[91.63343,25.12663],[91.63055,25.12715],[91.62827,25.12832],[91.62904,25.13361],[91.62922,25.13724],[91.62765,25.14006],[91.62673,25.14313],[91.62587,25.14501],[91.62321,25.14596],[91.62199,25.14598],[91.62018,25.14601],[91.61862,25.14383],[91.6174,25.14336],[91.61577,25.14491],[91.61437,25.14605],[91.61361,25.14595],[91.61266,25.14583],[91.6116,25.14508],[91.61004,25.14397],[91.60715,25.14305],[91.60683,25.14362],[91.60558,25.1458],[91.60426,25.15102],[91.60424,25.15133],[91.60414,25.15366],[91.60475,25.15468],[91.60545,25.15585],[91.60678,25.15723],[91.60452,25.15881],[91.60331,25.15995],[91.60762,25.16674],[91.60971,25.1681],[91.6132,25.16969],[91.61735,25.16971],[91.6189,25.17006],[91.61972,25.17266],[91.61742,25.17591],[91.60825,25.17435],[91.60508,25.17418],[91.59808,25.17426],[91.59312,25.17364],[91.58464,25.17188],[91.58201,25.17233],[91.58033,25.17285],[91.57817,25.1682],[91.57638,25.16432],[91.57916,25.1606],[91.57507,25.16075],[91.57314,25.16013],[91.56919,25.15943],[91.56695,25.15875],[91.56116,25.15121],[91.55885,25.14929],[91.54628,25.14647],[91.53777,25.14437],[91.53354,25.14418],[91.52955,25.14398],[91.52188,25.14464],[91.51365,25.14535],[91.51258,25.14516],[91.51027,25.14473],[91.50831,25.14325],[91.50673,25.14068],[91.50596,25.13943],[91.50464,25.1373],[91.50426,25.13668],[91.50263,25.13548],[91.49947,25.13542],[91.49693,25.13589],[91.49258,25.1367],[91.48972,25.13605],[91.48512,25.13633],[91.48237,25.13557],[91.48241,25.13526],[91.48255,25.13407],[91.48152,25.13402],[91.47844,25.13387],[91.47407,25.13386],[91.4712,25.13425],[91.47017,25.13484],[91.47186,25.1372],[91.47237,25.13765],[91.4721,25.1399],[91.4715,25.14319],[91.47254,25.14781],[91.4712,25.15015],[91.4688,25.15001],[91.46791,25.1498],[91.46216,25.14852],[91.45652,25.14803],[91.45065,25.14818],[91.44596,25.1491],[91.44233,25.15101],[91.44133,25.15215],[91.43951,25.15421],[91.43804,25.15469],[91.43697,25.15504],[91.43387,25.15498],[91.43173,25.15517],[91.43007,25.15603],[91.42735,25.15998],[91.42664,25.16194],[91.42523,25.16579],[91.42197,25.16878],[91.41995,25.17002],[91.41981,25.17011],[91.41901,25.16768],[91.41649,25.16512],[91.41238,25.16498],[91.40835,25.16535],[91.4052,25.16443],[91.40324,25.16416],[91.39984,25.16428],[91.39787,25.16538],[91.39505,25.16709],[91.39253,25.16729],[91.38883,25.1664],[91.38922,25.17052],[91.38084,25.17702],[91.36402,25.20547],[91.35476,25.22934],[91.35534,25.23435],[91.35867,25.23548],[91.36605,25.23492],[91.37204,25.24298],[91.37646,25.24401],[91.38644,25.23979],[91.38837,25.24614],[91.39553,25.25162],[91.39944,25.25667],[91.40362,25.26391],[91.40868,25.26406],[91.41319,25.26526],[91.4238,25.2622],[91.43929,25.27328],[91.45114,25.27236],[91.46319,25.2689],[91.4685,25.27155],[91.47337,25.2698],[91.47474,25.26584],[91.47994,25.26376],[91.48557,25.2653],[91.48858,25.27161],[91.49002,25.27928],[91.49695,25.28372],[91.52342,25.27907],[91.52866,25.28055],[91.5337,25.27685],[91.5448,25.27989],[91.54903,25.28735],[91.55164,25.30091],[91.55359,25.30513],[91.55015,25.31269],[91.55343,25.32085],[91.54951,25.32679],[91.55085,25.33065],[91.5472,25.33438],[91.54055,25.3357],[91.53047,25.34327],[91.52608,25.34479],[91.52541,25.34933],[91.52618,25.3544],[91.5307,25.3568],[91.53872,25.37029],[91.54015,25.37428],[91.53857,25.37972],[91.54176,25.38966],[91.54176,25.40143],[91.54336,25.40701],[91.54765,25.41372],[91.54745,25.41982],[91.54976,25.42365],[91.55694,25.42936],[91.55743,25.43569],[91.55511,25.43912],[91.55763,25.44555],[91.55714,25.4533],[91.55215,25.47479],[91.5504,25.4776],[91.55003,25.48958],[91.54681,25.49439],[91.54263,25.49635],[91.54207,25.49906],[91.54444,25.50346],[91.54257,25.51162],[91.5481,25.51103],[91.54963,25.51502],[91.56289,25.51663],[91.5826,25.52117],[91.60766,25.53699],[91.61395,25.54251],[91.62164,25.54124],[91.62368,25.53868],[91.63012,25.54189],[91.63387,25.54618],[91.63482,25.54947],[91.64058,25.5494],[91.65474,25.55251],[91.65859,25.5416],[91.6596,25.52859],[91.66557,25.52697],[91.67118,25.52265],[91.68202,25.52387],[91.69011,25.52659],[91.6947,25.53083],[91.69893,25.53207],[91.70126,25.5341],[91.69711,25.54334],[91.69973,25.54682],[91.7142,25.55395],[91.71587,25.55949],[91.72157,25.56126],[91.72437,25.56496],[91.73053,25.56403],[91.73329,25.56733],[91.73423,25.57585],[91.74057,25.57441],[91.77219,25.58616],[91.77508,25.58946],[91.78205,25.59037],[91.78605,25.59604],[91.8009,25.61031],[91.8013,25.61462],[91.7988,25.61974],[91.7992,25.62503],[91.8,25.62849],[91.80844,25.63615],[91.80919,25.64289],[91.81235,25.65402],[91.8109,25.65541]]]}},{"type":"Feature","properties":{"ID_0":105,"ISO":"IND","NAME_0":"India","ID_1":23,"NAME_1":"Meghalaya","ID_2":351,"NAME_2":"Jaintia Hills","NL_NAME_2":null,"VARNAME_2":null,"TYPE_2":"District","ENGTYPE_2":"District","STATE":"Meghalaya","DISTRICT":"Jaintia Hills"},"geometry":{"type":"Polygon","coordinates":[[[92.16051,25.67329],[92.1607,25.67186],[92.16446,25.66932],[92.16976,25.6664],[92.17095,25.66688],[92.17496,25.67022],[92.18478,25.68114],[92.18792,25.68343],[92.19199,25.68632],[92.19408,25.68612],[92.19693,25.68695],[92.19831,25.68636],[92.20009,25.68729],[92.20156,25.68972],[92.21064,25.69592],[92.22491,25.71397],[92.229,25.71621],[92.23263,25.71511],[92.23385,25.71007],[92.23476,25.70882],[92.23685,25.70839],[92.24805,25.71096],[92.25358,25.71012],[92.25571,25.71073],[92.26085,25.71034],[92.27052,25.71093],[92.28461,25.71586],[92.28798,25.7159],[92.29359,25.7173],[92.30611,25.72313],[92.30826,25.72615],[92.3115,25.72608],[92.31393,25.72468],[92.31768,25.72379],[92.33354,25.72523],[92.33901,25.72685],[92.34805,25.73193],[92.3518,25.73487],[92.363,25.73651],[92.36831,25.74044],[92.36754,25.74238],[92.37147,25.74647],[92.3851,25.75356],[92.38695,25.75249],[92.38434,25.75033],[92.38354,25.74743],[92.38496,25.74475],[92.38696,25.74311],[92.39213,25.7426],[92.39477,25.74148],[92.40479,25.74369],[92.41074,25.74313],[92.4164,25.7405],[92.41247,25.73739],[92.41326,25.73396],[92.41277,25.73298],[92.41698,25.72968],[92.42135,25.72945],[92.43201,25.73196],[92.43317,25.73145],[92.44202,25.72086],[92.43645,25.7156],[92.42963,25.71327],[92.42722,25.71041],[92.43153,25.70425],[92.43334,25.69523],[92.43214,25.69101],[92.43434,25.68753],[92.44047,25.68813],[92.44001,25.68922],[92.44304,25.68765],[92.45129,25.68661],[92.45525,25.68423],[92.45988,25.68297],[92.46545,25.68246],[92.47155,25.67495],[92.47466,25.67331],[92.48135,25.66389],[92.48829,25.64999],[92.49326,25.63613],[92.4979,25.62696],[92.50171,25.62293],[92.51055,25.6172],[92.51727,25.62008],[92.53325,25.61595],[92.54044,25.61777],[92.54453,25.61425],[92.55324,25.61384],[92.55762,25.61199],[92.55862,25.60895],[92.55618,25.60587],[92.55724,25.59621],[92.55632,25.5928],[92.56093,25.58273],[92.56096,25.57425],[92.56468,25.56826],[92.56954,25.56446],[92.5725,25.56042],[92.5761,25.55965],[92.58141,25.55977],[92.58748,25.55299],[92.59347,25.55393],[92.60259,25.55738],[92.60349,25.56108],[92.60871,25.56573],[92.61249,25.5655],[92.6211,25.56831],[92.62611,25.56803],[92.62887,25.56949],[92.63057,25.57067],[92.63323,25.57479],[92.63415,25.57888],[92.64063,25.58737],[92.64834,25.59235],[92.65119,25.59273],[92.65346,25.59218],[92.65761,25.58906],[92.66048,25.58506],[92.66072,25.58184],[92.66065,25.57032],[92.65736,25.56338],[92.64988,25.56001],[92.64497,25.5466],[92.6447,25.53744],[92.63763,25.52853],[92.62761,25.52221],[92.62163,25.51575],[92.6096,25.51261],[92.60559,25.50812],[92.59358,25.50308],[92.5895,25.49952],[92.58105,25.49516],[92.57559,25.49043],[92.56783,25.48077],[92.56655,25.47512],[92.56741,25.46747],[92.56913,25.46479],[92.57148,25.46407],[92.58229,25.47289],[92.58544,25.46758],[92.5937,25.47101],[92.59816,25.47165],[92.60139,25.46414],[92.59977,25.45705],[92.60019,25.45387],[92.60114,25.45239],[92.60451,25.45019],[92.60555,25.44836],[92.60529,25.44191],[92.60776,25.43035],[92.60697,25.42718],[92.60701,25.41854],[92.60909,25.41657],[92.61184,25.41612],[92.61478,25.41743],[92.61789,25.42202],[92.62064,25.42372],[92.62865,25.42503],[92.62931,25.42699],[92.62852,25.43061],[92.6293,25.43464],[92.63266,25.43314],[92.63792,25.42882],[92.63792,25.42266],[92.63923,25.42037],[92.63961,25.41963],[92.64163,25.41953],[92.65054,25.43167],[92.65428,25.43534],[92.65366,25.42394],[92.65688,25.4157],[92.6601,25.41036],[92.66369,25.40937],[92.66704,25.41408],[92.67094,25.41672],[92.67377,25.41714],[92.68005,25.40858],[92.68817,25.40442],[92.69352,25.39999],[92.70038,25.38779],[92.70293,25.38662],[92.70973,25.38612],[92.7129,25.38454],[92.71636,25.37934],[92.7181,25.37498],[92.72057,25.3749],[92.72137,25.37549],[92.72543,25.38043],[92.73481,25.3825],[92.73705,25.38125],[92.73611,25.37381],[92.74059,25.36678],[92.7401,25.36464],[92.74061,25.36373],[92.74567,25.36114],[92.74824,25.35811],[92.7501,25.35438],[92.75116,25.34847],[92.75876,25.33986],[92.76057,25.33528],[92.76327,25.33559],[92.76947,25.33951],[92.77245,25.33961],[92.78246,25.33429],[92.78437,25.33254],[92.78802,25.31761],[92.78474,25.31153],[92.78384,25.308],[92.78691,25.30067],[92.78883,25.29154],[92.79222,25.2868],[92.79222,25.28518],[92.78914,25.27852],[92.78212,25.27592],[92.77947,25.27376],[92.76976,25.26893],[92.77618,25.26294],[92.7767,25.26054],[92.76465,25.24935],[92.77029,25.2402],[92.77224,25.23326],[92.78631,25.2314],[92.79435,25.22601],[92.80309,25.22151],[92.80442,25.21933],[92.80357,25.21724],[92.79843,25.21345],[92.79289,25.21235],[92.78775,25.20953],[92.77957,25.20311],[92.76765,25.20476],[92.76345,25.20385],[92.7589,25.20403],[92.75454,25.20537],[92.75169,25.20735],[92.74714,25.20777],[92.74203,25.20309],[92.73334,25.20322],[92.72417,25.1992],[92.71622,25.19416],[92.70461,25.19052],[92.69394,25.18135],[92.68762,25.18232],[92.68285,25.18204],[92.67943,25.18309],[92.67704,25.18219],[92.67224,25.17816],[92.66691,25.17706],[92.66434,25.17536],[92.66298,25.17299],[92.66081,25.16225],[92.65954,25.15912],[92.65572,25.15413],[92.65121,25.1524],[92.64827,25.15265],[92.64405,25.15117],[92.63801,25.14522],[92.63242,25.13756],[92.6308,25.13184],[92.62997,25.12503],[92.6247,25.11869],[92.62164,25.1177],[92.61003,25.1241],[92.60315,25.12499],[92.59843,25.12471],[92.59444,25.12829],[92.58169,25.13187],[92.57903,25.13201],[92.56804,25.13009],[92.5655,25.13128],[92.55785,25.12997],[92.55317,25.13071],[92.54313,25.13502],[92.53994,25.13728],[92.53563,25.13441],[92.53019,25.13682],[92.52747,25.13994],[92.52467,25.14003],[92.52522,25.12558],[92.53024,25.12186],[92.53133,25.1199],[92.53306,25.11215],[92.54082,25.10413],[92.54295,25.0996],[92.53805,25.09931],[92.53201,25.10396],[92.52651,25.10585],[92.50978,25.10547],[92.49911,25.10815],[92.4843,25.10806],[92.48032,25.10041],[92.47976,25.09574],[92.48018,25.08584],[92.47655,25.07825],[92.47462,25.0708],[92.47092,25.06689],[92.46751,25.06137],[92.46599,25.05716],[92.46367,25.05557],[92.46204,25.05583],[92.45984,25.05466],[92.46015,25.04959],[92.46286,25.05015],[92.46466,25.04723],[92.46326,25.03713],[92.45976,25.03518],[92.4568,25.03503],[92.45421,25.03661],[92.45102,25.04095],[92.44653,25.04204],[92.44178,25.03985],[92.43788,25.03375],[92.43192,25.03291],[92.4259,25.03182],[92.42393,25.03284],[92.42298,25.03278],[92.4188,25.03248],[92.41637,25.0331],[92.41207,25.03489],[92.41101,25.03533],[92.40713,25.03498],[92.40462,25.03618],[92.40286,25.03861],[92.40113,25.04149],[92.39727,25.0424],[92.39338,25.04285],[92.39266,25.04283],[92.38934,25.04274],[92.38737,25.04248],[92.38434,25.04358],[92.38173,25.04427],[92.37768,25.04409],[92.37536,25.04436],[92.37325,25.04612],[92.37315,25.04647],[92.37208,25.05006],[92.36962,25.05121],[92.3653,25.05075],[92.36288,25.05149],[92.3603,25.05154],[92.3572,25.05132],[92.35391,25.05129],[92.34863,25.05157],[92.34717,25.05219],[92.34639,25.05383],[92.34583,25.05571],[92.34872,25.05897],[92.35149,25.06229],[92.35427,25.06339],[92.356,25.0651],[92.35659,25.06777],[92.35641,25.07128],[92.35596,25.07336],[92.3524,25.0753],[92.34783,25.07825],[92.34246,25.08],[92.33853,25.08128],[92.33434,25.08191],[92.33004,25.08175],[92.32687,25.08044],[92.32455,25.07721],[92.3225,25.07442],[92.31898,25.07469],[92.31605,25.07418],[92.31494,25.07233],[92.31007,25.07316],[92.29144,25.07893],[92.28655,25.07936],[92.28164,25.08077],[92.27802,25.08265],[92.27572,25.08446],[92.27111,25.08551],[92.26145,25.08767],[92.25893,25.08863],[92.25713,25.08965],[92.2534,25.09303],[92.24438,25.09649],[92.23743,25.09884],[92.23563,25.09938],[92.23402,25.09753],[92.23354,25.097],[92.23229,25.09814],[92.2294,25.10073],[92.22832,25.10657],[92.22481,25.10804],[92.2206,25.10958],[92.21541,25.11169],[92.21349,25.11349],[92.2133,25.11396],[92.21232,25.11646],[92.21442,25.11908],[92.2157,25.12047],[92.21972,25.12019],[92.2257,25.11868],[92.22625,25.11861],[92.2289,25.11832],[92.23232,25.11961],[92.22703,25.12218],[92.22153,25.12333],[92.21678,25.12536],[92.21203,25.12624],[92.20774,25.12738],[92.20331,25.12832],[92.20089,25.12741],[92.20073,25.12734],[92.19894,25.1258],[92.19516,25.12475],[92.1931,25.12288],[92.19199,25.12092],[92.18755,25.12196],[92.18658,25.12278],[92.18537,25.12377],[92.18449,25.12599],[92.18405,25.12836],[92.18069,25.12919],[92.17747,25.12932],[92.17372,25.1301],[92.16806,25.13154],[92.16609,25.13363],[92.16822,25.13567],[92.1677,25.13666],[92.16257,25.13739],[92.15765,25.13753],[92.15404,25.13848],[92.14998,25.14042],[92.14769,25.14252],[92.14563,25.14404],[92.14333,25.14472],[92.1395,25.1455],[92.13879,25.14834],[92.13965,25.15284],[92.14052,25.1551],[92.14083,25.15716],[92.14476,25.15717],[92.14529,25.15899],[92.14216,25.16072],[92.13972,25.16243],[92.13599,25.16447],[92.13201,25.16687],[92.12788,25.16876],[92.12491,25.16997],[92.12227,25.1714],[92.11884,25.17309],[92.11654,25.17399],[92.11355,25.17486],[92.11073,25.17766],[92.10861,25.1793],[92.10506,25.18019],[92.10191,25.18054],[92.09837,25.18149],[92.09384,25.18311],[92.09243,25.18379],[92.08997,25.1851],[92.0873,25.18595],[92.08506,25.18644],[92.08395,25.18586],[92.08223,25.18569],[92.07961,25.18729],[92.07472,25.18915],[92.07177,25.18962],[92.06718,25.18997],[92.06555,25.19003],[92.05645,25.18782],[92.05055,25.18736],[92.04546,25.18676],[92.04055,25.1858],[92.03626,25.18477],[92.03345,25.18304],[92.03056,25.18207],[92.02392,25.18619],[92.02286,25.18685],[92.01802,25.18944],[92.02198,25.19188],[92.02301,25.19408],[92.02383,25.19829],[92.023,25.20288],[92.01804,25.20567],[92.01203,25.20761],[92.00931,25.20955],[92.00404,25.21859],[91.99876,25.22425],[91.99702,25.23209],[91.99001,25.24053],[91.98669,25.24654],[91.98692,25.2519],[91.98383,25.25707],[91.98756,25.27625],[91.99177,25.28163],[91.99869,25.2882],[92.00092,25.28988],[92.0043,25.29395],[92.00602,25.29799],[92.00951,25.29998],[92.01012,25.30154],[92.01381,25.30317],[92.01575,25.30289],[92.02231,25.31038],[92.0238,25.31124],[92.03255,25.31195],[92.03382,25.31441],[92.03822,25.31556],[92.04095,25.31843],[92.0496,25.32089],[92.05334,25.32006],[92.0554,25.31654],[92.05795,25.31563],[92.06271,25.31803],[92.06905,25.31897],[92.08283,25.31261],[92.08698,25.30966],[92.09404,25.31368],[92.0956,25.31377],[92.10132,25.30734],[92.11057,25.30496],[92.11497,25.30866],[92.1169,25.31561],[92.11652,25.31993],[92.1218,25.33027],[92.12125,25.33194],[92.11708,25.33337],[92.11423,25.33886],[92.11402,25.34393],[92.11492,25.34728],[92.1116,25.35074],[92.1106,25.35297],[92.11081,25.35633],[92.1119,25.35859],[92.11306,25.36202],[92.11221,25.37296],[92.11337,25.38019],[92.11151,25.38529],[92.10383,25.39658],[92.10375,25.39837],[92.11232,25.40434],[92.11353,25.40671],[92.1144,25.41192],[92.10944,25.42694],[92.10443,25.43361],[92.1048,25.44214],[92.10076,25.44634],[92.09811,25.45196],[92.09825,25.4545],[92.10374,25.45891],[92.11119,25.4672],[92.11168,25.47165],[92.10755,25.48231],[92.09977,25.48737],[92.09827,25.49029],[92.09778,25.49391],[92.10019,25.50127],[92.10262,25.50384],[92.10093,25.51176],[92.10139,25.51426],[92.10697,25.52062],[92.11246,25.53787],[92.11497,25.54396],[92.11212,25.54922],[92.10847,25.55205],[92.10761,25.55474],[92.10818,25.56277],[92.1152,25.57578],[92.12019,25.58028],[92.12203,25.58348],[92.12241,25.59207],[92.1235,25.59543],[92.12637,25.59778],[92.12558,25.60001],[92.12237,25.6033],[92.12248,25.60475],[92.13349,25.61684],[92.14073,25.62709],[92.13714,25.63002],[92.13749,25.63625],[92.13455,25.64232],[92.13677,25.64217],[92.13921,25.64072],[92.14262,25.64083],[92.14869,25.64374],[92.15106,25.65046],[92.15523,25.64688],[92.15703,25.64882],[92.15697,25.6532],[92.15198,25.66528],[92.153,25.66838],[92.15386,25.67101],[92.15923,25.67137],[92.16051,25.67329]]]}},{"type":"Feature","properties":{"ID_0":105,"ISO":"IND","NAME_0":"India","ID_1":23,"NAME_1":"Meghalaya","ID_2":352,"NAME_2":"Ri-Bhoi","NL_NAME_2":null,"VARNAME_2":null,"TYPE_2":"District","ENGTYPE_2":"District","STATE":"Meghalaya","DISTRICT":"Ri-Bhoi"},"geometry":{"type":"Polygon","coordinates":[[[92.30158,26.07649],[92.25572,26.02893],[92.22141,26.00225],[92.22169,25.9986],[92.21919,26.00078],[92.2152,25.99627],[92.21101,25.99466],[92.20772,25.99174],[92.20912,25.98967],[92.20739,25.98823],[92.2009,25.98561],[92.19162,25.9852],[92.18098,25.97523],[92.17694,25.9731],[92.17311,25.9722],[92.1674,25.9677],[92.16555,25.96444],[92.16733,25.95876],[92.16533,25.95395],[92.16076,25.95152],[92.15632,25.9448],[92.1561,25.943],[92.15752,25.93928],[92.16142,25.93254],[92.16017,25.92596],[92.15993,25.91519],[92.1637,25.91179],[92.17432,25.90919],[92.18089,25.90859],[92.18315,25.91092],[92.18365,25.91283],[92.18672,25.91581],[92.19204,25.91578],[92.19718,25.91803],[92.19701,25.91366],[92.19773,25.91125],[92.2006,25.90824],[92.20514,25.90871],[92.20753,25.91053],[92.21753,25.90992],[92.2226,25.91132],[92.2238,25.91036],[92.22548,25.90705],[92.22504,25.90162],[92.22385,25.90069],[92.21823,25.9002],[92.21561,25.89384],[92.21286,25.89213],[92.20641,25.89145],[92.20332,25.89009],[92.19496,25.88127],[92.18694,25.87481],[92.18104,25.87162],[92.17989,25.87017],[92.1791,25.86791],[92.18079,25.86321],[92.18096,25.85136],[92.17831,25.84808],[92.17525,25.84654],[92.17144,25.83773],[92.16934,25.83534],[92.16552,25.83304],[92.16326,25.82575],[92.16309,25.82183],[92.15574,25.81659],[92.15311,25.81275],[92.15369,25.79549],[92.15117,25.78745],[92.15099,25.78365],[92.15479,25.77978],[92.15518,25.77864],[92.15421,25.77673],[92.15411,25.77292],[92.15597,25.76454],[92.15739,25.76197],[92.15824,25.7572],[92.16484,25.74475],[92.16553,25.73445],[92.16423,25.72873],[92.16093,25.72626],[92.1563,25.72481],[92.15372,25.7227],[92.15102,25.71937],[92.14957,25.71451],[92.15106,25.71183],[92.15585,25.70914],[92.15758,25.70104],[92.16105,25.69729],[92.16145,25.69598],[92.16045,25.6909],[92.16435,25.68485],[92.16547,25.67841],[92.16051,25.67329],[92.15923,25.67137],[92.15386,25.67101],[92.153,25.66838],[92.1425,25.66591],[92.12119,25.65483],[92.10669,25.64715],[92.0794,25.64289],[92.05041,25.64119],[92.02654,25.6463],[92.00436,25.64801],[91.99669,25.65483],[91.98646,25.65568],[91.97196,25.65568],[91.96599,25.65994],[91.96088,25.66506],[91.96088,25.67274],[91.95831,25.67956],[91.95576,25.68297],[91.94979,25.68638],[91.93956,25.68382],[91.93103,25.67359],[91.91909,25.6625],[91.90459,25.65994],[91.89265,25.65568],[91.88498,25.65568],[91.87901,25.6608],[91.87475,25.65994],[91.87219,25.64971],[91.86537,25.64374],[91.85429,25.64801],[91.83212,25.65056],[91.8109,25.65541],[91.80979,25.65648],[91.80923,25.65947],[91.81361,25.6629],[91.81446,25.66556],[91.82819,25.67006],[91.82963,25.67463],[91.82725,25.67842],[91.82906,25.68948],[91.82095,25.70324],[91.81638,25.70401],[91.81426,25.70625],[91.81616,25.72164],[91.81322,25.72564],[91.81236,25.73007],[91.8092,25.73408],[91.80447,25.73375],[91.79837,25.73216],[91.79195,25.73385],[91.78572,25.73259],[91.78399,25.73442],[91.78496,25.73966],[91.78085,25.73866],[91.77442,25.74057],[91.77325,25.74522],[91.76919,25.74403],[91.76621,25.75047],[91.7776,25.76333],[91.78001,25.76404],[91.78016,25.76709],[91.78925,25.78299],[91.78866,25.7915],[91.77999,25.79547],[91.77105,25.80946],[91.76157,25.81664],[91.75035,25.8279],[91.73869,25.8296],[91.72463,25.82765],[91.70805,25.82056],[91.70499,25.8134],[91.69865,25.80535],[91.68756,25.80976],[91.67247,25.81172],[91.66,25.815],[91.65709,25.81223],[91.64955,25.80918],[91.64528,25.80471],[91.64301,25.80342],[91.64082,25.80708],[91.63227,25.81053],[91.62261,25.81103],[91.61308,25.81009],[91.60058,25.81045],[91.59724,25.80588],[91.59485,25.80603],[91.59208,25.80952],[91.58752,25.81248],[91.57991,25.81103],[91.55753,25.80877],[91.5496,25.80651],[91.53791,25.79933],[91.53455,25.79936],[91.53185,25.80216],[91.50413,25.79829],[91.49699,25.79926],[91.49067,25.79708],[91.48045,25.7971],[91.47522,25.79205],[91.46764,25.78938],[91.45893,25.7889],[91.45786,25.79546],[91.45342,25.79357],[91.44614,25.79287],[91.44201,25.7956],[91.43812,25.7928],[91.43128,25.79239],[91.42305,25.79358],[91.4194,25.79717],[91.4203,25.8015],[91.41857,25.80349],[91.41354,25.8031],[91.39517,25.80552],[91.38913,25.80511],[91.38059,25.80129],[91.37188,25.80288],[91.36439,25.80701],[91.35982,25.8069],[91.35196,25.81564],[91.34212,25.82498],[91.34249,25.8361],[91.3444,25.83944],[91.34856,25.84035],[91.35331,25.83774],[91.35689,25.84146],[91.3637,25.84049],[91.3705,25.8443],[91.37687,25.84488],[91.38212,25.84694],[91.38852,25.8473],[91.40119,25.8511],[91.40509,25.84988],[91.41273,25.85392],[91.4189,25.85472],[91.4243,25.85356],[91.43085,25.84776],[91.44122,25.84163],[91.4444,25.84102],[91.4474,25.84566],[91.45496,25.85131],[91.46873,25.85903],[91.47496,25.85719],[91.4784,25.85768],[91.48304,25.8629],[91.49603,25.86234],[91.50788,25.8648],[91.51276,25.86656],[91.51912,25.87312],[91.52177,25.87435],[91.52541,25.87289],[91.52888,25.88087],[91.53262,25.88407],[91.53206,25.88815],[91.52974,25.88968],[91.52578,25.89011],[91.52222,25.88593],[91.51977,25.87802],[91.51725,25.87467],[91.51355,25.87095],[91.50778,25.86744],[91.49831,25.8672],[91.49369,25.86553],[91.47739,25.86872],[91.47476,25.87123],[91.47594,25.87804],[91.47868,25.88468],[91.48338,25.89106],[91.48853,25.89485],[91.49292,25.89558],[91.49861,25.89247],[91.50326,25.89216],[91.50115,25.89847],[91.50854,25.90976],[91.52478,25.92079],[91.53133,25.92371],[91.5359,25.934],[91.5217,25.92485],[91.51685,25.92002],[91.51078,25.91543],[91.50558,25.91308],[91.50334,25.91432],[91.50163,25.92076],[91.51629,25.93833],[91.51978,25.94089],[91.51819,25.9528],[91.5185,25.95815],[91.5238,25.95941],[91.52585,25.96132],[91.53241,25.96224],[91.53717,25.9621],[91.53728,25.96839],[91.54894,25.9751],[91.55126,25.9749],[91.55484,25.98661],[91.56537,26.00184],[91.56609,26.00376],[91.56513,26.00751],[91.5686,26.01195],[91.56972,26.01684],[91.56881,26.02174],[91.57003,26.02748],[91.57584,26.03311],[91.5841,26.03198],[91.58813,26.03015],[91.59706,26.01706],[91.59681,26.0208],[91.60187,26.02263],[91.61655,26.02472],[91.62029,26.02703],[91.62611,26.02397],[91.63216,26.02241],[91.6334,26.01785],[91.6321,26.01396],[91.63303,26.00491],[91.63207,26.00187],[91.63045,25.99983],[91.62672,25.99765],[91.62867,25.99513],[91.62472,25.9859],[91.62679,25.98239],[91.62802,25.97697],[91.63214,25.97079],[91.63795,25.96485],[91.63409,25.9605],[91.63012,25.94464],[91.62463,25.94597],[91.61093,25.9446],[91.61115,25.93992],[91.62276,25.93099],[91.63283,25.92577],[91.64792,25.91374],[91.65149,25.90767],[91.65688,25.90788],[91.66194,25.90988],[91.66724,25.90819],[91.66931,25.90539],[91.67599,25.91183],[91.6786,25.91732],[91.68642,25.92125],[91.69232,25.9291],[91.70197,25.93793],[91.70091,25.94189],[91.70817,25.94437],[91.71394,25.94723],[91.72018,25.95407],[91.72163,25.96508],[91.71978,25.9783],[91.72117,26.00184],[91.72276,26.0198],[91.72466,26.02726],[91.72318,26.03032],[91.72641,26.04691],[91.73296,26.05103],[91.73459,26.05664],[91.73126,26.05921],[91.75948,26.07129],[91.77852,26.09125],[91.78043,26.0883],[91.78458,26.08658],[91.79037,26.08702],[91.80179,26.10494],[91.80806,26.10382],[91.81081,26.10517],[91.81556,26.11144],[91.81931,26.11874],[91.82655,26.11814],[91.85384,26.10479],[91.8647,26.10035],[91.87579,26.09773],[91.87524,26.08456],[91.86935,26.05686],[91.87016,26.05219],[91.88323,26.03],[91.89195,26.02955],[91.90092,26.02627],[91.90746,26.02711],[91.91165,26.02383],[91.91697,26.02146],[91.91685,26.01376],[91.91566,26.01033],[91.91872,26.00724],[91.91953,26.00159],[91.91957,26.00013],[91.9221,25.99953],[91.92583,25.99974],[91.92681,26.00161],[91.93397,26.01467],[91.94129,26.014],[91.94632,26.0145],[91.95242,26.01781],[91.95782,26.01889],[91.97817,26.02585],[91.98423,26.03054],[91.9874,26.03872],[91.99107,26.04103],[91.99765,26.03884],[92.00044,26.03918],[92.00338,26.03803],[92.00818,26.03945],[92.01762,26.03959],[92.02219,26.03926],[92.02387,26.03843],[92.02789,26.0399],[92.03475,26.03969],[92.0361,26.0394],[92.03961,26.03622],[92.05019,26.03304],[92.05286,26.03283],[92.06322,26.03472],[92.07046,26.03785],[92.07363,26.04028],[92.07883,26.04178],[92.08113,26.04362],[92.09336,26.04852],[92.10889,26.04971],[92.11623,26.04655],[92.12338,26.04489],[92.12702,26.0459],[92.13312,26.04589],[92.13817,26.05282],[92.14378,26.05764],[92.14622,26.05856],[92.14899,26.06163],[92.15052,26.0649],[92.15468,26.06806],[92.16909,26.07759],[92.17831,26.07951],[92.18095,26.07618],[92.17889,26.06921],[92.18044,26.0685],[92.18233,26.07034],[92.1846,26.06919],[92.18835,26.06887],[92.18937,26.06688],[92.20182,26.07002],[92.20827,26.06857],[92.20934,26.06919],[92.20881,26.07066],[92.21043,26.0711],[92.21201,26.07097],[92.21356,26.06968],[92.21611,26.0693],[92.21835,26.07015],[92.22834,26.06764],[92.24117,26.06254],[92.25146,26.06436],[92.26569,26.0654],[92.26865,26.06795],[92.27232,26.0666],[92.27373,26.06589],[92.27369,26.06502],[92.28073,26.06919],[92.28806,26.06999],[92.29015,26.0728],[92.29005,26.07379],[92.29392,26.07779],[92.29598,26.07889],[92.29732,26.07915],[92.29967,26.07673],[92.30158,26.07649]]]}},{"type":"Feature","properties":{"ID_0":105,"ISO":"IND","NAME_0":"India","ID_1":23,"NAME_1":"Meghalaya","ID_2":353,"NAME_2":"South Garo Hills","NL_NAME_2":null,"VARNAME_2":null,"TYPE_2":"District","ENGTYPE_2":"District","STATE":"Meghalaya","DISTRICT":"South Garo Hills"},"geometry":{"type":"Polygon","coordinates":[[[90.33495,25.46011],[90.34877,25.45914],[90.35592,25.45754],[90.365,25.45425],[90.40475,25.45805],[90.4355,25.45341],[90.44619,25.45087],[90.46008,25.45092],[90.47569,25.4535],[90.48619,25.44648],[90.50167,25.43831],[90.51859,25.433],[90.55156,25.43329],[90.57114,25.4274],[90.57979,25.42112],[90.60489,25.42459],[90.63166,25.41848],[90.63951,25.4151],[90.64446,25.41577],[90.6554,25.43788],[90.65887,25.45201],[90.67896,25.48137],[90.70166,25.507],[90.73016,25.53299],[90.74989,25.54762],[90.75869,25.55178],[90.76641,25.55417],[90.7644,25.55075],[90.76844,25.5437],[90.77738,25.54063],[90.78049,25.53572],[90.78111,25.52686],[90.78767,25.51096],[90.79024,25.50769],[90.78898,25.50203],[90.78932,25.49625],[90.79248,25.49054],[90.79188,25.48606],[90.78707,25.47922],[90.77451,25.47558],[90.772,25.47196],[90.77387,25.46852],[90.78159,25.46929],[90.78519,25.46819],[90.78449,25.46434],[90.77715,25.45301],[90.76545,25.4559],[90.75928,25.45489],[90.75742,25.45121],[90.7604,25.4493],[90.76177,25.44609],[90.75774,25.43967],[90.75745,25.43173],[90.75961,25.42556],[90.76365,25.42066],[90.76344,25.41273],[90.76205,25.40497],[90.7628,25.39773],[90.75087,25.39175],[90.74915,25.38721],[90.74937,25.38044],[90.7566,25.3762],[90.75912,25.37119],[90.7649,25.36776],[90.78342,25.36511],[90.79052,25.36967],[90.79818,25.36813],[90.80615,25.36802],[90.81252,25.3646],[90.81445,25.36041],[90.81927,25.35901],[90.82351,25.35937],[90.83103,25.35752],[90.83739,25.35777],[90.84186,25.35136],[90.83822,25.34057],[90.8399,25.33614],[90.84004,25.31242],[90.84451,25.30699],[90.85267,25.3013],[90.85435,25.29728],[90.85744,25.29327],[90.86431,25.29358],[90.87652,25.29237],[90.8918,25.29551],[90.9009,25.29657],[90.91486,25.28565],[90.91982,25.27481],[90.926,25.26695],[90.93706,25.26224],[90.94573,25.26067],[90.95235,25.25611],[90.95924,25.24642],[90.95991,25.23447],[90.95792,25.23076],[90.95331,25.22802],[90.95377,25.22221],[90.95025,25.21829],[90.95027,25.21456],[90.95605,25.21189],[90.9598,25.20373],[90.96909,25.20103],[90.97201,25.1914],[90.97021,25.17237],[90.97045,25.17137],[90.9702,25.17133],[90.96902,25.16968],[90.96852,25.16884],[90.96658,25.16922],[90.96293,25.16825],[90.95849,25.16771],[90.95298,25.16745],[90.94804,25.16544],[90.94328,25.16336],[90.94318,25.16331],[90.93663,25.16188],[90.92986,25.16056],[90.92411,25.16059],[90.91837,25.16061],[90.9118,25.15981],[90.90787,25.15972],[90.90401,25.16163],[90.90206,25.16324],[90.90084,25.16399],[90.89968,25.1647],[90.89903,25.16445],[90.89481,25.1628],[90.88569,25.16426],[90.87935,25.16115],[90.87583,25.15835],[90.87091,25.15874],[90.86696,25.15612],[90.86359,25.15785],[90.85835,25.15585],[90.85354,25.15577],[90.84995,25.15666],[90.84342,25.15922],[90.84029,25.15899],[90.8367,25.15974],[90.82726,25.16092],[90.82446,25.16113],[90.8236,25.16284],[90.82236,25.16533],[90.81982,25.16588],[90.81713,25.16419],[90.81441,25.1625],[90.80851,25.16523],[90.80914,25.16708],[90.80982,25.16908],[90.81046,25.1717],[90.80721,25.17118],[90.80424,25.17203],[90.8011,25.17546],[90.80021,25.17825],[90.79828,25.17854],[90.79641,25.178],[90.79526,25.17767],[90.79237,25.17725],[90.78878,25.17817],[90.78668,25.18077],[90.78595,25.18264],[90.78542,25.18397],[90.78385,25.18293],[90.7812,25.18118],[90.77854,25.17978],[90.77446,25.179],[90.77197,25.17788],[90.76971,25.17686],[90.76724,25.1739],[90.76524,25.1719],[90.76394,25.16999],[90.76537,25.16837],[90.76586,25.16781],[90.7645,25.16624],[90.76291,25.16645],[90.75797,25.1671],[90.75473,25.16471],[90.75446,25.16451],[90.75101,25.16406],[90.7503,25.16472],[90.74727,25.16751],[90.74469,25.16519],[90.74174,25.1648],[90.74037,25.16464],[90.7398,25.16231],[90.74037,25.16222],[90.7429,25.1618],[90.74585,25.16038],[90.74641,25.1587],[90.74535,25.15661],[90.74218,25.15678],[90.73928,25.15443],[90.73862,25.15451],[90.73646,25.15542],[90.73361,25.15804],[90.73284,25.16133],[90.7299,25.16298],[90.72715,25.16267],[90.72601,25.16218],[90.72188,25.16553],[90.71991,25.16652],[90.71653,25.16606],[90.71483,25.16429],[90.71446,25.16389],[90.71416,25.16201],[90.71179,25.16031],[90.71027,25.16212],[90.70975,25.16273],[90.70812,25.16278],[90.70739,25.16108],[90.70718,25.16059],[90.70583,25.15706],[90.7044,25.15527],[90.69902,25.15951],[90.69892,25.15959],[90.69831,25.16196],[90.69536,25.16349],[90.69259,25.16261],[90.68764,25.16621],[90.68916,25.16857],[90.69273,25.17075],[90.69282,25.17167],[90.68984,25.17205],[90.68606,25.17093],[90.68339,25.17129],[90.67931,25.17045],[90.67851,25.1687],[90.67776,25.16706],[90.67553,25.16535],[90.67301,25.16664],[90.6726,25.16898],[90.67233,25.17056],[90.67202,25.17666],[90.67321,25.18092],[90.67212,25.18377],[90.67139,25.1866],[90.67122,25.19086],[90.67114,25.1943],[90.67117,25.19729],[90.66862,25.19536],[90.66792,25.19097],[90.66699,25.18749],[90.665,25.18555],[90.66369,25.18546],[90.66262,25.1854],[90.66064,25.18581],[90.65814,25.18365],[90.65668,25.18077],[90.65253,25.18188],[90.65094,25.1828],[90.65057,25.18268],[90.64829,25.18197],[90.64768,25.18031],[90.647,25.17851],[90.64832,25.1768],[90.64878,25.17334],[90.64233,25.17459],[90.63972,25.17329],[90.63688,25.17218],[90.63391,25.17243],[90.63333,25.17247],[90.62743,25.173],[90.62592,25.17237],[90.6234,25.17583],[90.62036,25.17432],[90.61618,25.17842],[90.6134,25.17535],[90.60954,25.17525],[90.60482,25.17609],[90.60018,25.17549],[90.59644,25.17567],[90.5937,25.17381],[90.59204,25.17289],[90.59108,25.17283],[90.58732,25.17338],[90.58557,25.17298],[90.58494,25.1724],[90.58377,25.17132],[90.58282,25.17077],[90.57972,25.17203],[90.57851,25.17253],[90.57596,25.17295],[90.57359,25.17302],[90.57192,25.17144],[90.57147,25.17102],[90.57059,25.17131],[90.5687,25.17192],[90.56377,25.1719],[90.56077,25.17177],[90.55929,25.17411],[90.55571,25.17355],[90.55315,25.17322],[90.55035,25.17371],[90.54536,25.17368],[90.54072,25.17293],[90.53617,25.17307],[90.53201,25.1736],[90.52849,25.17274],[90.52479,25.172],[90.52121,25.17372],[90.5193,25.17407],[90.5167,25.17507],[90.51664,25.17059],[90.51574,25.16982],[90.51189,25.1704],[90.50812,25.17138],[90.5026,25.16639],[90.49757,25.16506],[90.49609,25.16356],[90.49572,25.16318],[90.49403,25.16144],[90.48788,25.16003],[90.48443,25.15909],[90.4763,25.15689],[90.4651,25.15328],[90.45964,25.15225],[90.4594,25.15181],[90.45792,25.14897],[90.45658,25.14597],[90.45498,25.14443],[90.45236,25.1445],[90.44837,25.14552],[90.44753,25.14574],[90.44389,25.14717],[90.44056,25.14825],[90.43585,25.14909],[90.43146,25.15037],[90.42838,25.1515],[90.42405,25.15296],[90.42155,25.1547],[90.41863,25.15737],[90.41639,25.15933],[90.41447,25.16002],[90.40975,25.16069],[90.4065,25.16062],[90.40283,25.16119],[90.39744,25.16205],[90.39246,25.16249],[90.38673,25.16261],[90.38274,25.16307],[90.37955,25.16426],[90.37502,25.16744],[90.3702,25.17122],[90.36492,25.17406],[90.36031,25.17644],[90.355,25.18011],[90.35069,25.18443],[90.34755,25.18802],[90.34507,25.19085],[90.34153,25.1935],[90.33737,25.19419],[90.33282,25.1941],[90.32874,25.19365],[90.32516,25.19284],[90.32143,25.191],[90.31808,25.18966],[90.31303,25.19154],[90.30875,25.19265],[90.30503,25.19322],[90.30188,25.19423],[90.2981,25.19543],[90.2949,25.19668],[90.29073,25.19721],[90.28646,25.1982],[90.28448,25.19871],[90.28175,25.1996],[90.27872,25.20021],[90.27756,25.20007],[90.27756,25.20332],[90.26714,25.21089],[90.26525,25.21562],[90.26809,25.22319],[90.27471,25.23077],[90.28134,25.24213],[90.28607,25.25917],[90.28702,25.27052],[90.28702,25.27431],[90.28702,25.27715],[90.28607,25.28283],[90.28323,25.28662],[90.27945,25.29041],[90.27756,25.29703],[90.27756,25.30461],[90.27756,25.31312],[90.28323,25.3207],[90.28796,25.32543],[90.2927,25.333],[90.29932,25.34436],[90.30501,25.35478],[90.31258,25.35951],[90.32204,25.36424],[90.32867,25.36992],[90.32867,25.37466],[90.32204,25.38223],[90.32204,25.39075],[90.32204,25.404],[90.32204,25.41063],[90.32204,25.42199],[90.32488,25.43335],[90.3334,25.45701],[90.33495,25.46011]]]}},{"type":"Feature","properties":{"ID_0":105,"ISO":"IND","NAME_0":"India","ID_1":23,"NAME_1":"Meghalaya","ID_2":354,"NAME_2":"West Garo Hills","NL_NAME_2":null,"VARNAME_2":null,"TYPE_2":"District","ENGTYPE_2":"District","STATE":"Meghalaya","DISTRICT":"West Garo Hills"},"geometry":{"type":"Polygon","coordinates":[[[89.8701,25.54422],[89.8738,25.54928],[89.87759,25.54893],[89.88636,25.55787],[89.90441,25.5595],[89.9181,25.56263],[89.92606,25.56353],[89.93584,25.56271],[89.94164,25.56762],[89.94938,25.56825],[89.95676,25.57046],[89.96646,25.5717],[89.97281,25.57461],[89.97505,25.58351],[89.97916,25.59073],[89.9895,25.58881],[89.99536,25.58635],[90.00212,25.58419],[90.00582,25.58837],[90.01106,25.59835],[90.0173,25.60219],[90.01844,25.60839],[90.00454,25.62382],[90.00138,25.62443],[89.99934,25.62185],[89.99529,25.62303],[89.98332,25.62671],[89.98231,25.62843],[89.98044,25.63757],[89.94695,25.65883],[89.94185,25.67365],[89.94173,25.67812],[89.937,25.68663],[89.93235,25.68996],[89.92113,25.69442],[89.91955,25.69677],[89.9185,25.70269],[89.91428,25.70401],[89.91264,25.70706],[89.90488,25.71478],[89.89424,25.72724],[89.89262,25.735],[89.89542,25.74412],[89.89909,25.74405],[89.91138,25.74157],[89.91614,25.73919],[89.92187,25.73917],[89.92794,25.74135],[89.93351,25.74455],[89.93465,25.74754],[89.93372,25.75253],[89.94352,25.76054],[89.94669,25.76472],[89.95239,25.77017],[89.95525,25.77446],[89.95502,25.78164],[89.95261,25.78342],[89.95081,25.79198],[89.952,25.81091],[89.94936,25.81442],[89.94562,25.8161],[89.94582,25.82023],[89.94458,25.82448],[89.95057,25.82487],[89.95887,25.82657],[89.96796,25.82615],[89.97355,25.82814],[89.9759,25.83404],[89.99081,25.83551],[89.99471,25.83876],[89.9978,25.83967],[90.0016,25.84224],[89.99983,25.84369],[89.99744,25.84421],[89.99757,25.8467],[90.00027,25.8486],[90.00832,25.84683],[90.01152,25.84967],[90.02077,25.86161],[90.02192,25.86553],[90.02138,25.86849],[90.01872,25.87137],[90.01437,25.87179],[90.00977,25.87573],[90.00474,25.87868],[90.01525,25.88862],[90.02126,25.89319],[90.02792,25.89431],[90.03451,25.89351],[90.0421,25.89075],[90.05219,25.89869],[90.05508,25.90809],[90.05892,25.91027],[90.06331,25.91555],[90.06762,25.91616],[90.07243,25.91934],[90.07797,25.91768],[90.07945,25.91928],[90.08073,25.92453],[90.08739,25.92627],[90.09193,25.92876],[90.08796,25.9362],[90.09612,25.93952],[90.09914,25.93926],[90.10052,25.94207],[90.10537,25.94193],[90.10789,25.95059],[90.11092,25.95411],[90.13503,25.93421],[90.15063,25.92369],[90.15859,25.91369],[90.16952,25.90822],[90.18088,25.90099],[90.22433,25.92539],[90.29217,25.93228],[90.31654,25.92972],[90.32808,25.93047],[90.3605,25.94113],[90.38038,25.9463],[90.39578,25.94941],[90.42182,25.95291],[90.4137,25.92239],[90.38159,25.86756],[90.38313,25.8407],[90.37917,25.83422],[90.36703,25.83089],[90.34862,25.83179],[90.34155,25.82796],[90.3381,25.80453],[90.33993,25.80215],[90.3746,25.80267],[90.39096,25.79865],[90.39365,25.7937],[90.39886,25.76705],[90.4062,25.75056],[90.43745,25.70363],[90.44104,25.69582],[90.43213,25.6798],[90.43181,25.67197],[90.41657,25.6322],[90.41138,25.61109],[90.40618,25.60034],[90.40256,25.55134],[90.34376,25.49386],[90.33109,25.4841],[90.32218,25.47343],[90.31948,25.46536],[90.33083,25.4604],[90.33495,25.46011],[90.3334,25.45701],[90.32488,25.43335],[90.32204,25.42199],[90.32204,25.41063],[90.32204,25.404],[90.32204,25.39075],[90.32204,25.38223],[90.32867,25.37466],[90.32867,25.36992],[90.32204,25.36424],[90.31258,25.35951],[90.30501,25.35478],[90.29932,25.34436],[90.2927,25.333],[90.28796,25.32543],[90.28323,25.3207],[90.27756,25.31312],[90.27756,25.30461],[90.27756,25.29703],[90.27945,25.29041],[90.28323,25.28662],[90.28607,25.28283],[90.28702,25.27715],[90.28702,25.27431],[90.28702,25.27052],[90.28607,25.25917],[90.28134,25.24213],[90.27471,25.23077],[90.26809,25.22319],[90.26525,25.21562],[90.26714,25.21089],[90.27756,25.20332],[90.27756,25.20007],[90.27577,25.19984],[90.26819,25.19986],[90.26453,25.19984],[90.26123,25.20126],[90.25983,25.20294],[90.25568,25.20311],[90.25302,25.20295],[90.24807,25.20384],[90.24486,25.20582],[90.24141,25.20683],[90.23737,25.20665],[90.23425,25.2056],[90.2306,25.20352],[90.22858,25.20342],[90.22683,25.2062],[90.22536,25.2076],[90.22253,25.20797],[90.21912,25.20773],[90.21525,25.20892],[90.21258,25.21039],[90.20543,25.21162],[90.20235,25.21194],[90.19828,25.21313],[90.19465,25.21593],[90.19158,25.21683],[90.18903,25.21806],[90.18562,25.22011],[90.18307,25.22129],[90.1749,25.22402],[90.16653,25.22463],[90.15828,25.2253],[90.1528,25.22548],[90.1432,25.22507],[90.13497,25.2259],[90.1288,25.22649],[90.11958,25.22555],[90.1152,25.22692],[90.1095,25.23043],[90.10229,25.2366],[90.09933,25.23869],[90.09241,25.241],[90.08575,25.24246],[90.08071,25.24486],[90.07589,25.24842],[90.07133,25.25191],[90.06743,25.25471],[90.06295,25.25918],[90.05978,25.26294],[90.05691,25.26406],[90.05313,25.26422],[90.04841,25.26454],[90.043,25.26524],[90.03898,25.26563],[90.03435,25.26699],[90.02435,25.27284],[90.02121,25.27522],[90.01511,25.27833],[90.00828,25.28242],[90.00552,25.28314],[90.00219,25.28116],[89.99929,25.27901],[89.9957,25.27927],[89.99034,25.28082],[89.98595,25.28236],[89.98348,25.28456],[89.98362,25.28709],[89.98344,25.29203],[89.98219,25.2948],[89.97988,25.29821],[89.97549,25.30135],[89.97124,25.30306],[89.96716,25.30333],[89.96367,25.3029],[89.96056,25.30213],[89.95659,25.29994],[89.95616,25.29931],[89.95468,25.29719],[89.95338,25.29565],[89.95093,25.29591],[89.94859,25.29817],[89.94857,25.29941],[89.94852,25.30271],[89.94862,25.30397],[89.94372,25.30224],[89.94102,25.3006],[89.93673,25.30058],[89.93393,25.30199],[89.9311,25.3023],[89.92686,25.30429],[89.92361,25.3053],[89.92049,25.30642],[89.91786,25.30742],[89.91467,25.30837],[89.91126,25.30869],[89.90638,25.30742],[89.90516,25.30632],[89.90165,25.30321],[89.89413,25.29536],[89.88969,25.28988],[89.88642,25.28779],[89.88148,25.28703],[89.8759,25.2873],[89.87206,25.28821],[89.86759,25.28842],[89.86452,25.28782],[89.86388,25.28782],[89.86056,25.2878],[89.85686,25.28846],[89.85337,25.2901],[89.85088,25.29133],[89.84767,25.29188],[89.84361,25.29305],[89.84316,25.29318],[89.83427,25.29567],[89.83732,25.29869],[89.83888,25.30068],[89.84022,25.3036],[89.84109,25.30531],[89.84293,25.3061],[89.84485,25.30683],[89.84665,25.30825],[89.8474,25.31025],[89.84605,25.31423],[89.84486,25.31499],[89.84055,25.3164],[89.83914,25.31696],[89.83806,25.3174],[89.83541,25.31966],[89.83473,25.323],[89.83493,25.32481],[89.83506,25.32598],[89.83533,25.32861],[89.837,25.33241],[89.83692,25.33423],[89.83308,25.34127],[89.82964,25.3455],[89.82755,25.3473],[89.82551,25.34921],[89.82508,25.35197],[89.82449,25.35358],[89.82246,25.35572],[89.82203,25.3586],[89.82285,25.36095],[89.82388,25.36414],[89.82425,25.3661],[89.82375,25.36875],[89.82313,25.37645],[89.82229,25.37886],[89.82177,25.38255],[89.82166,25.38536],[89.8228,25.38805],[89.82424,25.39005],[89.82645,25.39238],[89.82802,25.39461],[89.82906,25.39787],[89.8303,25.40188],[89.83054,25.40383],[89.8299,25.40636],[89.8289,25.4089],[89.82868,25.41264],[89.82988,25.41347],[89.83303,25.41523],[89.83314,25.41751],[89.83387,25.42369],[89.83546,25.42855],[89.83775,25.4338],[89.83984,25.43856],[89.84228,25.44186],[89.84515,25.445],[89.8466,25.44861],[89.84821,25.45177],[89.85237,25.45642],[89.85531,25.45967],[89.85667,25.46249],[89.85699,25.46606],[89.85596,25.46818],[89.85507,25.47075],[89.8548,25.47309],[89.85511,25.47605],[89.85957,25.47339],[89.86403,25.47286],[89.86871,25.47636],[89.87176,25.4789],[89.87996,25.48864],[89.88004,25.4956],[89.87559,25.50547],[89.87385,25.51356],[89.87032,25.52149],[89.87566,25.52853],[89.87118,25.53695],[89.87145,25.5373],[89.87456,25.54156],[89.87395,25.54194],[89.874,25.54206],[89.87406,25.5429],[89.8701,25.54422]]]}},{"type":"Feature","properties":{"ID_0":105,"ISO":"IND","NAME_0":"India","ID_1":23,"NAME_1":"Meghalaya","ID_2":355,"NAME_2":"West Khasi Hills","NL_NAME_2":null,"VARNAME_2":null,"TYPE_2":"District","ENGTYPE_2":"District","STATE":"Meghalaya","DISTRICT":"West Khasi Hills"},"geometry":{"type":"Polygon","coordinates":[[[91.34249,25.8361],[91.34212,25.82498],[91.35196,25.81564],[91.35982,25.8069],[91.36439,25.80701],[91.37188,25.80288],[91.38059,25.80129],[91.38913,25.80511],[91.39517,25.80552],[91.41354,25.8031],[91.41857,25.80349],[91.4203,25.8015],[91.4194,25.79717],[91.42305,25.79358],[91.43128,25.79239],[91.43812,25.7928],[91.44201,25.7956],[91.44614,25.79287],[91.45342,25.79357],[91.45786,25.79546],[91.45893,25.7889],[91.46764,25.78938],[91.47522,25.79205],[91.48045,25.7971],[91.49067,25.79708],[91.49699,25.79926],[91.50413,25.79829],[91.53185,25.80216],[91.53455,25.79936],[91.53791,25.79933],[91.5496,25.80651],[91.55753,25.80877],[91.57991,25.81103],[91.58752,25.81248],[91.59208,25.80952],[91.59485,25.80603],[91.59724,25.80588],[91.60058,25.81045],[91.61308,25.81009],[91.62261,25.81103],[91.63227,25.81053],[91.64082,25.80708],[91.64301,25.80342],[91.64528,25.80471],[91.64955,25.80918],[91.65709,25.81223],[91.66,25.815],[91.67247,25.81172],[91.68756,25.80976],[91.69865,25.80535],[91.70499,25.8134],[91.70805,25.82056],[91.72463,25.82765],[91.73869,25.8296],[91.75035,25.8279],[91.76157,25.81664],[91.77105,25.80946],[91.77999,25.79547],[91.78866,25.7915],[91.78925,25.78299],[91.78016,25.76709],[91.78001,25.76404],[91.7776,25.76333],[91.76621,25.75047],[91.76919,25.74403],[91.77325,25.74522],[91.77442,25.74057],[91.78085,25.73866],[91.78496,25.73966],[91.78399,25.73442],[91.78572,25.73259],[91.79195,25.73385],[91.79837,25.73216],[91.80447,25.73375],[91.8092,25.73408],[91.81236,25.73007],[91.81322,25.72564],[91.81616,25.72164],[91.81426,25.70625],[91.81638,25.70401],[91.82095,25.70324],[91.82906,25.68948],[91.82725,25.67842],[91.82963,25.67463],[91.82819,25.67006],[91.81446,25.66556],[91.81361,25.6629],[91.80923,25.65947],[91.80979,25.65648],[91.8109,25.65541],[91.81235,25.65402],[91.80919,25.64289],[91.80844,25.63615],[91.8,25.62849],[91.7992,25.62503],[91.7988,25.61974],[91.8013,25.61462],[91.8009,25.61031],[91.78605,25.59604],[91.78205,25.59037],[91.77508,25.58946],[91.77219,25.58616],[91.74057,25.57441],[91.73423,25.57585],[91.73329,25.56733],[91.73053,25.56403],[91.72437,25.56496],[91.72157,25.56126],[91.71587,25.55949],[91.7142,25.55395],[91.69973,25.54682],[91.69711,25.54334],[91.70126,25.5341],[91.69893,25.53207],[91.6947,25.53083],[91.69011,25.52659],[91.68202,25.52387],[91.67118,25.52265],[91.66557,25.52697],[91.6596,25.52859],[91.65859,25.5416],[91.65474,25.55251],[91.64058,25.5494],[91.63482,25.54947],[91.63387,25.54618],[91.63012,25.54189],[91.62368,25.53868],[91.62164,25.54124],[91.61395,25.54251],[91.60766,25.53699],[91.5826,25.52117],[91.56289,25.51663],[91.54963,25.51502],[91.5481,25.51103],[91.54257,25.51162],[91.54444,25.50346],[91.54207,25.49906],[91.54263,25.49635],[91.54681,25.49439],[91.55003,25.48958],[91.5504,25.4776],[91.55215,25.47479],[91.55714,25.4533],[91.55763,25.44555],[91.55511,25.43912],[91.55743,25.43569],[91.55694,25.42936],[91.54976,25.42365],[91.54745,25.41982],[91.54765,25.41372],[91.54336,25.40701],[91.54176,25.40143],[91.54176,25.38966],[91.53857,25.37972],[91.54015,25.37428],[91.53872,25.37029],[91.5307,25.3568],[91.52618,25.3544],[91.52541,25.34933],[91.52608,25.34479],[91.53047,25.34327],[91.54055,25.3357],[91.5472,25.33438],[91.55085,25.33065],[91.54951,25.32679],[91.55343,25.32085],[91.55015,25.31269],[91.55359,25.30513],[91.55164,25.30091],[91.54903,25.28735],[91.5448,25.27989],[91.5337,25.27685],[91.52866,25.28055],[91.52342,25.27907],[91.49695,25.28372],[91.49002,25.27928],[91.48858,25.27161],[91.48557,25.2653],[91.47994,25.26376],[91.47474,25.26584],[91.47337,25.2698],[91.4685,25.27155],[91.46319,25.2689],[91.45114,25.27236],[91.43929,25.27328],[91.4238,25.2622],[91.41319,25.26526],[91.40868,25.26406],[91.40362,25.26391],[91.39944,25.25667],[91.39553,25.25162],[91.38837,25.24614],[91.38644,25.23979],[91.37646,25.24401],[91.37204,25.24298],[91.36605,25.23492],[91.35867,25.23548],[91.35534,25.23435],[91.35476,25.22934],[91.36402,25.20547],[91.38084,25.17702],[91.38922,25.17052],[91.38883,25.1664],[91.38852,25.16632],[91.38672,25.16589],[91.38132,25.16642],[91.3776,25.16649],[91.37529,25.16715],[91.37331,25.16963],[91.37294,25.17059],[91.37192,25.17324],[91.37049,25.17524],[91.36805,25.17561],[91.36672,25.17476],[91.36558,25.17403],[91.3599,25.17015],[91.35852,25.17043],[91.35696,25.17215],[91.35462,25.17212],[91.35032,25.17175],[91.3464,25.17172],[91.34232,25.17226],[91.34064,25.17278],[91.34015,25.17366],[91.33959,25.17465],[91.33673,25.17555],[91.33448,25.17609],[91.33168,25.17821],[91.32815,25.18093],[91.32632,25.18235],[91.32256,25.18316],[91.31871,25.18324],[91.31201,25.18313],[91.30772,25.18299],[91.30396,25.18358],[91.30052,25.1841],[91.2949,25.18579],[91.29438,25.18626],[91.29339,25.18716],[91.29614,25.18953],[91.29758,25.19063],[91.29362,25.19346],[91.29055,25.19441],[91.28751,25.19534],[91.28262,25.19752],[91.27997,25.19864],[91.27753,25.20056],[91.27557,25.20344],[91.27379,25.20431],[91.26966,25.20382],[91.26581,25.20246],[91.26376,25.20058],[91.26118,25.19952],[91.25881,25.19874],[91.25799,25.19618],[91.25574,25.19511],[91.25155,25.19462],[91.24485,25.19445],[91.24216,25.19625],[91.24088,25.19686],[91.2403,25.19714],[91.23991,25.19691],[91.23802,25.19577],[91.23541,25.19534],[91.23354,25.19552],[91.23139,25.19703],[91.22512,25.19811],[91.22166,25.19834],[91.21551,25.19912],[91.21016,25.19948],[91.20353,25.19976],[91.19904,25.19957],[91.19573,25.19882],[91.18997,25.19712],[91.18353,25.1959],[91.17736,25.19484],[91.17216,25.19433],[91.16527,25.19423],[91.16055,25.19443],[91.15608,25.19608],[91.15251,25.19556],[91.14577,25.1949],[91.1442,25.19475],[91.13828,25.19357],[91.13202,25.19332],[91.12754,25.19336],[91.12119,25.19391],[91.11598,25.19483],[91.10876,25.19593],[91.10775,25.19612],[91.10426,25.19677],[91.0996,25.19715],[91.09499,25.19702],[91.09049,25.19665],[91.08646,25.19678],[91.0825,25.19749],[91.0799,25.19717],[91.0786,25.19641],[91.07672,25.19355],[91.07093,25.19139],[91.06737,25.19081],[91.06432,25.1904],[91.05984,25.19049],[91.05921,25.18901],[91.05593,25.1878],[91.05224,25.1885],[91.04986,25.18754],[91.04633,25.18754],[91.04485,25.18702],[91.04287,25.1852],[91.03724,25.18485],[91.03362,25.1844],[91.02953,25.18482],[91.02773,25.18533],[91.02552,25.18398],[91.02308,25.18164],[91.01952,25.18101],[91.01457,25.1806],[91.0107,25.18021],[91.00793,25.18013],[91.00524,25.17953],[91.00168,25.17752],[90.99781,25.17552],[90.99263,25.17414],[90.98698,25.17339],[90.9821,25.17293],[90.97359,25.17188],[90.97045,25.17137],[90.97021,25.17237],[90.97201,25.1914],[90.96909,25.20103],[90.9598,25.20373],[90.95605,25.21189],[90.95027,25.21456],[90.95025,25.21829],[90.95377,25.22221],[90.95331,25.22802],[90.95792,25.23076],[90.95991,25.23447],[90.95924,25.24642],[90.95235,25.25611],[90.94573,25.26067],[90.93706,25.26224],[90.926,25.26695],[90.91982,25.27481],[90.91486,25.28565],[90.9009,25.29657],[90.8918,25.29551],[90.87652,25.29237],[90.86431,25.29358],[90.85744,25.29327],[90.85435,25.29728],[90.85267,25.3013],[90.84451,25.30699],[90.84004,25.31242],[90.8399,25.33614],[90.83822,25.34057],[90.84186,25.35136],[90.83739,25.35777],[90.83103,25.35752],[90.82351,25.35937],[90.81927,25.35901],[90.81445,25.36041],[90.81252,25.3646],[90.80615,25.36802],[90.79818,25.36813],[90.79052,25.36967],[90.78342,25.36511],[90.7649,25.36776],[90.75912,25.37119],[90.7566,25.3762],[90.74937,25.38044],[90.74915,25.38721],[90.75087,25.39175],[90.7628,25.39773],[90.76205,25.40497],[90.76344,25.41273],[90.76365,25.42066],[90.75961,25.42556],[90.75745,25.43173],[90.75774,25.43967],[90.76177,25.44609],[90.7604,25.4493],[90.75742,25.45121],[90.75928,25.45489],[90.76545,25.4559],[90.77715,25.45301],[90.78449,25.46434],[90.78519,25.46819],[90.78159,25.46929],[90.77387,25.46852],[90.772,25.47196],[90.77451,25.47558],[90.78707,25.47922],[90.79188,25.48606],[90.79248,25.49054],[90.78932,25.49625],[90.78898,25.50203],[90.79024,25.50769],[90.78767,25.51096],[90.78111,25.52686],[90.78049,25.53572],[90.77738,25.54063],[90.76844,25.5437],[90.7644,25.55075],[90.76641,25.55417],[90.76721,25.55758],[90.76643,25.5619],[90.77187,25.56815],[90.77288,25.57398],[90.77648,25.57918],[90.77888,25.58548],[90.78405,25.58275],[90.7896,25.57225],[90.79283,25.57256],[90.79422,25.57763],[90.79974,25.58167],[90.80159,25.58628],[90.80835,25.5839],[90.81019,25.57847],[90.81237,25.57703],[90.8166,25.57912],[90.81741,25.58601],[90.82988,25.58999],[90.83775,25.58813],[90.84332,25.59099],[90.84912,25.59065],[90.86234,25.60052],[90.86724,25.60116],[90.87211,25.60368],[90.87518,25.60776],[90.87975,25.61091],[90.88004,25.61948],[90.88505,25.62374],[90.88851,25.62933],[90.89416,25.63581],[90.90214,25.63762],[90.90818,25.64083],[90.91093,25.6466],[90.91219,25.65429],[90.91765,25.65715],[90.92687,25.66879],[90.93118,25.67702],[90.93869,25.68436],[90.94556,25.68901],[90.95156,25.69484],[90.95467,25.71081],[90.95993,25.71611],[90.96301,25.7213],[90.97002,25.72621],[90.97573,25.73808],[90.98241,25.74449],[90.97905,25.74878],[90.97538,25.7514],[90.97132,25.75299],[90.96584,25.75067],[90.96159,25.74995],[90.95747,25.75147],[90.95404,25.75468],[90.95223,25.75502],[90.94818,25.75266],[90.94342,25.75299],[90.94128,25.7565],[90.94061,25.76382],[90.94381,25.77037],[90.9507,25.77244],[90.9572,25.77824],[90.9657,25.78147],[90.96999,25.79408],[90.97591,25.79809],[90.97976,25.80249],[90.98368,25.80523],[90.99036,25.81156],[90.99417,25.81739],[90.99694,25.81927],[90.99847,25.81976],[91.00079,25.82225],[91.00611,25.82078],[91.0127,25.82109],[91.02081,25.82262],[91.02494,25.82756],[91.04197,25.8394],[91.0491,25.84881],[91.0659,25.84642],[91.07854,25.85262],[91.073,25.84248],[91.07288,25.83833],[91.06751,25.83631],[91.0618,25.83608],[91.05722,25.83204],[91.04988,25.8289],[91.05902,25.82227],[91.06326,25.82037],[91.06654,25.82576],[91.08135,25.82934],[91.12078,25.83134],[91.12634,25.8382],[91.13168,25.84195],[91.13791,25.84213],[91.14539,25.84734],[91.15286,25.85007],[91.16165,25.84932],[91.16819,25.84563],[91.17902,25.84275],[91.18176,25.84412],[91.18547,25.84997],[91.19304,25.85523],[91.19648,25.85901],[91.19812,25.85483],[91.19866,25.84764],[91.20263,25.84054],[91.19452,25.83061],[91.19431,25.8264],[91.18987,25.82078],[91.18816,25.81557],[91.19096,25.8107],[91.18725,25.80329],[91.18475,25.79503],[91.18397,25.78259],[91.17993,25.77632],[91.18118,25.77335],[91.18591,25.76994],[91.1857,25.76688],[91.18918,25.76347],[91.18871,25.73893],[91.19234,25.73609],[91.19199,25.72958],[91.198,25.73098],[91.21587,25.72391],[91.22144,25.72605],[91.22388,25.72342],[91.2325,25.72916],[91.25537,25.74783],[91.26228,25.74929],[91.27563,25.74694],[91.27647,25.75167],[91.27959,25.75666],[91.28729,25.76411],[91.2969,25.77825],[91.30633,25.79637],[91.32499,25.82379],[91.33243,25.83209],[91.33218,25.8337],[91.33356,25.83884],[91.33643,25.83841],[91.34249,25.8361]]]}}],"state":"Meghalaya","source":"geohacker/india (Datameet-derived), Census 2011 boundaries"}