{"type":"FeatureCollection","features":[{"type":"Feature","properties":{"ID_0":105,"ISO":"IND","NAME_0":"India","ID_1":24,"NAME_1":"Mizoram","ID_2":356,"NAME_2":"Aizawl","NL_NAME_2":null,"VARNAME_2":"Aizawal","TYPE_2":"District","ENGTYPE_2":"District","STATE":"Mizoram","DISTRICT":"Aizawl"},"geometry":{"type":"Polygon","coordinates":[[[93.0005,24.40327],[93.02435,24.39047],[93.0171,24.37996],[93.02209,24.37422],[93.02011,24.36597],[93.01933,24.35885],[93.02157,24.34682],[93.03176,24.34449],[93.04337,24.34339],[93.03523,24.3184],[93.02392,24.30074],[93.01822,24.29316],[93.01108,24.28808],[93.00822,24.28048],[93.01392,24.27167],[93.00674,24.26279],[93.00671,24.25396],[93.01804,24.23637],[93.02659,24.23263],[93.01941,24.22885],[93.0194,24.22509],[93.02368,24.21757],[93.02229,24.21006],[93.018,24.20755],[93.01662,24.20003],[93.01237,24.19754],[93.00304,24.19752],[93.0031,24.19431],[93.01092,24.18221],[93.00331,24.17405],[93.0055,24.16321],[93.00545,24.16061],[93.00067,24.15673],[92.99308,24.15318],[92.99113,24.15033],[92.99092,24.14687],[92.99287,24.14039],[92.98941,24.13178],[92.98607,24.12888],[92.97756,24.12639],[92.9736,24.12388],[92.97487,24.11702],[92.97638,24.11482],[92.98478,24.11482],[92.9893,24.11633],[92.99642,24.11673],[93.00069,24.11519],[93.00968,24.10995],[93.01411,24.10453],[93.02149,24.10145],[93.0273,24.10364],[93.0303,24.10083],[93.0347,24.09924],[93.0377,24.09518],[93.05369,24.09069],[93.06519,24.09427],[93.07378,24.10049],[93.07949,24.10297],[93.08523,24.09035],[93.08951,24.08405],[93.09521,24.08028],[93.10235,24.07401],[93.10091,24.06645],[93.10234,24.06269],[93.10093,24.05639],[93.10377,24.05263],[93.09951,24.04884],[93.10092,24.04509],[93.10663,24.04886],[93.11088,24.05015],[93.11231,24.05519],[93.11941,24.05647],[93.12082,24.06026],[93.12937,24.06408],[93.13508,24.07292],[93.13509,24.07921],[93.1422,24.08679],[93.14791,24.08809],[93.15846,24.08382],[93.16132,24.07756],[93.16988,24.07506],[93.16987,24.07128],[93.16698,24.06122],[93.16984,24.05495],[93.17552,24.0537],[93.17838,24.0541],[93.17886,24.04505],[93.18893,24.01686],[93.20403,24.00076],[93.21007,23.98465],[93.21107,23.97357],[93.2,23.95646],[93.17986,23.94639],[93.17181,23.9333],[93.16979,23.92223],[93.16678,23.91317],[93.16074,23.90612],[93.16074,23.89706],[93.16577,23.88901],[93.16577,23.88397],[93.16476,23.87692],[93.1557,23.8729],[93.14764,23.86988],[93.14664,23.86082],[93.14764,23.85377],[93.14764,23.84974],[93.14764,23.8427],[93.13859,23.82759],[93.13255,23.82055],[93.1104,23.81753],[93.0953,23.80444],[93.07214,23.79135],[93.04899,23.79034],[93.02534,23.78334],[93.02549,23.78152],[93.02496,23.77495],[93.02585,23.76786],[93.02689,23.76446],[93.03182,23.75782],[93.02958,23.75686],[93.02869,23.75518],[93.03497,23.75419],[93.0322,23.75074],[93.03474,23.74722],[93.03316,23.7441],[93.03596,23.74284],[93.03589,23.7422],[93.03224,23.741],[93.0291,23.73848],[93.02659,23.73513],[93.02916,23.73127],[93.02996,23.7277],[93.03053,23.71791],[93.02821,23.71698],[93.03043,23.71226],[93.03304,23.71415],[93.03466,23.71179],[93.03305,23.70366],[93.03371,23.69957],[93.03235,23.69012],[93.02785,23.6891],[93.02781,23.68051],[93.02973,23.68155],[93.02946,23.66678],[93.03013,23.66253],[93.03494,23.64789],[93.03438,23.6363],[93.03305,23.63302],[93.03026,23.63211],[93.03141,23.6196],[93.03112,23.61285],[93.03265,23.59925],[93.0323,23.58986],[93.03659,23.58091],[93.039,23.57854],[93.03841,23.57325],[93.03651,23.56818],[93.036,23.56484],[93.0386,23.56455],[93.03747,23.55452],[93.04167,23.54956],[93.04254,23.53952],[93.04409,23.53751],[93.0435,23.53342],[93.04562,23.52517],[93.04285,23.52022],[93.03897,23.51642],[93.02948,23.51529],[93.02547,23.51109],[93.02235,23.50987],[93.01755,23.50417],[93.01378,23.4965],[92.99089,23.49479],[92.97816,23.51045],[92.97425,23.51926],[92.95761,23.5222],[92.94195,23.51045],[92.92237,23.4987],[92.89986,23.48108],[92.89887,23.47031],[92.88908,23.4615],[92.87733,23.46737],[92.8744,23.48108],[92.87147,23.49968],[92.86266,23.5173],[92.84308,23.53101],[92.82154,23.54373],[92.81762,23.55842],[92.81273,23.57604],[92.80882,23.5966],[92.80588,23.60638],[92.79707,23.61422],[92.79021,23.61813],[92.78434,23.61617],[92.78336,23.60638],[92.77749,23.5966],[92.76965,23.5917],[92.76965,23.58093],[92.77161,23.56821],[92.77847,23.55744],[92.7863,23.54863],[92.78923,23.53982],[92.78728,23.53198],[92.78238,23.52415],[92.7765,23.51143],[92.7765,23.50066],[92.7765,23.48598],[92.7765,23.47325],[92.78043,23.45367],[92.79217,23.44682],[92.82154,23.43605],[92.82643,23.42724],[92.82643,23.42039],[92.82154,23.40668],[92.82154,23.39689],[92.82154,23.39004],[92.82448,23.37927],[92.82937,23.36557],[92.8372,23.35284],[92.8372,23.34501],[92.83133,23.33522],[92.82252,23.32543],[92.80685,23.32054],[92.79021,23.32054],[92.78043,23.32543],[92.76672,23.3362],[92.75986,23.34011],[92.75204,23.34011],[92.74029,23.34305],[92.7305,23.35186],[92.71777,23.35186],[92.71092,23.34697],[92.70896,23.3362],[92.70798,23.32445],[92.70798,23.31172],[92.69086,23.31173],[92.68855,23.31379],[92.68948,23.31962],[92.68594,23.32616],[92.68557,23.32859],[92.68771,23.32955],[92.68888,23.32891],[92.69051,23.3297],[92.69115,23.33126],[92.68836,23.33839],[92.69125,23.34102],[92.69178,23.3439],[92.69074,23.34617],[92.69028,23.35211],[92.69051,23.35454],[92.69152,23.35522],[92.69204,23.35713],[92.68977,23.36078],[92.68892,23.36535],[92.68603,23.3694],[92.67843,23.36813],[92.67545,23.3689],[92.67632,23.3708],[92.68011,23.37349],[92.68042,23.37493],[92.67877,23.37754],[92.67979,23.38112],[92.67405,23.38496],[92.66876,23.39291],[92.67126,23.40172],[92.67091,23.40386],[92.66668,23.40966],[92.66757,23.41405],[92.66065,23.42397],[92.6619,23.43129],[92.65942,23.43373],[92.66009,23.43836],[92.6591,23.45434],[92.66007,23.47709],[92.65713,23.48716],[92.65784,23.49016],[92.66145,23.49538],[92.6623,23.49959],[92.66042,23.50602],[92.65804,23.51071],[92.6583,23.51892],[92.6557,23.5203],[92.64846,23.52152],[92.64449,23.52241],[92.64156,23.52399],[92.63624,23.53586],[92.63916,23.54173],[92.64485,23.54342],[92.64689,23.54531],[92.64604,23.54971],[92.64733,23.55374],[92.64929,23.55546],[92.65489,23.55542],[92.65797,23.5565],[92.66002,23.56198],[92.66161,23.57259],[92.65824,23.57746],[92.65526,23.57898],[92.65332,23.5865],[92.65294,23.59217],[92.65421,23.59429],[92.65759,23.59565],[92.66539,23.59722],[92.67308,23.60241],[92.67518,23.6073],[92.67597,23.61134],[92.67546,23.61695],[92.6767,23.62156],[92.67636,23.62549],[92.67481,23.62786],[92.65955,23.63098],[92.65599,23.63094],[92.6535,23.63263],[92.65356,23.63754],[92.64827,23.63989],[92.64674,23.64186],[92.64182,23.6449],[92.6383,23.64977],[92.63811,23.66068],[92.64767,23.66784],[92.6535,23.67923],[92.65743,23.68428],[92.66882,23.70638],[92.66872,23.70967],[92.66669,23.71192],[92.66458,23.71334],[92.65839,23.71379],[92.65559,23.71467],[92.65317,23.71643],[92.65078,23.71985],[92.64494,23.73034],[92.64341,23.73525],[92.64022,23.74082],[92.63878,23.74932],[92.63886,23.75763],[92.63671,23.76064],[92.63122,23.76317],[92.63063,23.76467],[92.63585,23.76989],[92.64051,23.77281],[92.64141,23.77431],[92.64332,23.78555],[92.64389,23.79329],[92.64233,23.79457],[92.64053,23.79533],[92.63072,23.79517],[92.62835,23.79599],[92.62612,23.79877],[92.63231,23.80658],[92.63405,23.8101],[92.63599,23.81741],[92.63906,23.81792],[92.64377,23.81407],[92.64921,23.81265],[92.65197,23.8135],[92.65576,23.81699],[92.6571,23.82073],[92.64878,23.82068],[92.64709,23.82225],[92.64588,23.82583],[92.64744,23.82988],[92.65019,23.83216],[92.65264,23.83301],[92.66229,23.83444],[92.66531,23.83569],[92.66546,23.83801],[92.66328,23.83957],[92.6578,23.84752],[92.65499,23.85025],[92.65235,23.85536],[92.64878,23.86561],[92.64549,23.87065],[92.64402,23.87465],[92.64397,23.88297],[92.6423,23.88817],[92.64216,23.89447],[92.64626,23.89842],[92.65768,23.90134],[92.66025,23.90364],[92.66389,23.91082],[92.66116,23.91887],[92.65874,23.9223],[92.64957,23.92346],[92.64718,23.92451],[92.64557,23.93181],[92.63763,23.93405],[92.62787,23.93493],[92.62383,23.93749],[92.62435,23.94044],[92.62601,23.94343],[92.62722,23.94447],[92.63085,23.94553],[92.63107,23.94708],[92.62833,23.95606],[92.63255,23.95798],[92.63606,23.95853],[92.64209,23.96553],[92.64435,23.9669],[92.64547,23.96655],[92.64685,23.96238],[92.64873,23.96029],[92.65171,23.95894],[92.65622,23.95816],[92.6598,23.95924],[92.66492,23.96376],[92.66663,23.96577],[92.66793,23.97026],[92.66953,23.97203],[92.67176,23.97277],[92.6754,23.97251],[92.68164,23.9697],[92.68482,23.96921],[92.68814,23.9771],[92.68983,23.98246],[92.68986,23.98495],[92.69241,23.98475],[92.6931,23.98377],[92.6958,23.98491],[92.69824,23.98425],[92.69963,23.98466],[92.70061,23.98371],[92.70477,23.98472],[92.71004,23.98064],[92.71439,23.98223],[92.71745,23.98233],[92.72104,23.97791],[92.72461,23.97754],[92.74069,23.98152],[92.74588,23.98499],[92.74703,23.98678],[92.74719,23.99018],[92.74545,23.99123],[92.74528,23.99487],[92.74649,23.99562],[92.74879,23.99537],[92.756,23.99191],[92.7583,23.99229],[92.75965,23.99344],[92.76026,23.99558],[92.75959,24.00116],[92.76026,24.00287],[92.77245,24.0144],[92.77997,24.01832],[92.7859,24.02057],[92.79156,24.02137],[92.80216,24.02056],[92.80704,24.02106],[92.81142,24.02289],[92.81293,24.02462],[92.81855,24.02543],[92.8238,24.02358],[92.82909,24.01938],[92.83087,24.01646],[92.83317,24.0154],[92.83367,24.01667],[92.83272,24.02137],[92.83376,24.02316],[92.8371,24.02475],[92.83988,24.01793],[92.84193,24.01668],[92.84482,24.02747],[92.84841,24.02957],[92.84631,24.03692],[92.84909,24.03637],[92.85035,24.03679],[92.85123,24.03869],[92.85114,24.04737],[92.84888,24.04827],[92.84855,24.04964],[92.85012,24.05317],[92.84885,24.05787],[92.85072,24.0626],[92.84956,24.06534],[92.85164,24.06784],[92.85233,24.06825],[92.85313,24.07309],[92.85758,24.07411],[92.85806,24.08216],[92.86072,24.09024],[92.85748,24.0967],[92.85799,24.09763],[92.8598,24.09816],[92.85935,24.10195],[92.86111,24.10145],[92.86153,24.10249],[92.8619,24.10812],[92.86276,24.10912],[92.86696,24.11014],[92.87122,24.11357],[92.8717,24.11909],[92.87057,24.12277],[92.87513,24.12718],[92.87699,24.13019],[92.87987,24.13166],[92.87557,24.13799],[92.87561,24.14173],[92.87773,24.1464],[92.88055,24.14982],[92.88505,24.15292],[92.88687,24.15587],[92.88723,24.15829],[92.88578,24.16063],[92.8864,24.16179],[92.88859,24.1629],[92.88957,24.16808],[92.88914,24.17021],[92.88668,24.17002],[92.88624,24.17093],[92.88792,24.17123],[92.89281,24.17386],[92.89532,24.17424],[92.89583,24.17614],[92.89566,24.1866],[92.89744,24.19306],[92.89585,24.20191],[92.89844,24.20215],[92.89728,24.20507],[92.90092,24.20637],[92.90143,24.20747],[92.90124,24.2093],[92.90033,24.21006],[92.90176,24.21223],[92.90158,24.21322],[92.89907,24.21303],[92.90226,24.21932],[92.9035,24.22445],[92.90259,24.23404],[92.90011,24.23862],[92.89708,24.24014],[92.89404,24.24489],[92.89165,24.24492],[92.88841,24.23856],[92.8846,24.23525],[92.88183,24.23614],[92.8798,24.23986],[92.8763,24.2435],[92.86678,24.24381],[92.86424,24.24408],[92.86388,24.24528],[92.86542,24.2469],[92.86408,24.25127],[92.86823,24.25308],[92.86613,24.25651],[92.86676,24.25973],[92.86324,24.25998],[92.86279,24.26061],[92.86378,24.2627],[92.86819,24.26418],[92.86509,24.26743],[92.86507,24.27196],[92.87064,24.27892],[92.87341,24.27958],[92.8753,24.27885],[92.87726,24.27921],[92.87724,24.28048],[92.8744,24.28471],[92.87663,24.28887],[92.87386,24.29217],[92.87278,24.29797],[92.87144,24.30083],[92.86785,24.30218],[92.86549,24.31037],[92.86398,24.31077],[92.86028,24.30906],[92.85831,24.3107],[92.86188,24.31666],[92.86483,24.31825],[92.86999,24.31962],[92.87074,24.32302],[92.86751,24.32275],[92.86588,24.32595],[92.8636,24.32697],[92.86497,24.33015],[92.86629,24.32844],[92.86806,24.32891],[92.8715,24.33159],[92.87495,24.33265],[92.87829,24.33591],[92.87992,24.33995],[92.88873,24.35378],[92.89439,24.35832],[92.89117,24.35939],[92.88938,24.36374],[92.88749,24.36573],[92.89019,24.36777],[92.88955,24.37069],[92.89352,24.37073],[92.8944,24.37189],[92.89562,24.38018],[92.89404,24.38161],[92.88914,24.38214],[92.88787,24.38326],[92.89207,24.3898],[92.89287,24.39344],[92.89484,24.38983],[92.89615,24.38956],[92.89717,24.39002],[92.8979,24.39193],[92.89636,24.3943],[92.90098,24.39343],[92.90517,24.39445],[92.90588,24.39537],[92.90573,24.39906],[92.90931,24.40317],[92.91154,24.4129],[92.92339,24.40572],[92.9226,24.40416],[92.92366,24.40261],[92.92538,24.40222],[92.92765,24.39863],[92.93571,24.39554],[92.93774,24.39671],[92.93855,24.39902],[92.94055,24.40105],[92.94415,24.40183],[92.95125,24.40483],[92.95389,24.40462],[92.9547,24.40388],[92.95814,24.39805],[92.96033,24.39588],[92.97083,24.40121],[92.97565,24.40776],[92.98026,24.40969],[92.98543,24.40756],[92.98833,24.40765],[92.99192,24.40549],[92.99535,24.40195],[92.99805,24.40157],[93.0005,24.40327]]]}},{"type":"Feature","properties":{"ID_0":105,"ISO":"IND","NAME_0":"India","ID_1":24,"NAME_1":"Mizoram","ID_2":357,"NAME_2":"Champhai","NL_NAME_2":null,"VARNAME_2":null,"TYPE_2":"District","ENGTYPE_2":"District","STATE":"Mizoram","DISTRICT":"Champhai"},"geometry":{"type":"Polygon","coordinates":[[[93.33737,24.0534],[93.33829,24.05019],[93.34222,24.04459],[93.33601,24.04261],[93.33324,24.0398],[93.33765,24.03421],[93.34216,24.03067],[93.3381,24.02536],[93.33692,24.02381],[93.3375,24.02123],[93.33779,24.01992],[93.34032,24.01243],[93.33935,24.00292],[93.33927,24.00221],[93.33896,23.99589],[93.33443,23.98695],[93.33745,23.98279],[93.34237,23.98233],[93.3474,23.9807],[93.35161,23.97798],[93.35316,23.97202],[93.35587,23.96126],[93.35989,23.95465],[93.36242,23.95076],[93.36494,23.94597],[93.36781,23.94344],[93.37104,23.94054],[93.37573,23.93782],[93.38125,23.93619],[93.39098,23.934],[93.39872,23.93028],[93.39961,23.9244],[93.39919,23.91899],[93.39758,23.91293],[93.39674,23.89867],[93.39559,23.88728],[93.39545,23.8767],[93.39642,23.87094],[93.39688,23.86378],[93.39656,23.85854],[93.39671,23.8507],[93.39706,23.84093],[93.4001,23.83532],[93.39916,23.82421],[93.40141,23.81941],[93.4069,23.81715],[93.40983,23.81361],[93.41098,23.80773],[93.41006,23.79879],[93.40757,23.79021],[93.40445,23.77505],[93.40423,23.76899],[93.40529,23.76159],[93.40713,23.75562],[93.41054,23.74865],[93.41443,23.74348],[93.4154,23.73842],[93.41773,23.73255],[93.41584,23.72686],[93.41493,23.72261],[93.41552,23.7181],[93.41695,23.71213],[93.41912,23.70842],[93.4233,23.70399],[93.42957,23.70071],[93.43652,23.69618],[93.43866,23.6922],[93.4414,23.68832],[93.4447,23.68243],[93.44094,23.6782],[93.43909,23.67574],[93.43612,23.67179],[93.43343,23.66719],[93.43037,23.66023],[93.42828,23.65355],[93.42862,23.64515],[93.42867,23.64481],[93.43272,23.61876],[93.43341,23.59509],[93.43475,23.58884],[93.43305,23.58244],[93.42711,23.57169],[93.42397,23.56935],[93.42403,23.56158],[93.42725,23.55298],[93.42809,23.5452],[93.42776,23.53825],[93.42764,23.53437],[93.42556,23.53121],[93.42193,23.52716],[93.41621,23.52048],[93.41116,23.51325],[93.40762,23.50848],[93.40729,23.50197],[93.40815,23.49646],[93.40437,23.48499],[93.40594,23.48101],[93.40707,23.47531],[93.40596,23.46727],[93.40141,23.45698],[93.39977,23.44687],[93.39851,23.44288],[93.39719,23.43331],[93.39735,23.42617],[93.39683,23.42247],[93.3976,23.4155],[93.39826,23.41126],[93.40391,23.40167],[93.40576,23.3976],[93.40975,23.3919],[93.41424,23.38801],[93.40461,23.3835],[93.40166,23.37954],[93.39645,23.37403],[93.39652,23.36806],[93.39875,23.36427],[93.38984,23.36275],[93.37632,23.36259],[93.37162,23.35979],[93.36747,23.35809],[93.36581,23.35448],[93.36629,23.35348],[93.36803,23.34994],[93.37202,23.34425],[93.37534,23.34099],[93.37778,23.33755],[93.37933,23.33268],[93.37755,23.3268],[93.37673,23.31948],[93.37699,23.31279],[93.37765,23.30655],[93.37978,23.30122],[93.3812,23.29362],[93.3812,23.28992],[93.37825,23.28676],[93.3754,23.28262],[93.37506,23.27457],[93.37727,23.26417],[93.37842,23.25613],[93.38326,23.24481],[93.38841,23.23496],[93.39471,23.22428],[93.39481,23.21958],[93.38744,23.2112],[93.3866,23.20198],[93.38526,23.18797],[93.3815,23.17488],[93.38058,23.16691],[93.37811,23.1635],[93.37604,23.15888],[93.37395,23.1503],[93.37911,23.14361],[93.38293,23.14468],[93.39066,23.14792],[93.39448,23.1444],[93.39365,23.13861],[93.38196,23.12751],[93.3761,23.12399],[93.37228,23.12264],[93.36906,23.12058],[93.36502,23.11669],[93.36402,23.11273],[93.364,23.10621],[93.36353,23.10309],[93.36308,23.10007],[93.362,23.09537],[93.35737,23.09095],[93.35246,23.08463],[93.35109,23.0803],[93.3582,23.07794],[93.35781,23.07539],[93.35741,23.07278],[93.35297,23.06483],[93.34517,23.06476],[93.34504,23.06448],[93.34064,23.05519],[93.33676,23.04362],[93.33264,23.03567],[93.3296,23.03161],[93.32409,23.02493],[93.32124,23.02186],[93.31551,23.02212],[93.31499,23.02214],[93.31177,23.01871],[93.30617,23.01365],[93.30196,23.00832],[93.29772,23.0058],[93.29591,23.00546],[93.29333,23.00499],[93.28816,23.00463],[93.27859,23.00564],[93.27392,23.01026],[93.26807,23.01234],[93.25906,23.00873],[93.2532,23.00648],[93.24774,23.00956],[93.2412,23.01408],[93.2378,23.01762],[93.23409,23.02186],[93.23167,23.02711],[93.22816,23.03282],[93.22018,23.0452],[93.21406,23.04935],[93.20617,23.05687],[93.20118,23.05778],[93.19445,23.06031],[93.19093,23.05823],[93.18711,23.05715],[93.18694,23.05718],[93.18694,23.07308],[93.17704,23.11556],[93.17704,23.13302],[93.17587,23.15513],[93.16947,23.1662],[93.1654,23.17842],[93.1654,23.18773],[93.16424,23.20519],[93.15958,23.22032],[93.1555,23.23545],[93.1491,23.24418],[93.13979,23.25],[93.12,23.24942],[93.10778,23.24418],[93.09207,23.24302],[93.07403,23.24011],[93.05715,23.24011],[93.04242,23.24684],[93.04281,23.2469],[93.04654,23.24851],[93.04935,23.25237],[93.04485,23.25526],[93.03741,23.25741],[93.03743,23.2603],[93.03459,23.26284],[93.03648,23.26623],[93.03545,23.26918],[93.03172,23.2689],[93.02758,23.26983],[93.01972,23.27342],[93.0127,23.28259],[93.01257,23.2876],[93.01078,23.29128],[93.01013,23.29577],[93.01184,23.30043],[93.01119,23.30372],[93.01171,23.30689],[93.01519,23.30942],[93.01863,23.3135],[93.03576,23.32627],[93.0379,23.32944],[93.04056,23.33952],[93.043,23.3432],[93.04259,23.34672],[93.04391,23.35052],[93.04633,23.35295],[93.04657,23.35939],[93.04965,23.36626],[93.05347,23.3712],[93.05467,23.37518],[93.05004,23.37847],[93.03891,23.39578],[93.0406,23.41653],[93.03207,23.43095],[93.03333,23.43573],[93.03753,23.44109],[93.03986,23.44679],[93.03522,23.45015],[93.03134,23.4554],[93.03019,23.46059],[93.03175,23.46969],[93.03319,23.47165],[93.01696,23.47702],[93.00676,23.48615],[93.00877,23.48989],[93.01308,23.49508],[93.01378,23.4965],[93.01755,23.50417],[93.02235,23.50987],[93.02547,23.51109],[93.02948,23.51529],[93.03897,23.51642],[93.04285,23.52022],[93.04562,23.52517],[93.0435,23.53342],[93.04409,23.53751],[93.04254,23.53952],[93.04167,23.54956],[93.03747,23.55452],[93.0386,23.56455],[93.036,23.56484],[93.03651,23.56818],[93.03841,23.57325],[93.039,23.57854],[93.03659,23.58091],[93.0323,23.58986],[93.03265,23.59925],[93.03112,23.61285],[93.03141,23.6196],[93.03026,23.63211],[93.03305,23.63302],[93.03438,23.6363],[93.03494,23.64789],[93.03013,23.66253],[93.02946,23.66678],[93.02973,23.68155],[93.02781,23.68051],[93.02785,23.6891],[93.03235,23.69012],[93.03371,23.69957],[93.03305,23.70366],[93.03466,23.71179],[93.03304,23.71415],[93.03043,23.71226],[93.02821,23.71698],[93.03053,23.71791],[93.02996,23.7277],[93.02916,23.73127],[93.02659,23.73513],[93.0291,23.73848],[93.03224,23.741],[93.03589,23.7422],[93.03596,23.74284],[93.03316,23.7441],[93.03474,23.74722],[93.0322,23.75074],[93.03497,23.75419],[93.02869,23.75518],[93.02958,23.75686],[93.03182,23.75782],[93.02689,23.76446],[93.02585,23.76786],[93.02496,23.77495],[93.02549,23.78152],[93.02534,23.78334],[93.04899,23.79034],[93.07214,23.79135],[93.0953,23.80444],[93.1104,23.81753],[93.13255,23.82055],[93.13859,23.82759],[93.14764,23.8427],[93.14764,23.84974],[93.14764,23.85377],[93.14664,23.86082],[93.14764,23.86988],[93.1557,23.8729],[93.16476,23.87692],[93.16577,23.88397],[93.16577,23.88901],[93.16074,23.89706],[93.16074,23.90612],[93.16678,23.91317],[93.16979,23.92223],[93.17181,23.9333],[93.17986,23.94639],[93.2,23.95646],[93.21107,23.97357],[93.21007,23.98465],[93.20403,24.00076],[93.18893,24.01686],[93.17886,24.04505],[93.17838,24.0541],[93.19401,24.05627],[93.19826,24.0525],[93.21674,24.05006],[93.221,24.06137],[93.22243,24.06767],[93.22525,24.07396],[93.22242,24.08149],[93.22384,24.08401],[93.22668,24.08653],[93.23663,24.08404],[93.24233,24.08657],[93.24802,24.08534],[93.26372,24.07282],[93.26373,24.06779],[93.26661,24.06026],[93.26374,24.05774],[93.26233,24.05773],[93.25238,24.03383],[93.25671,24.02881],[93.25529,24.02379],[93.27395,24.03392],[93.27678,24.04021],[93.28537,24.04652],[93.28819,24.05155],[93.29825,24.05159],[93.31255,24.05413],[93.33737,24.0534]]]}},{"type":"Feature","properties":{"ID_0":105,"ISO":"IND","NAME_0":"India","ID_1":24,"NAME_1":"Mizoram","ID_2":358,"NAME_2":"Kolasib","NL_NAME_2":null,"VARNAME_2":"Aizawal","TYPE_2":"District","ENGTYPE_2":"District","STATE":"Mizoram","DISTRICT":"Kolasib"},"geometry":{"type":"Polygon","coordinates":[[[92.89636,24.3943],[92.8979,24.39193],[92.89717,24.39002],[92.89615,24.38956],[92.89484,24.38983],[92.89287,24.39344],[92.89207,24.3898],[92.88787,24.38326],[92.88914,24.38214],[92.89404,24.38161],[92.89562,24.38018],[92.8944,24.37189],[92.89352,24.37073],[92.88955,24.37069],[92.89019,24.36777],[92.88749,24.36573],[92.88938,24.36374],[92.89117,24.35939],[92.89439,24.35832],[92.88873,24.35378],[92.87992,24.33995],[92.87829,24.33591],[92.87495,24.33265],[92.8715,24.33159],[92.86806,24.32891],[92.86629,24.32844],[92.86497,24.33015],[92.8636,24.32697],[92.86588,24.32595],[92.86751,24.32275],[92.87074,24.32302],[92.86999,24.31962],[92.86483,24.31825],[92.86188,24.31666],[92.85831,24.3107],[92.86028,24.30906],[92.86398,24.31077],[92.86549,24.31037],[92.86785,24.30218],[92.87144,24.30083],[92.87278,24.29797],[92.87386,24.29217],[92.87663,24.28887],[92.8744,24.28471],[92.87724,24.28048],[92.87726,24.27921],[92.8753,24.27885],[92.87341,24.27958],[92.87064,24.27892],[92.86507,24.27196],[92.86509,24.26743],[92.86819,24.26418],[92.86378,24.2627],[92.86279,24.26061],[92.86324,24.25998],[92.86676,24.25973],[92.86613,24.25651],[92.86823,24.25308],[92.86408,24.25127],[92.86542,24.2469],[92.86388,24.24528],[92.86424,24.24408],[92.86678,24.24381],[92.8763,24.2435],[92.8798,24.23986],[92.88183,24.23614],[92.8846,24.23525],[92.88841,24.23856],[92.89165,24.24492],[92.89404,24.24489],[92.89708,24.24014],[92.90011,24.23862],[92.90259,24.23404],[92.9035,24.22445],[92.90226,24.21932],[92.89907,24.21303],[92.90158,24.21322],[92.90176,24.21223],[92.90033,24.21006],[92.90124,24.2093],[92.90143,24.20747],[92.90092,24.20637],[92.89728,24.20507],[92.89844,24.20215],[92.89585,24.20191],[92.89744,24.19306],[92.89566,24.1866],[92.89583,24.17614],[92.89532,24.17424],[92.89281,24.17386],[92.88792,24.17123],[92.88624,24.17093],[92.88668,24.17002],[92.88914,24.17021],[92.88957,24.16808],[92.88859,24.1629],[92.8864,24.16179],[92.88578,24.16063],[92.88723,24.15829],[92.88687,24.15587],[92.88505,24.15292],[92.88055,24.14982],[92.87773,24.1464],[92.87561,24.14173],[92.87557,24.13799],[92.87987,24.13166],[92.87699,24.13019],[92.87513,24.12718],[92.87057,24.12277],[92.8717,24.11909],[92.87122,24.11357],[92.86696,24.11014],[92.86276,24.10912],[92.8619,24.10812],[92.86153,24.10249],[92.86111,24.10145],[92.85935,24.10195],[92.8598,24.09816],[92.85799,24.09763],[92.85748,24.0967],[92.86072,24.09024],[92.85806,24.08216],[92.85758,24.07411],[92.85313,24.07309],[92.85233,24.06825],[92.85164,24.06784],[92.84956,24.06534],[92.85072,24.0626],[92.84885,24.05787],[92.85012,24.05317],[92.84855,24.04964],[92.84888,24.04827],[92.85114,24.04737],[92.85123,24.03869],[92.85035,24.03679],[92.84909,24.03637],[92.84631,24.03692],[92.84841,24.02957],[92.84482,24.02747],[92.84193,24.01668],[92.83988,24.01793],[92.8371,24.02475],[92.83376,24.02316],[92.83272,24.02137],[92.83367,24.01667],[92.83317,24.0154],[92.83087,24.01646],[92.82909,24.01938],[92.8238,24.02358],[92.81855,24.02543],[92.81293,24.02462],[92.81142,24.02289],[92.80704,24.02106],[92.80216,24.02056],[92.79156,24.02137],[92.7859,24.02057],[92.77997,24.01832],[92.77245,24.0144],[92.76026,24.00287],[92.75959,24.00116],[92.76026,23.99558],[92.75965,23.99344],[92.7583,23.99229],[92.756,23.99191],[92.74879,23.99537],[92.74649,23.99562],[92.74528,23.99487],[92.74545,23.99123],[92.74719,23.99018],[92.74703,23.98678],[92.74588,23.98499],[92.74069,23.98152],[92.72461,23.97754],[92.72104,23.97791],[92.71745,23.98233],[92.71439,23.98223],[92.71004,23.98064],[92.70477,23.98472],[92.70061,23.98371],[92.69963,23.98466],[92.69824,23.98425],[92.6958,23.98491],[92.6931,23.98377],[92.69241,23.98475],[92.68986,23.98495],[92.68983,23.98246],[92.68814,23.9771],[92.68482,23.96921],[92.68164,23.9697],[92.6754,23.97251],[92.67176,23.97277],[92.66953,23.97203],[92.66793,23.97026],[92.66663,23.96577],[92.66492,23.96376],[92.6598,23.95924],[92.65622,23.95816],[92.65171,23.95894],[92.64873,23.96029],[92.64685,23.96238],[92.64547,23.96655],[92.64435,23.9669],[92.64209,23.96553],[92.63606,23.95853],[92.63255,23.95798],[92.62833,23.95606],[92.62103,23.95967],[92.62102,23.96348],[92.62627,23.9803],[92.63291,23.98783],[92.63142,23.99257],[92.63149,23.99501],[92.63216,23.99756],[92.63351,23.99935],[92.63314,24.0027],[92.62517,24.008],[92.62381,24.01017],[92.62646,24.01451],[92.62691,24.01935],[92.62801,24.02282],[92.63024,24.02612],[92.63051,24.02831],[92.63271,24.03144],[92.63739,24.03281],[92.63857,24.03357],[92.63908,24.03508],[92.6341,24.03709],[92.63048,24.04073],[92.62818,24.04133],[92.62644,24.04079],[92.62577,24.03946],[92.62576,24.03682],[92.62705,24.03293],[92.62312,24.03381],[92.62127,24.03585],[92.61779,24.04236],[92.61671,24.04868],[92.61522,24.0516],[92.61207,24.05224],[92.60204,24.05219],[92.59314,24.06285],[92.58896,24.06365],[92.58768,24.06462],[92.58678,24.06593],[92.58655,24.07541],[92.58419,24.07654],[92.57487,24.07648],[92.5747,24.0755],[92.5776,24.07008],[92.57748,24.06835],[92.57344,24.06353],[92.57329,24.06083],[92.57429,24.0514],[92.57162,24.04809],[92.5685,24.04052],[92.56615,24.0417],[92.56182,24.04148],[92.56018,24.04233],[92.5649,24.05463],[92.55904,24.05519],[92.55924,24.05916],[92.55853,24.06167],[92.55599,24.06292],[92.55461,24.06279],[92.55196,24.05988],[92.55102,24.05705],[92.54991,24.04663],[92.55082,24.04239],[92.54237,24.03613],[92.53992,24.0353],[92.5397,24.03971],[92.53732,24.04946],[92.53796,24.05368],[92.53915,24.05593],[92.53912,24.06006],[92.53719,24.0655],[92.54064,24.07486],[92.54118,24.07929],[92.54135,24.08143],[92.53889,24.09411],[92.54087,24.09752],[92.54128,24.1019],[92.5389,24.11204],[92.54342,24.12302],[92.54472,24.12453],[92.54441,24.1258],[92.53857,24.12624],[92.5383,24.12762],[92.53961,24.13034],[92.53996,24.13333],[92.5429,24.13618],[92.54534,24.14035],[92.54581,24.14312],[92.54433,24.1492],[92.5418,24.15256],[92.54088,24.15508],[92.52992,24.16368],[92.52977,24.16661],[92.53266,24.16792],[92.53651,24.17302],[92.53654,24.17814],[92.53289,24.18053],[92.53346,24.18083],[92.53148,24.18346],[92.53782,24.19647],[92.5364,24.1999],[92.53727,24.20193],[92.54147,24.20623],[92.54243,24.21062],[92.54224,24.21418],[92.54575,24.2199],[92.54739,24.22441],[92.54778,24.23189],[92.54694,24.23476],[92.5471,24.2377],[92.54883,24.24323],[92.55064,24.2459],[92.55894,24.24789],[92.56456,24.25009],[92.58184,24.24536],[92.58801,24.24486],[92.5914,24.24598],[92.59357,24.24859],[92.59596,24.24931],[92.60596,24.2492],[92.60796,24.25008],[92.61159,24.25335],[92.61308,24.25584],[92.61551,24.26362],[92.61577,24.27053],[92.61682,24.27531],[92.61904,24.28132],[92.6194,24.28678],[92.61906,24.28787],[92.61723,24.28906],[92.61678,24.29123],[92.61831,24.29971],[92.61803,24.30436],[92.61964,24.30846],[92.61944,24.31151],[92.6231,24.32029],[92.62335,24.33077],[92.62428,24.33265],[92.62617,24.33447],[92.63064,24.33337],[92.6359,24.33574],[92.63772,24.33552],[92.63824,24.33443],[92.63654,24.33424],[92.63669,24.33269],[92.63926,24.33175],[92.63984,24.32973],[92.64099,24.32871],[92.64501,24.32767],[92.64594,24.32923],[92.64525,24.33181],[92.64904,24.32875],[92.64978,24.32922],[92.6494,24.33082],[92.65184,24.33034],[92.65204,24.33286],[92.6524,24.33529],[92.65646,24.33912],[92.65759,24.34155],[92.65752,24.34351],[92.65847,24.34346],[92.66072,24.34515],[92.66225,24.34344],[92.66323,24.3438],[92.66411,24.34674],[92.66525,24.34521],[92.667,24.34561],[92.67478,24.3498],[92.67964,24.34778],[92.6838,24.34748],[92.68402,24.34989],[92.688,24.35201],[92.69067,24.3548],[92.69167,24.35642],[92.69177,24.36217],[92.69392,24.36363],[92.69421,24.36496],[92.69325,24.36782],[92.69501,24.36957],[92.69688,24.374],[92.69827,24.37496],[92.70241,24.37523],[92.70411,24.37622],[92.70344,24.3838],[92.70745,24.38701],[92.70742,24.39241],[92.71422,24.40532],[92.71413,24.40778],[92.71509,24.40877],[92.7142,24.41037],[92.71412,24.41296],[92.71512,24.41452],[92.71814,24.41622],[92.72376,24.43595],[92.73054,24.45275],[92.74361,24.47463],[92.74884,24.48854],[92.75078,24.49149],[92.75133,24.49437],[92.7545,24.50112],[92.75365,24.50704],[92.75919,24.51176],[92.76451,24.51883],[92.7652,24.52085],[92.77914,24.4865],[92.78223,24.4748],[92.78438,24.4712],[92.78625,24.46374],[92.78988,24.45608],[92.79391,24.44404],[92.79778,24.43471],[92.80032,24.43197],[92.80285,24.42728],[92.80425,24.42299],[92.80382,24.42172],[92.80005,24.42146],[92.8008,24.41905],[92.8037,24.41879],[92.80716,24.41986],[92.80949,24.4193],[92.80888,24.41689],[92.80944,24.41523],[92.8114,24.41537],[92.81115,24.41364],[92.81645,24.41225],[92.81833,24.41273],[92.82113,24.40678],[92.82479,24.40418],[92.83033,24.40175],[92.83137,24.4005],[92.83167,24.39934],[92.8266,24.39355],[92.82504,24.39049],[92.82542,24.38843],[92.82826,24.38558],[92.82816,24.37931],[92.82899,24.37777],[92.8327,24.37637],[92.83962,24.3808],[92.84428,24.37987],[92.84691,24.3823],[92.84909,24.38613],[92.85165,24.39237],[92.85448,24.394],[92.85906,24.39841],[92.8629,24.3995],[92.87179,24.39705],[92.87386,24.39725],[92.8782,24.39889],[92.88425,24.40304],[92.88801,24.40163],[92.89078,24.40229],[92.89173,24.40179],[92.89439,24.39531],[92.89636,24.3943]]]}},{"type":"Feature","properties":{"ID_0":105,"ISO":"IND","NAME_0":"India","ID_1":24,"NAME_1":"Mizoram","ID_2":359,"NAME_2":"Lawngtlai","NL_NAME_2":null,"VARNAME_2":null,"TYPE_2":"District","ENGTYPE_2":"District","STATE":"Mizoram","DISTRICT":"Lawngtlai"},"geometry":{"type":"Polygon","coordinates":[[[92.52779,22.76085],[92.53011,22.75946],[92.54166,22.76097],[92.5482,22.75815],[92.55193,22.75348],[92.56216,22.74599],[92.57193,22.73244],[92.57886,22.73561],[92.58233,22.73895],[92.58253,22.74626],[92.5855,22.75064],[92.58974,22.74868],[92.59566,22.73122],[92.59998,22.73072],[92.59922,22.72869],[92.60053,22.72428],[92.60361,22.72214],[92.60386,22.71396],[92.60189,22.70587],[92.60413,22.6967],[92.60758,22.69082],[92.61185,22.6876],[92.61356,22.68124],[92.61707,22.67945],[92.62132,22.68257],[92.6241,22.67237],[92.62985,22.66901],[92.63506,22.66874],[92.63581,22.66455],[92.63362,22.66163],[92.63397,22.65853],[92.64027,22.65582],[92.64447,22.6522],[92.64671,22.64796],[92.6509,22.63727],[92.65137,22.63129],[92.64937,22.62814],[92.64923,22.61869],[92.66092,22.62183],[92.66431,22.62175],[92.67686,22.62645],[92.68602,22.62641],[92.69852,22.62242],[92.69913,22.61851],[92.69608,22.60896],[92.69798,22.59747],[92.70036,22.59181],[92.71276,22.58487],[92.7149,22.58225],[92.71665,22.57721],[92.7211,22.57014],[92.72556,22.56583],[92.74585,22.55342],[92.74919,22.54886],[92.75753,22.54358],[92.75865,22.53577],[92.75892,22.5223],[92.76491,22.50282],[92.76685,22.49997],[92.77169,22.49952],[92.77793,22.50376],[92.77913,22.50118],[92.78132,22.49972],[92.78398,22.50027],[92.78207,22.51573],[92.77995,22.52037],[92.77995,22.52912],[92.78072,22.53195],[92.7823,22.53284],[92.78486,22.54043],[92.79386,22.54971],[92.80042,22.55402],[92.8009,22.55863],[92.80607,22.56912],[92.80627,22.57661],[92.80376,22.58286],[92.80302,22.58762],[92.79893,22.59971],[92.79931,22.60432],[92.79854,22.60694],[92.80571,22.60931],[92.80695,22.61428],[92.80503,22.61822],[92.80527,22.62353],[92.81013,22.62941],[92.81531,22.62994],[92.82425,22.62754],[92.82777,22.62794],[92.83899,22.62625],[92.84709,22.62293],[92.85147,22.61867],[92.85252,22.61518],[92.85891,22.60911],[92.86479,22.60481],[92.86794,22.60112],[92.87392,22.59723],[92.88016,22.58915],[92.88593,22.58399],[92.9019,22.58617],[92.90186,22.58479],[92.90613,22.57713],[92.90668,22.57195],[92.91115,22.55387],[92.91529,22.54724],[92.91976,22.54754],[92.93106,22.55247],[92.93693,22.55708],[92.93568,22.55293],[92.93978,22.54753],[92.94221,22.54232],[92.94346,22.53239],[92.93839,22.50069],[92.93872,22.4843],[92.94234,22.47722],[92.94845,22.46936],[92.94857,22.46453],[92.9443,22.46044],[92.94524,22.44089],[92.94752,22.43292],[92.95052,22.4161],[92.95388,22.40963],[92.95526,22.40316],[92.96241,22.39939],[92.96691,22.39963],[92.9692,22.39541],[92.96509,22.37998],[92.95941,22.3749],[92.94555,22.37815],[92.94308,22.38162],[92.94116,22.38661],[92.94585,22.39122],[92.93843,22.39739],[92.93443,22.39711],[92.92512,22.39087],[92.92106,22.38598],[92.91413,22.38116],[92.90222,22.36912],[92.88818,22.36145],[92.88551,22.35905],[92.87742,22.3458],[92.87089,22.32965],[92.86794,22.32593],[92.85751,22.32227],[92.8483,22.33203],[92.84359,22.33351],[92.83203,22.33513],[92.82816,22.33236],[92.82696,22.32739],[92.83075,22.32151],[92.83131,22.31595],[92.82996,22.31121],[92.83251,22.30239],[92.83937,22.29627],[92.84248,22.2894],[92.83978,22.28154],[92.83657,22.27683],[92.83868,22.27173],[92.83944,22.26622],[92.83703,22.25738],[92.83823,22.25096],[92.84132,22.24236],[92.84241,22.2345],[92.84389,22.2183],[92.84308,22.20856],[92.84388,22.19695],[92.8434,22.19106],[92.84511,22.18402],[92.8466,22.16228],[92.84863,22.15017],[92.84876,22.14401],[92.8506,22.13644],[92.84803,22.12588],[92.84767,22.11685],[92.8501,22.10721],[92.84998,22.09771],[92.85131,22.09031],[92.8508,22.08294],[92.85244,22.07577],[92.85458,22.07269],[92.85699,22.06563],[92.85464,22.06489],[92.84902,22.06235],[92.84464,22.06343],[92.84464,22.06813],[92.84145,22.07201],[92.83651,22.07635],[92.8325,22.07644],[92.82564,22.07967],[92.82029,22.09034],[92.81709,22.09557],[92.81041,22.09764],[92.80333,22.10225],[92.79516,22.10621],[92.78879,22.10891],[92.78313,22.10863],[92.77741,22.10979],[92.77676,22.11002],[92.77374,22.11105],[92.77306,22.11178],[92.76926,22.11584],[92.77013,22.12307],[92.76567,22.12632],[92.7513,22.13271],[92.74314,22.13595],[92.73782,22.13901],[92.73276,22.14959],[92.71789,22.15263],[92.70798,22.15351],[92.70344,22.15378],[92.70034,22.14964],[92.69936,22.14833],[92.70062,22.13839],[92.69967,22.12239],[92.69897,22.11822],[92.69714,22.09931],[92.69755,22.08622],[92.69695,22.08088],[92.69356,22.07725],[92.69132,22.08113],[92.69063,22.09479],[92.68956,22.10709],[92.68645,22.10942],[92.68384,22.10535],[92.68453,22.09205],[92.6853,22.08555],[92.68551,22.08174],[92.68578,22.07651],[92.68686,22.06991],[92.68726,22.06313],[92.68629,22.0586],[92.68668,22.05001],[92.68998,22.04098],[92.6895,22.03574],[92.68794,22.03239],[92.68817,22.03072],[92.68844,22.02859],[92.68727,22.02388],[92.68436,22.01791],[92.68078,22.01419],[92.67681,22.01409],[92.67155,22.01471],[92.66322,22.0155],[92.65924,22.01472],[92.6493,22.00341],[92.6447,21.99819],[92.64101,21.99221],[92.63792,21.98867],[92.63007,21.98495],[92.62895,21.98462],[92.61813,21.98138],[92.61232,21.98029],[92.61193,21.98185],[92.61179,21.9817],[92.60968,21.97684],[92.60927,21.97923],[92.60923,21.98275],[92.60879,21.98384],[92.60875,21.9861],[92.60809,21.98744],[92.60889,21.99284],[92.61154,21.99581],[92.61155,22.00017],[92.6104,22.00341],[92.6102,22.00398],[92.60881,22.00612],[92.60825,22.00676],[92.60721,22.00793],[92.60646,22.00931],[92.60513,22.0101],[92.60419,22.01506],[92.60419,22.02022],[92.60419,22.0205],[92.60426,22.02532],[92.60486,22.03089],[92.60399,22.03189],[92.60308,22.03199],[92.60133,22.0344],[92.59903,22.03776],[92.59998,22.04036],[92.60059,22.04382],[92.60146,22.04541],[92.60226,22.04685],[92.60474,22.04988],[92.60522,22.05184],[92.60498,22.05763],[92.60476,22.05776],[92.60367,22.05839],[92.60331,22.05897],[92.60236,22.05937],[92.60116,22.06047],[92.60068,22.06198],[92.5992,22.06448],[92.59949,22.0662],[92.59993,22.0687],[92.60003,22.0695],[92.59971,22.07061],[92.59776,22.07408],[92.59732,22.07483],[92.59581,22.07739],[92.59501,22.07814],[92.59326,22.08216],[92.59172,22.08648],[92.59136,22.08751],[92.59077,22.08922],[92.58868,22.09415],[92.58762,22.09694],[92.58663,22.09952],[92.58441,22.10551],[92.58414,22.1062],[92.58269,22.10863],[92.58061,22.11176],[92.58025,22.11231],[92.57832,22.11477],[92.5753,22.1183],[92.57367,22.12157],[92.57188,22.12483],[92.57162,22.12585],[92.57129,22.12675],[92.57042,22.12912],[92.57118,22.13233],[92.57539,22.1337],[92.58025,22.13396],[92.58531,22.13481],[92.58764,22.13966],[92.59163,22.13817],[92.59648,22.13656],[92.59655,22.13647],[92.59796,22.13471],[92.60177,22.12993],[92.60467,22.12629],[92.6049,22.126],[92.60998,22.12131],[92.61216,22.13313],[92.61366,22.1421],[92.61479,22.14686],[92.61452,22.14773],[92.61383,22.14997],[92.61375,22.15071],[92.61407,22.15513],[92.61347,22.16059],[92.61389,22.17294],[92.61161,22.17609],[92.60906,22.17655],[92.60713,22.17787],[92.60638,22.17839],[92.60475,22.18251],[92.60457,22.18666],[92.60357,22.1896],[92.60305,22.19463],[92.6025,22.20002],[92.60139,22.20289],[92.60133,22.20512],[92.60042,22.20938],[92.60073,22.21487],[92.59953,22.22215],[92.59859,22.22713],[92.5977,22.23208],[92.59827,22.2385],[92.59795,22.2483],[92.59768,22.25715],[92.597,22.25918],[92.59504,22.26496],[92.59285,22.27131],[92.59042,22.27679],[92.58893,22.28243],[92.58849,22.28457],[92.58617,22.28938],[92.58564,22.29486],[92.58567,22.30368],[92.58743,22.31748],[92.58753,22.32098],[92.58699,22.32245],[92.5854,22.32829],[92.58454,22.33103],[92.5841,22.33243],[92.5824,22.33743],[92.58109,22.34093],[92.57949,22.34707],[92.57809,22.35269],[92.57792,22.35338],[92.57785,22.35429],[92.5774,22.35658],[92.57707,22.36024],[92.57634,22.36314],[92.57474,22.36706],[92.5732,22.37091],[92.57031,22.37709],[92.56934,22.38095],[92.5681,22.3835],[92.56735,22.38612],[92.5669,22.3877],[92.56562,22.39187],[92.56599,22.39358],[92.56542,22.39707],[92.56445,22.40305],[92.56467,22.4057],[92.56415,22.41413],[92.56407,22.41487],[92.56213,22.42611],[92.562,22.42684],[92.56184,22.42759],[92.55946,22.4379],[92.559,22.44257],[92.55831,22.44833],[92.55816,22.45138],[92.55812,22.45216],[92.55761,22.46269],[92.55749,22.4635],[92.55594,22.46913],[92.5532,22.48111],[92.55146,22.49216],[92.55055,22.5025],[92.55049,22.50369],[92.55023,22.50623],[92.55003,22.50821],[92.54993,22.50981],[92.55047,22.51096],[92.55124,22.51481],[92.55176,22.51616],[92.55168,22.51735],[92.55265,22.51895],[92.55278,22.5205],[92.55214,22.52099],[92.54972,22.52246],[92.54921,22.52242],[92.54872,22.52239],[92.54774,22.52438],[92.5471,22.52572],[92.54763,22.52794],[92.54688,22.53074],[92.54565,22.53289],[92.54514,22.53598],[92.54504,22.53698],[92.54493,22.5382],[92.54413,22.5419],[92.54343,22.54675],[92.54298,22.54984],[92.54162,22.5541],[92.53991,22.55453],[92.53926,22.55469],[92.53796,22.55388],[92.53714,22.55543],[92.53746,22.55812],[92.53755,22.55889],[92.53685,22.56074],[92.53561,22.56141],[92.53497,22.56194],[92.53413,22.56185],[92.53272,22.56171],[92.53145,22.56234],[92.53191,22.56383],[92.53197,22.56396],[92.53314,22.56611],[92.53381,22.56984],[92.53351,22.57101],[92.53373,22.57499],[92.53449,22.57538],[92.53506,22.5752],[92.53575,22.57569],[92.53686,22.57517],[92.53868,22.57545],[92.53968,22.5765],[92.54034,22.57832],[92.5405,22.57875],[92.5402,22.58136],[92.53996,22.58391],[92.53989,22.58542],[92.5401,22.58844],[92.54002,22.59234],[92.53987,22.60019],[92.5398,22.60411],[92.53816,22.60834],[92.53725,22.61406],[92.53596,22.61775],[92.5363,22.62238],[92.53623,22.62693],[92.53537,22.63005],[92.53529,22.63038],[92.53405,22.63569],[92.53402,22.63799],[92.53397,22.64284],[92.53263,22.65109],[92.53175,22.65614],[92.52914,22.66354],[92.5284,22.66488],[92.5278,22.66596],[92.52738,22.66913],[92.52704,22.67507],[92.52698,22.67616],[92.52631,22.67774],[92.52388,22.68352],[92.52157,22.68782],[92.5204,22.69533],[92.51919,22.70092],[92.51762,22.70772],[92.51505,22.71444],[92.51342,22.71931],[92.51053,22.72493],[92.50718,22.73237],[92.50434,22.73554],[92.5059,22.73577],[92.5114,22.73661],[92.51207,22.73668],[92.51418,22.74105],[92.51022,22.74496],[92.51251,22.74913],[92.51661,22.75174],[92.51918,22.75726],[92.52554,22.7622],[92.52779,22.76085]]]}},{"type":"Feature","properties":{"ID_0":105,"ISO":"IND","NAME_0":"India","ID_1":24,"NAME_1":"Mizoram","ID_2":360,"NAME_2":"Lunglei","NL_NAME_2":null,"VARNAME_2":null,"TYPE_2":"District","ENGTYPE_2":"District","STATE":"Mizoram","DISTRICT":"Lunglei"},"geometry":{"type":"MultiPolygon","coordinates":[[[[92.5059,22.73577],[92.50434,22.73554],[92.50421,22.73568],[92.5059,22.73577]]],[[[92.61863,23.3914],[92.62022,23.38718],[92.62284,23.38849],[92.62807,23.38799],[92.63166,23.39219],[92.63848,23.39317],[92.64287,23.39009],[92.64401,23.38598],[92.64842,23.38393],[92.66099,23.38292],[92.66698,23.3834],[92.6701,23.38273],[92.67405,23.38496],[92.67979,23.38112],[92.67877,23.37754],[92.68042,23.37493],[92.68011,23.37349],[92.67632,23.3708],[92.67545,23.3689],[92.67843,23.36813],[92.68603,23.3694],[92.68892,23.36535],[92.68977,23.36078],[92.69204,23.35713],[92.69152,23.35522],[92.69051,23.35454],[92.69028,23.35211],[92.69074,23.34617],[92.69178,23.3439],[92.69125,23.34102],[92.68836,23.33839],[92.69115,23.33126],[92.69051,23.3297],[92.68888,23.32891],[92.68771,23.32955],[92.68557,23.32859],[92.68594,23.32616],[92.68948,23.31962],[92.68855,23.31379],[92.69086,23.31173],[92.6933,23.30954],[92.69228,23.30655],[92.69034,23.3061],[92.69103,23.29939],[92.68906,23.29635],[92.68859,23.29295],[92.69003,23.28722],[92.68806,23.28256],[92.68887,23.28181],[92.69221,23.28161],[92.69072,23.2759],[92.69299,23.27155],[92.69484,23.26288],[92.69391,23.25042],[92.69276,23.24685],[92.69296,23.24494],[92.69489,23.24193],[92.69436,23.23921],[92.69622,23.2243],[92.69839,23.21876],[92.70908,23.20995],[92.70866,23.20655],[92.70486,23.20005],[92.70821,23.19963],[92.70756,23.19715],[92.71091,23.19472],[92.71799,23.19353],[92.72386,23.19424],[92.72503,23.19521],[92.72588,23.1974],[92.72648,23.20819],[92.72895,23.21273],[92.72752,23.21944],[92.72887,23.22451],[92.72713,23.23058],[92.72754,23.23387],[92.72612,23.24116],[92.72657,23.24306],[92.73782,23.24159],[92.73986,23.2395],[92.74242,23.23474],[92.74654,23.23656],[92.75078,23.23543],[92.75513,23.23586],[92.75655,23.23527],[92.75823,23.23416],[92.76016,23.22919],[92.76824,23.23328],[92.77019,23.23494],[92.77499,23.23577],[92.78123,23.23099],[92.78481,23.2294],[92.79233,23.2331],[92.80417,23.22879],[92.81829,23.22804],[92.82003,23.22894],[92.82126,23.23102],[92.82056,23.23646],[92.82179,23.24211],[92.82313,23.24388],[92.826,23.24392],[92.82743,23.24517],[92.83018,23.24522],[92.83711,23.2481],[92.8404,23.24709],[92.84155,23.24374],[92.84302,23.24194],[92.84842,23.24068],[92.85083,23.23915],[92.8508,23.23789],[92.85056,23.23679],[92.85136,23.23661],[92.85065,23.23402],[92.85175,23.23165],[92.85109,23.22998],[92.85311,23.22609],[92.85615,23.22411],[92.8568,23.22271],[92.85917,23.22131],[92.86228,23.21776],[92.86349,23.21336],[92.86039,23.19843],[92.86099,23.1952],[92.86402,23.189],[92.86451,23.18651],[92.86896,23.17937],[92.86881,23.17697],[92.8699,23.17545],[92.8746,23.17742],[92.877,23.17435],[92.88008,23.17207],[92.8861,23.17139],[92.88905,23.17193],[92.89926,23.1808],[92.90307,23.17991],[92.9101,23.18026],[92.91479,23.18299],[92.91933,23.18464],[92.92367,23.1928],[92.92634,23.19104],[92.92732,23.18948],[92.92992,23.18894],[92.93408,23.18855],[92.93789,23.18973],[92.94019,23.18943],[92.93985,23.1854],[92.93871,23.18346],[92.93815,23.17866],[92.93952,23.17415],[92.94162,23.17217],[92.95076,23.17208],[92.95267,23.16987],[92.95697,23.16937],[92.95882,23.1682],[92.96197,23.16031],[92.95971,23.15444],[92.96285,23.15067],[92.96159,23.14427],[92.96295,23.14293],[92.96195,23.13746],[92.96463,23.1372],[92.96504,23.13563],[92.96308,23.13305],[92.96237,23.11897],[92.96471,23.11752],[92.96913,23.11783],[92.9696,23.11413],[92.98672,23.10718],[92.98989,23.10289],[92.99144,23.10304],[92.99348,23.10013],[92.99599,23.10033],[92.99716,23.09733],[93.00176,23.09562],[93.00893,23.0901],[93.02383,23.08185],[93.02916,23.08189],[93.03542,23.08389],[93.04175,23.08393],[93.04532,23.0804],[93.04653,23.07726],[93.04447,23.0733],[93.04389,23.05246],[93.04812,23.04894],[93.06353,23.04727],[93.08275,23.03898],[93.08557,23.03698],[93.0841,23.03437],[93.08578,23.03147],[93.09814,23.02858],[93.12106,23.01284],[93.13021,23.00645],[93.1292,23.00077],[93.13341,22.99607],[93.13739,22.99417],[93.14257,22.99372],[93.145,22.98775],[93.14762,22.9806],[93.14809,22.97555],[93.14652,22.97085],[93.14272,22.96859],[93.1425,22.96442],[93.14621,22.96118],[93.14883,22.95647],[93.15164,22.94997],[93.1526,22.94147],[93.15344,22.93062],[93.15725,22.92673],[93.16172,22.92447],[93.16611,22.92248],[93.16835,22.91913],[93.16649,22.91588],[93.16367,22.91409],[93.16277,22.91353],[93.15858,22.91362],[93.15234,22.91291],[93.14597,22.9129],[93.13876,22.91318],[93.13522,22.90722],[93.13881,22.90017],[93.13833,22.89339],[93.13715,22.88959],[93.13555,22.88255],[93.1332,22.87521],[93.13025,22.86943],[93.12388,22.86591],[93.12167,22.86275],[93.12085,22.85479],[93.12151,22.8434],[93.1208,22.83734],[93.11665,22.83262],[93.11563,22.83146],[93.11122,22.82821],[93.11266,22.82216],[93.11544,22.82126],[93.11657,22.82089],[93.11619,22.81628],[93.11436,22.81537],[93.10925,22.81284],[93.10426,22.81176],[93.09927,22.81041],[93.10284,22.79214],[93.10365,22.7887],[93.10403,22.78711],[93.09267,22.79413],[93.08916,22.79738],[93.0843,22.80007],[93.08566,22.80415],[93.08872,22.80694],[93.09136,22.81062],[93.08627,22.81025],[93.08094,22.80931],[93.07203,22.80519],[93.0655,22.80305],[93.06556,22.79688],[93.05805,22.7947],[93.04761,22.79645],[93.03374,22.79863],[93.03271,22.79444],[93.03096,22.78633],[93.02664,22.78706],[93.02142,22.78699],[93.01978,22.78256],[93.01535,22.77925],[93.01228,22.77605],[93.01427,22.77063],[93.01081,22.76541],[93.01113,22.75941],[93.00816,22.75631],[93.00214,22.7567],[92.99316,22.75643],[92.99021,22.7586],[92.98234,22.76016],[92.97047,22.77222],[92.96253,22.78308],[92.94407,22.79234],[92.93481,22.79288],[92.92789,22.79213],[92.92653,22.79119],[92.92758,22.78316],[92.93204,22.78259],[92.93309,22.7787],[92.92713,22.774],[92.92198,22.76684],[92.92077,22.73906],[92.92199,22.73072],[92.92323,22.7251],[92.93585,22.71625],[92.93918,22.70926],[92.93522,22.68679],[92.93605,22.68007],[92.93619,22.6659],[92.94399,22.64766],[92.95411,22.63519],[92.95741,22.62999],[92.95399,22.62166],[92.95619,22.60444],[92.95123,22.59739],[92.95255,22.59102],[92.95168,22.57775],[92.94732,22.5664],[92.94323,22.56185],[92.93693,22.55708],[92.93106,22.55247],[92.91976,22.54754],[92.91529,22.54724],[92.91115,22.55387],[92.90668,22.57195],[92.90613,22.57713],[92.90186,22.58479],[92.9019,22.58617],[92.88593,22.58399],[92.88016,22.58915],[92.87392,22.59723],[92.86794,22.60112],[92.86479,22.60481],[92.85891,22.60911],[92.85252,22.61518],[92.85147,22.61867],[92.84709,22.62293],[92.83899,22.62625],[92.82777,22.62794],[92.82425,22.62754],[92.81531,22.62994],[92.81013,22.62941],[92.80527,22.62353],[92.80503,22.61822],[92.80695,22.61428],[92.80571,22.60931],[92.79854,22.60694],[92.79931,22.60432],[92.79893,22.59971],[92.80302,22.58762],[92.80376,22.58286],[92.80627,22.57661],[92.80607,22.56912],[92.8009,22.55863],[92.80042,22.55402],[92.79386,22.54971],[92.78486,22.54043],[92.7823,22.53284],[92.78072,22.53195],[92.77995,22.52912],[92.77995,22.52037],[92.78207,22.51573],[92.78398,22.50027],[92.78132,22.49972],[92.77913,22.50118],[92.77793,22.50376],[92.77169,22.49952],[92.76685,22.49997],[92.76491,22.50282],[92.75892,22.5223],[92.75865,22.53577],[92.75753,22.54358],[92.74919,22.54886],[92.74585,22.55342],[92.72556,22.56583],[92.7211,22.57014],[92.71665,22.57721],[92.7149,22.58225],[92.71276,22.58487],[92.70036,22.59181],[92.69798,22.59747],[92.69608,22.60896],[92.69913,22.61851],[92.69852,22.62242],[92.68602,22.62641],[92.67686,22.62645],[92.66431,22.62175],[92.66092,22.62183],[92.64923,22.61869],[92.64937,22.62814],[92.65137,22.63129],[92.6509,22.63727],[92.64671,22.64796],[92.64447,22.6522],[92.64027,22.65582],[92.63397,22.65853],[92.63362,22.66163],[92.63581,22.66455],[92.63506,22.66874],[92.62985,22.66901],[92.6241,22.67237],[92.62132,22.68257],[92.61707,22.67945],[92.61356,22.68124],[92.61185,22.6876],[92.60758,22.69082],[92.60413,22.6967],[92.60189,22.70587],[92.60386,22.71396],[92.60361,22.72214],[92.60053,22.72428],[92.59922,22.72869],[92.59998,22.73072],[92.59566,22.73122],[92.58974,22.74868],[92.5855,22.75064],[92.58253,22.74626],[92.58233,22.73895],[92.57886,22.73561],[92.57193,22.73244],[92.56216,22.74599],[92.55193,22.75348],[92.5482,22.75815],[92.54166,22.76097],[92.53011,22.75946],[92.52779,22.76085],[92.52554,22.7622],[92.51918,22.75726],[92.51661,22.75174],[92.51251,22.74913],[92.51022,22.74496],[92.51418,22.74105],[92.51207,22.73668],[92.5114,22.73661],[92.51007,22.73819],[92.5057,22.73943],[92.50308,22.74114],[92.50521,22.7436],[92.50552,22.74396],[92.50443,22.74418],[92.48865,22.74744],[92.48825,22.74771],[92.48462,22.75025],[92.48723,22.75178],[92.49141,22.75204],[92.49213,22.75386],[92.49138,22.75467],[92.48816,22.75707],[92.48742,22.75966],[92.4813,22.76245],[92.48465,22.76445],[92.48383,22.76531],[92.48366,22.76601],[92.48313,22.76689],[92.48325,22.77082],[92.48653,22.77283],[92.48278,22.7769],[92.48267,22.77879],[92.48252,22.7817],[92.47766,22.78428],[92.47706,22.78664],[92.47655,22.78764],[92.47644,22.78907],[92.47599,22.7907],[92.47664,22.79349],[92.47797,22.79616],[92.47779,22.79833],[92.47282,22.80082],[92.47124,22.80277],[92.47014,22.8042],[92.46883,22.8071],[92.46963,22.81029],[92.46647,22.81055],[92.46262,22.81406],[92.46256,22.81417],[92.46169,22.81605],[92.46119,22.81685],[92.46064,22.81838],[92.46067,22.82011],[92.45884,22.82092],[92.45769,22.82114],[92.45749,22.82299],[92.45915,22.82358],[92.45843,22.82637],[92.45915,22.82741],[92.45918,22.82803],[92.46001,22.82909],[92.46166,22.82975],[92.46293,22.83058],[92.46445,22.83189],[92.46476,22.83276],[92.46404,22.8344],[92.46312,22.83651],[92.45942,22.84008],[92.45751,22.84173],[92.46125,22.84339],[92.46319,22.84251],[92.4645,22.84322],[92.46286,22.84507],[92.46113,22.84701],[92.46167,22.84868],[92.45998,22.85216],[92.45947,22.85271],[92.4592,22.85377],[92.46104,22.85332],[92.46185,22.8534],[92.46306,22.8532],[92.4634,22.85313],[92.46386,22.85303],[92.46466,22.85379],[92.46437,22.85603],[92.46284,22.85784],[92.46222,22.85843],[92.46221,22.85857],[92.46206,22.86039],[92.46094,22.86153],[92.45898,22.86198],[92.45814,22.86207],[92.4562,22.8625],[92.45453,22.86348],[92.45353,22.86556],[92.45464,22.86743],[92.45539,22.86899],[92.45746,22.87047],[92.45827,22.87196],[92.45612,22.87386],[92.45374,22.87539],[92.45239,22.87589],[92.45108,22.87689],[92.45056,22.87753],[92.45008,22.87906],[92.45006,22.8814],[92.45023,22.88419],[92.45017,22.88542],[92.44837,22.88669],[92.4479,22.89057],[92.44753,22.89359],[92.44553,22.89489],[92.44521,22.8951],[92.44508,22.89496],[92.44324,22.89307],[92.44193,22.89158],[92.44168,22.89116],[92.44113,22.89027],[92.44083,22.88957],[92.4404,22.88858],[92.43941,22.88689],[92.43829,22.88671],[92.43784,22.88663],[92.43765,22.88667],[92.43691,22.88683],[92.43633,22.88555],[92.4329,22.88693],[92.43072,22.88972],[92.43091,22.89383],[92.43127,22.89526],[92.42995,22.89671],[92.42924,22.89875],[92.42809,22.90178],[92.42517,22.90494],[92.42419,22.90606],[92.42303,22.90608],[92.42075,22.90893],[92.41876,22.91296],[92.42038,22.91719],[92.42106,22.91867],[92.42124,22.91906],[92.42143,22.92012],[92.41865,22.92027],[92.41799,22.91945],[92.41714,22.91839],[92.41666,22.91682],[92.416,22.91578],[92.41537,22.91548],[92.41341,22.91607],[92.41273,22.91612],[92.41142,22.91673],[92.41099,22.91686],[92.41002,22.91715],[92.40879,22.91628],[92.40715,22.91606],[92.40563,22.9161],[92.40441,22.91653],[92.40405,22.91703],[92.40392,22.91719],[92.402,22.91992],[92.40153,22.92168],[92.40092,22.92546],[92.40012,22.92746],[92.39905,22.92932],[92.39759,22.93088],[92.39749,22.93095],[92.39655,22.9316],[92.39513,22.93192],[92.39368,22.93162],[92.39213,22.93107],[92.39098,22.93071],[92.39078,22.9307],[92.39051,22.93068],[92.38922,22.93058],[92.38692,22.93063],[92.38551,22.93039],[92.38494,22.93032],[92.38472,22.93029],[92.38291,22.93014],[92.38099,22.93028],[92.37882,22.93092],[92.37731,22.93175],[92.37578,22.93376],[92.37543,22.93488],[92.37533,22.93731],[92.37578,22.93989],[92.37648,22.94207],[92.37728,22.94458],[92.37793,22.94646],[92.37875,22.94853],[92.37966,22.95125],[92.38002,22.95274],[92.38032,22.9555],[92.37994,22.95824],[92.3792,22.95981],[92.37872,22.96085],[92.37822,22.96227],[92.37784,22.96477],[92.37803,22.96771],[92.37879,22.97141],[92.3794,22.97572],[92.37968,22.97696],[92.38031,22.9807],[92.3805,22.98189],[92.38346,22.9855],[92.3855,22.98693],[92.38304,22.99097],[92.38365,22.99155],[92.38558,22.99346],[92.3848,22.99828],[92.38584,23.00171],[92.38383,23.0065],[92.38308,23.0078],[92.38179,23.00997],[92.38255,23.01336],[92.38403,23.01792],[92.38579,23.02211],[92.38655,23.02805],[92.38599,23.03457],[92.38557,23.03727],[92.38546,23.038],[92.39046,23.04183],[92.39065,23.04229],[92.39264,23.04702],[92.39311,23.0491],[92.39323,23.04991],[92.39365,23.05251],[92.39367,23.05817],[92.39232,23.06137],[92.39159,23.06254],[92.39111,23.06424],[92.39081,23.06494],[92.38844,23.07008],[92.38846,23.07622],[92.38707,23.08022],[92.38597,23.08165],[92.38587,23.08368],[92.38388,23.08743],[92.38244,23.08571],[92.38033,23.08675],[92.37901,23.08786],[92.37804,23.0888],[92.37748,23.08935],[92.37727,23.09039],[92.37636,23.09166],[92.37453,23.09542],[92.37405,23.09641],[92.37301,23.09738],[92.37077,23.09774],[92.36905,23.09851],[92.36883,23.10088],[92.36744,23.10303],[92.36626,23.10459],[92.36617,23.10539],[92.3658,23.10595],[92.36536,23.11035],[92.36787,23.11326],[92.36837,23.11478],[92.36885,23.11747],[92.37035,23.11995],[92.3714,23.12241],[92.37247,23.12458],[92.37344,23.12787],[92.37255,23.12952],[92.37182,23.12999],[92.37061,23.13133],[92.36878,23.13228],[92.36729,23.13218],[92.36624,23.13483],[92.36513,23.13665],[92.36474,23.13742],[92.36516,23.13879],[92.36627,23.14246],[92.36834,23.14528],[92.36869,23.14603],[92.36821,23.14797],[92.36804,23.14954],[92.36824,23.15239],[92.36891,23.15337],[92.36926,23.15389],[92.36956,23.15552],[92.37163,23.15975],[92.37138,23.16108],[92.37033,23.16267],[92.36979,23.1664],[92.36783,23.1713],[92.36634,23.17398],[92.36614,23.17602],[92.366,23.17641],[92.36563,23.17748],[92.36541,23.1815],[92.36624,23.18346],[92.3664,23.18348],[92.36955,23.18391],[92.36865,23.18625],[92.36661,23.18752],[92.36512,23.1879],[92.36301,23.1892],[92.36257,23.19072],[92.3622,23.19203],[92.36202,23.19471],[92.36157,23.19709],[92.36303,23.19923],[92.36414,23.2015],[92.36411,23.2038],[92.36401,23.20522],[92.36451,23.20876],[92.36451,23.21151],[92.36388,23.21389],[92.36425,23.21673],[92.36421,23.21794],[92.36403,23.22016],[92.36371,23.22227],[92.36298,23.22536],[92.3622,23.22742],[92.36211,23.22925],[92.36184,23.23046],[92.3611,23.23754],[92.36252,23.23852],[92.36437,23.23842],[92.36796,23.23855],[92.36935,23.23886],[92.37264,23.23959],[92.37316,23.2397],[92.37631,23.23975],[92.37822,23.23997],[92.38342,23.23991],[92.38485,23.23994],[92.38621,23.24002],[92.38684,23.24008],[92.38929,23.24009],[92.3903,23.24041],[92.39155,23.24053],[92.3926,23.24064],[92.39756,23.2406],[92.39839,23.2407],[92.39934,23.24082],[92.40022,23.24094],[92.40679,23.24196],[92.40863,23.24224],[92.40863,23.24608],[92.40767,23.24801],[92.40653,23.25],[92.4062,23.25183],[92.4058,23.25278],[92.40551,23.25581],[92.4036,23.25841],[92.40193,23.25886],[92.4003,23.26019],[92.3992,23.26144],[92.3988,23.2621],[92.39799,23.26347],[92.39712,23.26497],[92.39652,23.26632],[92.39616,23.2672],[92.39929,23.26729],[92.40061,23.26632],[92.40055,23.26732],[92.4027,23.26738],[92.40519,23.26546],[92.40969,23.26769],[92.41048,23.2667],[92.41029,23.26532],[92.4114,23.26427],[92.41457,23.26328],[92.41829,23.25921],[92.42194,23.25833],[92.42227,23.26052],[92.41904,23.26279],[92.41936,23.26319],[92.42728,23.26529],[92.4342,23.27437],[92.44094,23.27716],[92.44207,23.2783],[92.44199,23.28102],[92.43788,23.28342],[92.43765,23.2859],[92.4435,23.28634],[92.44761,23.28665],[92.45234,23.28605],[92.45493,23.28811],[92.45837,23.29918],[92.46134,23.30505],[92.46135,23.30696],[92.46467,23.31006],[92.467,23.32009],[92.46794,23.32055],[92.4733,23.31907],[92.47536,23.32028],[92.47625,23.32334],[92.47355,23.32872],[92.47169,23.34362],[92.4637,23.35089],[92.46496,23.35261],[92.46487,23.35821],[92.47021,23.35518],[92.46883,23.36113],[92.46642,23.36404],[92.46188,23.36544],[92.46102,23.36689],[92.46246,23.36908],[92.46375,23.3741],[92.46371,23.37577],[92.46228,23.37595],[92.46127,23.38133],[92.46648,23.38621],[92.46787,23.39047],[92.46912,23.39092],[92.47923,23.39156],[92.48325,23.389],[92.48666,23.38477],[92.49193,23.38318],[92.49688,23.3858],[92.49809,23.38793],[92.49823,23.39173],[92.50015,23.38977],[92.50246,23.38998],[92.50325,23.38848],[92.50903,23.38509],[92.51273,23.38051],[92.5212,23.38029],[92.52968,23.38128],[92.53416,23.37958],[92.53864,23.38081],[92.54475,23.38118],[92.54973,23.38012],[92.55072,23.37935],[92.55072,23.37757],[92.55271,23.37808],[92.55927,23.37134],[92.56493,23.37107],[92.56675,23.37332],[92.56837,23.37839],[92.56986,23.37959],[92.58013,23.37871],[92.58804,23.38328],[92.58993,23.3861],[92.59171,23.39221],[92.58926,23.40303],[92.59329,23.40663],[92.60303,23.40305],[92.60486,23.39882],[92.61506,23.39622],[92.61863,23.3914]]]]}},{"type":"Feature","properties":{"ID_0":105,"ISO":"IND","NAME_0":"India","ID_1":24,"NAME_1":"Mizoram","ID_2":361,"NAME_2":"Mamit","NL_NAME_2":null,"VARNAME_2":null,"TYPE_2":"District","ENGTYPE_2":"District","STATE":"Mizoram","DISTRICT":"Mamit"},"geometry":{"type":"MultiPolygon","coordinates":[[[[92.39929,23.26729],[92.39616,23.2672],[92.3961,23.26735],[92.39688,23.26836],[92.39698,23.26848],[92.39722,23.26881],[92.39787,23.26833],[92.39929,23.26729]]],[[[92.42238,24.25311],[92.42253,24.24817],[92.42005,24.2352],[92.41852,24.22165],[92.42018,24.21789],[92.41822,24.21091],[92.41972,24.20247],[92.41898,24.19436],[92.42215,24.18853],[92.43321,24.18327],[92.4342,24.18138],[92.43446,24.17414],[92.43775,24.1705],[92.43814,24.16913],[92.43523,24.16258],[92.43657,24.15243],[92.43743,24.15135],[92.43876,24.15125],[92.44183,24.15285],[92.44389,24.1531],[92.45063,24.14369],[92.45722,24.1435],[92.46307,24.13637],[92.46484,24.13663],[92.46597,24.13475],[92.46683,24.13504],[92.46859,24.138],[92.47335,24.13996],[92.47332,24.14203],[92.47482,24.14291],[92.47961,24.1409],[92.48087,24.14132],[92.4815,24.14294],[92.47875,24.14871],[92.48063,24.15011],[92.48066,24.1523],[92.48293,24.15272],[92.48356,24.15393],[92.48119,24.15708],[92.48264,24.15709],[92.48396,24.15814],[92.4849,24.15931],[92.48494,24.16138],[92.48586,24.1622],[92.48808,24.16222],[92.49476,24.15994],[92.50014,24.16052],[92.50246,24.16211],[92.50326,24.16667],[92.50488,24.16731],[92.50678,24.16682],[92.50954,24.16289],[92.51283,24.16258],[92.512,24.16482],[92.50864,24.1692],[92.51373,24.16926],[92.51479,24.1702],[92.51357,24.17358],[92.51513,24.17549],[92.51759,24.17621],[92.52176,24.17293],[92.5254,24.17293],[92.52966,24.1748],[92.52991,24.17641],[92.53152,24.17742],[92.53289,24.18053],[92.53654,24.17814],[92.53651,24.17302],[92.53266,24.16792],[92.52977,24.16661],[92.52992,24.16368],[92.54088,24.15508],[92.5418,24.15256],[92.54433,24.1492],[92.54581,24.14312],[92.54534,24.14035],[92.5429,24.13618],[92.53996,24.13333],[92.53961,24.13034],[92.5383,24.12762],[92.53857,24.12624],[92.54441,24.1258],[92.54472,24.12453],[92.54342,24.12302],[92.5389,24.11204],[92.54128,24.1019],[92.54087,24.09752],[92.53889,24.09411],[92.54135,24.08143],[92.54118,24.07929],[92.54064,24.07486],[92.53719,24.0655],[92.53912,24.06006],[92.53915,24.05593],[92.53796,24.05368],[92.53732,24.04946],[92.5397,24.03971],[92.53992,24.0353],[92.54237,24.03613],[92.55082,24.04239],[92.54991,24.04663],[92.55102,24.05705],[92.55196,24.05988],[92.55461,24.06279],[92.55599,24.06292],[92.55853,24.06167],[92.55924,24.05916],[92.55904,24.05519],[92.5649,24.05463],[92.56018,24.04233],[92.56182,24.04148],[92.56615,24.0417],[92.5685,24.04052],[92.57162,24.04809],[92.57429,24.0514],[92.57329,24.06083],[92.57344,24.06353],[92.57748,24.06835],[92.5776,24.07008],[92.5747,24.0755],[92.57487,24.07648],[92.58419,24.07654],[92.58655,24.07541],[92.58678,24.06593],[92.58768,24.06462],[92.58896,24.06365],[92.59314,24.06285],[92.60204,24.05219],[92.61207,24.05224],[92.61522,24.0516],[92.61671,24.04868],[92.61779,24.04236],[92.62127,24.03585],[92.62312,24.03381],[92.62705,24.03293],[92.62576,24.03682],[92.62577,24.03946],[92.62644,24.04079],[92.62818,24.04133],[92.63048,24.04073],[92.6341,24.03709],[92.63908,24.03508],[92.63857,24.03357],[92.63739,24.03281],[92.63271,24.03144],[92.63051,24.02831],[92.63024,24.02612],[92.62801,24.02282],[92.62691,24.01935],[92.62646,24.01451],[92.62381,24.01017],[92.62517,24.008],[92.63314,24.0027],[92.63351,23.99935],[92.63216,23.99756],[92.63149,23.99501],[92.63142,23.99257],[92.63291,23.98783],[92.62627,23.9803],[92.62102,23.96348],[92.62103,23.95967],[92.62833,23.95606],[92.63107,23.94708],[92.63085,23.94553],[92.62722,23.94447],[92.62601,23.94343],[92.62435,23.94044],[92.62383,23.93749],[92.62787,23.93493],[92.63763,23.93405],[92.64557,23.93181],[92.64718,23.92451],[92.64957,23.92346],[92.65874,23.9223],[92.66116,23.91887],[92.66389,23.91082],[92.66025,23.90364],[92.65768,23.90134],[92.64626,23.89842],[92.64216,23.89447],[92.6423,23.88817],[92.64397,23.88297],[92.64402,23.87465],[92.64549,23.87065],[92.64878,23.86561],[92.65235,23.85536],[92.65499,23.85025],[92.6578,23.84752],[92.66328,23.83957],[92.66546,23.83801],[92.66531,23.83569],[92.66229,23.83444],[92.65264,23.83301],[92.65019,23.83216],[92.64744,23.82988],[92.64588,23.82583],[92.64709,23.82225],[92.64878,23.82068],[92.6571,23.82073],[92.65576,23.81699],[92.65197,23.8135],[92.64921,23.81265],[92.64377,23.81407],[92.63906,23.81792],[92.63599,23.81741],[92.63405,23.8101],[92.63231,23.80658],[92.62612,23.79877],[92.62835,23.79599],[92.63072,23.79517],[92.64053,23.79533],[92.64233,23.79457],[92.64389,23.79329],[92.64332,23.78555],[92.64141,23.77431],[92.64051,23.77281],[92.63585,23.76989],[92.63063,23.76467],[92.63122,23.76317],[92.63671,23.76064],[92.63886,23.75763],[92.63878,23.74932],[92.64022,23.74082],[92.64341,23.73525],[92.64494,23.73034],[92.65078,23.71985],[92.65317,23.71643],[92.65559,23.71467],[92.65839,23.71379],[92.66458,23.71334],[92.66669,23.71192],[92.66872,23.70967],[92.66882,23.70638],[92.65743,23.68428],[92.6535,23.67923],[92.64767,23.66784],[92.63811,23.66068],[92.6383,23.64977],[92.64182,23.6449],[92.64674,23.64186],[92.64827,23.63989],[92.65356,23.63754],[92.6535,23.63263],[92.65599,23.63094],[92.65955,23.63098],[92.67481,23.62786],[92.67636,23.62549],[92.6767,23.62156],[92.67546,23.61695],[92.67597,23.61134],[92.67518,23.6073],[92.67308,23.60241],[92.66539,23.59722],[92.65759,23.59565],[92.65421,23.59429],[92.65294,23.59217],[92.65332,23.5865],[92.65526,23.57898],[92.65824,23.57746],[92.66161,23.57259],[92.66002,23.56198],[92.65797,23.5565],[92.65489,23.55542],[92.64929,23.55546],[92.64733,23.55374],[92.64604,23.54971],[92.64689,23.54531],[92.64485,23.54342],[92.63916,23.54173],[92.63624,23.53586],[92.64156,23.52399],[92.64449,23.52241],[92.64846,23.52152],[92.6557,23.5203],[92.6583,23.51892],[92.65804,23.51071],[92.66042,23.50602],[92.6623,23.49959],[92.66145,23.49538],[92.65784,23.49016],[92.65713,23.48716],[92.66007,23.47709],[92.6591,23.45434],[92.66009,23.43836],[92.65942,23.43373],[92.6619,23.43129],[92.66065,23.42397],[92.66757,23.41405],[92.66668,23.40966],[92.67091,23.40386],[92.67126,23.40172],[92.66876,23.39291],[92.67405,23.38496],[92.6701,23.38273],[92.66698,23.3834],[92.66099,23.38292],[92.64842,23.38393],[92.64401,23.38598],[92.64287,23.39009],[92.63848,23.39317],[92.63166,23.39219],[92.62807,23.38799],[92.62284,23.38849],[92.62022,23.38718],[92.61863,23.3914],[92.61506,23.39622],[92.60486,23.39882],[92.60303,23.40305],[92.59329,23.40663],[92.58926,23.40303],[92.59171,23.39221],[92.58993,23.3861],[92.58804,23.38328],[92.58013,23.37871],[92.56986,23.37959],[92.56837,23.37839],[92.56675,23.37332],[92.56493,23.37107],[92.55927,23.37134],[92.55271,23.37808],[92.55072,23.37757],[92.55072,23.37935],[92.54973,23.38012],[92.54475,23.38118],[92.53864,23.38081],[92.53416,23.37958],[92.52968,23.38128],[92.5212,23.38029],[92.51273,23.38051],[92.50903,23.38509],[92.50325,23.38848],[92.50246,23.38998],[92.50015,23.38977],[92.49823,23.39173],[92.49809,23.38793],[92.49688,23.3858],[92.49193,23.38318],[92.48666,23.38477],[92.48325,23.389],[92.47923,23.39156],[92.46912,23.39092],[92.46787,23.39047],[92.46648,23.38621],[92.46127,23.38133],[92.46228,23.37595],[92.46371,23.37577],[92.46375,23.3741],[92.46246,23.36908],[92.46102,23.36689],[92.46188,23.36544],[92.46642,23.36404],[92.46883,23.36113],[92.47021,23.35518],[92.46487,23.35821],[92.46496,23.35261],[92.4637,23.35089],[92.47169,23.34362],[92.47355,23.32872],[92.47625,23.32334],[92.47536,23.32028],[92.4733,23.31907],[92.46794,23.32055],[92.467,23.32009],[92.46467,23.31006],[92.46135,23.30696],[92.46134,23.30505],[92.45837,23.29918],[92.45493,23.28811],[92.45234,23.28605],[92.44761,23.28665],[92.4435,23.28634],[92.43765,23.2859],[92.43788,23.28342],[92.44199,23.28102],[92.44207,23.2783],[92.44094,23.27716],[92.4342,23.27437],[92.42728,23.26529],[92.41936,23.26319],[92.41904,23.26279],[92.42227,23.26052],[92.42194,23.25833],[92.41829,23.25921],[92.41457,23.26328],[92.4114,23.26427],[92.41029,23.26532],[92.41048,23.2667],[92.40969,23.26769],[92.40519,23.26546],[92.4027,23.26738],[92.40055,23.26732],[92.40047,23.26869],[92.40043,23.26935],[92.39944,23.27171],[92.39769,23.27592],[92.39455,23.28213],[92.39318,23.28328],[92.39086,23.28523],[92.38904,23.28881],[92.39004,23.29038],[92.38982,23.29446],[92.38968,23.29726],[92.38955,23.29831],[92.38891,23.30352],[92.38771,23.30856],[92.38711,23.30948],[92.38576,23.31135],[92.38423,23.31347],[92.38291,23.31807],[92.38243,23.31935],[92.38123,23.32067],[92.38023,23.32067],[92.37894,23.3212],[92.37673,23.32116],[92.37616,23.31961],[92.37558,23.31901],[92.37533,23.31819],[92.37393,23.32059],[92.37351,23.32133],[92.37286,23.32293],[92.37291,23.3236],[92.37222,23.3268],[92.37517,23.32818],[92.37715,23.33153],[92.37936,23.33518],[92.3795,23.33567],[92.38115,23.3413],[92.38174,23.34678],[92.38206,23.34741],[92.38354,23.35021],[92.38372,23.35362],[92.38147,23.35647],[92.38156,23.35913],[92.3804,23.36249],[92.37979,23.36323],[92.37827,23.36424],[92.37722,23.36478],[92.37581,23.36529],[92.37506,23.37026],[92.37436,23.37102],[92.37361,23.37047],[92.37233,23.36856],[92.3705,23.36729],[92.36939,23.3671],[92.3677,23.36688],[92.3664,23.36738],[92.36538,23.36794],[92.36419,23.36952],[92.36356,23.3714],[92.36351,23.37357],[92.3642,23.37496],[92.36658,23.37709],[92.36727,23.3777],[92.36872,23.37843],[92.36914,23.3789],[92.36869,23.38037],[92.3683,23.38054],[92.36645,23.38134],[92.36437,23.38124],[92.36268,23.38087],[92.3616,23.38088],[92.36062,23.38115],[92.35982,23.38129],[92.35957,23.3824],[92.35953,23.38532],[92.36209,23.38652],[92.3624,23.38713],[92.36339,23.38906],[92.3632,23.39102],[92.36222,23.39105],[92.36106,23.39109],[92.36042,23.39131],[92.35944,23.39202],[92.35859,23.39472],[92.35867,23.39815],[92.36038,23.40206],[92.36231,23.4038],[92.36221,23.40742],[92.36177,23.40907],[92.36114,23.40995],[92.35851,23.41195],[92.35572,23.41307],[92.35396,23.4136],[92.35347,23.41437],[92.3525,23.41477],[92.35331,23.41686],[92.35392,23.41897],[92.35408,23.41951],[92.35393,23.42259],[92.35338,23.4243],[92.35291,23.42938],[92.35237,23.43127],[92.35151,23.43261],[92.35021,23.43426],[92.34963,23.4347],[92.3493,23.43495],[92.34732,23.43558],[92.34713,23.43564],[92.34694,23.4354],[92.34607,23.43431],[92.34522,23.43364],[92.34261,23.43243],[92.34247,23.43098],[92.34218,23.43007],[92.34077,23.43118],[92.34047,23.43243],[92.34003,23.43426],[92.33863,23.43648],[92.33765,23.44141],[92.33715,23.4457],[92.33585,23.44939],[92.33659,23.45255],[92.33848,23.45387],[92.339,23.45496],[92.33908,23.45601],[92.3365,23.45604],[92.3346,23.45584],[92.33356,23.45746],[92.33293,23.45843],[92.33234,23.46133],[92.33306,23.46096],[92.33494,23.46097],[92.33657,23.45997],[92.33776,23.46196],[92.33805,23.46448],[92.33552,23.46746],[92.33241,23.46825],[92.33111,23.46909],[92.33049,23.46936],[92.32905,23.47014],[92.32711,23.47071],[92.32457,23.47273],[92.32409,23.4731],[92.3232,23.4738],[92.32453,23.47618],[92.32606,23.47642],[92.32839,23.47673],[92.32902,23.47681],[92.3311,23.47715],[92.33255,23.47865],[92.33122,23.48102],[92.33013,23.48163],[92.32986,23.48178],[92.32826,23.48259],[92.32564,23.48589],[92.32344,23.49015],[92.32482,23.4905],[92.32534,23.49056],[92.3258,23.49074],[92.32626,23.49092],[92.32751,23.49188],[92.32653,23.49373],[92.32545,23.49446],[92.32452,23.49511],[92.32451,23.49591],[92.32536,23.49626],[92.32582,23.49645],[92.32679,23.49692],[92.32694,23.49875],[92.32657,23.50058],[92.3262,23.50135],[92.32625,23.50216],[92.32651,23.50629],[92.32635,23.50834],[92.32486,23.51013],[92.32456,23.51048],[92.32342,23.51132],[92.32295,23.51391],[92.32223,23.51668],[92.32182,23.51895],[92.32153,23.51963],[92.32122,23.52197],[92.3232,23.52465],[92.31914,23.52872],[92.31719,23.53068],[92.31624,23.53075],[92.31467,23.53119],[92.31336,23.53299],[92.31282,23.53378],[92.31382,23.5376],[92.31389,23.53786],[92.3142,23.54003],[92.31566,23.54257],[92.31614,23.5454],[92.31606,23.54609],[92.31515,23.54866],[92.317,23.55105],[92.31799,23.55461],[92.31541,23.56021],[92.3135,23.56259],[92.31353,23.56334],[92.31362,23.56552],[92.31367,23.56663],[92.31234,23.56949],[92.31146,23.57055],[92.31202,23.57554],[92.31149,23.57909],[92.30976,23.58288],[92.30919,23.58361],[92.30888,23.58456],[92.30772,23.5867],[92.30586,23.59126],[92.30486,23.59108],[92.30309,23.58948],[92.30224,23.58866],[92.30183,23.58807],[92.30129,23.58871],[92.29943,23.59034],[92.29914,23.59106],[92.29698,23.59328],[92.29361,23.59596],[92.2929,23.6013],[92.29328,23.60535],[92.29316,23.60757],[92.29332,23.61483],[92.29334,23.61553],[92.29424,23.61822],[92.29459,23.61951],[92.29773,23.62156],[92.30063,23.62211],[92.30018,23.62526],[92.29765,23.62707],[92.29607,23.62819],[92.29295,23.6298],[92.29217,23.62968],[92.29133,23.62924],[92.29014,23.62887],[92.28848,23.62723],[92.28655,23.62783],[92.28577,23.62766],[92.28477,23.62779],[92.2838,23.62809],[92.28357,23.629],[92.28144,23.63005],[92.28246,23.63337],[92.28508,23.63597],[92.28533,23.63622],[92.28621,23.63654],[92.28374,23.63792],[92.2813,23.63899],[92.28075,23.63926],[92.28053,23.63937],[92.28004,23.64384],[92.28036,23.64449],[92.28232,23.64731],[92.28521,23.65127],[92.28612,23.65366],[92.28802,23.65716],[92.29252,23.6701],[92.29412,23.67258],[92.29533,23.67551],[92.29596,23.67892],[92.29593,23.68227],[92.29594,23.68468],[92.29594,23.68686],[92.29525,23.6927],[92.2949,23.69423],[92.29417,23.6961],[92.29306,23.69871],[92.29161,23.70089],[92.29069,23.70306],[92.28984,23.70411],[92.28881,23.70527],[92.28564,23.70684],[92.28301,23.70835],[92.28036,23.71441],[92.2767,23.72106],[92.27626,23.72187],[92.26918,23.72811],[92.2685,23.72861],[92.26635,23.73873],[92.26827,23.7564],[92.26711,23.7619],[92.26803,23.76651],[92.2678,23.76997],[92.26374,23.79165],[92.26355,23.79974],[92.26234,23.80488],[92.26065,23.80708],[92.2594,23.81499],[92.26948,23.81778],[92.27666,23.81521],[92.27911,23.8167],[92.28077,23.81513],[92.28373,23.81627],[92.28584,23.81569],[92.28679,23.81678],[92.28571,23.82262],[92.28345,23.82344],[92.2836,23.8242],[92.28159,23.82616],[92.28207,23.8309],[92.27709,23.83658],[92.27589,23.83993],[92.27393,23.84166],[92.27414,23.84361],[92.27475,23.84906],[92.27657,23.85292],[92.28524,23.85733],[92.28778,23.86303],[92.2878,23.86696],[92.29197,23.87145],[92.29391,23.87132],[92.29514,23.87011],[92.29505,23.86548],[92.30064,23.86644],[92.30423,23.86382],[92.3073,23.86387],[92.30986,23.86264],[92.31554,23.86349],[92.31957,23.8652],[92.3202,23.86583],[92.31822,23.86705],[92.31853,23.86798],[92.32198,23.86981],[92.32214,23.87379],[92.32041,23.87801],[92.31903,23.87768],[92.31711,23.87918],[92.3175,23.88138],[92.31656,23.88167],[92.31626,23.88329],[92.31713,23.88409],[92.31933,23.88368],[92.31953,23.8861],[92.31828,23.88796],[92.31899,23.88917],[92.3185,23.89049],[92.31918,23.89073],[92.31991,23.88987],[92.32069,23.89124],[92.32157,23.8914],[92.32303,23.90416],[92.3236,23.90468],[92.32578,23.90443],[92.32774,23.90627],[92.32986,23.90552],[92.33049,23.90759],[92.33115,23.9118],[92.32939,23.91886],[92.33066,23.92145],[92.32968,23.92312],[92.32792,23.924],[92.32117,23.92611],[92.31808,23.93035],[92.3134,23.93453],[92.31271,23.94123],[92.31341,23.94329],[92.31123,23.94562],[92.31262,23.95745],[92.31145,23.96058],[92.31334,23.96097],[92.31263,23.97021],[92.31522,23.97095],[92.31499,23.97217],[92.31768,23.9721],[92.31964,23.97532],[92.32207,23.97525],[92.32275,23.97981],[92.32412,23.97946],[92.32552,23.98326],[92.32779,23.9847],[92.32772,23.98573],[92.3258,23.98747],[92.32906,23.98965],[92.32724,24.00192],[92.32746,24.00421],[92.32465,24.00653],[92.31716,24.01763],[92.31748,24.0189],[92.31886,24.0192],[92.32088,24.01791],[92.32172,24.01878],[92.31834,24.02259],[92.3191,24.02547],[92.3167,24.02797],[92.31927,24.03024],[92.31932,24.03128],[92.31413,24.03471],[92.3172,24.0375],[92.31754,24.03952],[92.31542,24.0449],[92.31527,24.04869],[92.31683,24.05135],[92.31905,24.05012],[92.32032,24.05117],[92.3186,24.0573],[92.32175,24.05872],[92.31909,24.06133],[92.3168,24.06676],[92.31818,24.06908],[92.31918,24.0695],[92.3213,24.06837],[92.32332,24.06961],[92.32288,24.07179],[92.32365,24.07329],[92.32733,24.0745],[92.32702,24.07644],[92.32288,24.07696],[92.32282,24.07748],[92.32808,24.08059],[92.32908,24.08216],[92.32812,24.08502],[92.32878,24.08912],[92.32792,24.09377],[92.33019,24.09598],[92.33155,24.09875],[92.32835,24.0986],[92.32971,24.10115],[92.32944,24.10287],[92.33231,24.10527],[92.33236,24.10681],[92.32932,24.11034],[92.33189,24.11176],[92.3317,24.11314],[92.32859,24.11591],[92.32825,24.12459],[92.33104,24.12797],[92.32878,24.12972],[92.32925,24.13162],[92.32816,24.13517],[92.32825,24.13862],[92.32925,24.13985],[92.33231,24.14046],[92.33228,24.14403],[92.33353,24.14433],[92.3353,24.14355],[92.33631,24.14436],[92.33684,24.14679],[92.33435,24.15083],[92.33185,24.16357],[92.32947,24.16452],[92.32856,24.16611],[92.32993,24.17465],[92.32999,24.18005],[92.3308,24.18207],[92.33041,24.18483],[92.32704,24.18611],[92.32961,24.18815],[92.32884,24.18913],[92.32945,24.19115],[92.32476,24.19476],[92.32471,24.19631],[92.32557,24.19754],[92.32515,24.19902],[92.32022,24.20258],[92.3202,24.2043],[92.32481,24.20471],[92.32461,24.20579],[92.31899,24.209],[92.31609,24.21322],[92.31274,24.21099],[92.30975,24.2148],[92.30967,24.21612],[92.3136,24.22113],[92.31375,24.2229],[92.30341,24.22162],[92.30088,24.22204],[92.30116,24.22451],[92.30193,24.2251],[92.29763,24.22723],[92.29917,24.22937],[92.29947,24.23162],[92.29631,24.23383],[92.29628,24.23606],[92.29682,24.23808],[92.29485,24.24071],[92.29407,24.24432],[92.2953,24.24801],[92.2971,24.24954],[92.29661,24.25173],[92.3035,24.25269],[92.3105,24.25135],[92.31407,24.2526],[92.37653,24.25131],[92.39571,24.25253],[92.40684,24.25194],[92.41645,24.25343],[92.42238,24.25311]]]]}},{"type":"Feature","properties":{"ID_0":105,"ISO":"IND","NAME_0":"India","ID_1":24,"NAME_1":"Mizoram","ID_2":362,"NAME_2":"Saiha","NL_NAME_2":null,"VARNAME_2":"Chhimtuipui","TYPE_2":"District","ENGTYPE_2":"District","STATE":"Mizoram","DISTRICT":"Saiha"},"geometry":{"type":"Polygon","coordinates":[[[93.10403,22.78711],[93.10797,22.77027],[93.11134,22.753],[93.11269,22.74424],[93.10916,22.73782],[93.10456,22.73167],[93.10192,22.72742],[93.10084,22.71955],[93.09906,22.71431],[93.09545,22.71107],[93.09175,22.70934],[93.09795,22.7013],[93.10417,22.69615],[93.10689,22.68629],[93.10669,22.68177],[93.10316,22.6787],[93.10355,22.67409],[93.10482,22.6702],[93.10743,22.66414],[93.11063,22.65908],[93.11452,22.65492],[93.1185,22.65148],[93.11478,22.63919],[93.1169,22.63512],[93.12428,22.63005],[93.12955,22.62924],[93.13635,22.62291],[93.13907,22.61821],[93.14293,22.60763],[93.14437,22.59886],[93.14561,22.58612],[93.13664,22.58184],[93.13596,22.58151],[93.13371,22.57734],[93.13353,22.57722],[93.12922,22.57446],[93.12442,22.56705],[93.1216,22.56],[93.11778,22.55891],[93.11553,22.55475],[93.11562,22.55388],[93.11649,22.5458],[93.116,22.54047],[93.11442,22.53686],[93.11192,22.53223],[93.11169,22.53179],[93.11207,22.53165],[93.11985,22.52871],[93.12579,22.52854],[93.13085,22.5261],[93.13366,22.51994],[93.13062,22.51398],[93.12886,22.50982],[93.13059,22.50593],[93.13272,22.50177],[93.13526,22.49897],[93.13778,22.49509],[93.13833,22.48659],[93.13627,22.47962],[93.13452,22.47485],[93.13515,22.47391],[93.13819,22.46932],[93.14207,22.46326],[93.14575,22.45847],[93.14973,22.45593],[93.15672,22.45214],[93.16277,22.45376],[93.17542,22.45132],[93.17812,22.44662],[93.18219,22.43875],[93.1879,22.43367],[93.19081,22.42726],[93.18904,22.42328],[93.18826,22.41894],[93.18893,22.41351],[93.19426,22.4089],[93.19551,22.4033],[93.19325,22.39914],[93.19149,22.39588],[93.19227,22.39083],[93.19641,22.38412],[93.19738,22.37997],[93.19259,22.37084],[93.19451,22.36343],[93.19713,22.35863],[93.19998,22.34362],[93.19949,22.3372],[93.20267,22.33367],[93.20657,22.32953],[93.20287,22.32726],[93.19634,22.32464],[93.19843,22.32011],[93.19952,22.31777],[93.20058,22.31315],[93.20134,22.3061],[93.2017,22.29986],[93.20109,22.29199],[93.20155,22.28648],[93.20193,22.28087],[93.20396,22.27572],[93.20733,22.26967],[93.20926,22.26622],[93.20858,22.26107],[93.19641,22.25565],[93.19037,22.24969],[93.18366,22.24914],[93.17094,22.2497],[93.16598,22.24888],[93.16034,22.24708],[93.15719,22.24743],[93.15463,22.24772],[93.1515,22.24807],[93.14711,22.24654],[93.14643,22.24111],[93.15195,22.23469],[93.15651,22.22872],[93.15765,22.22312],[93.15627,22.21742],[93.15857,22.2112],[93.15907,22.20984],[93.16595,22.20522],[93.16982,22.20006],[93.16677,22.19434],[93.1664,22.19364],[93.16537,22.19028],[93.16296,22.18234],[93.15441,22.17819],[93.14839,22.17683],[93.14287,22.17678],[93.13869,22.17674],[93.13071,22.17909],[93.12752,22.18235],[93.12278,22.18904],[93.11988,22.19853],[93.11718,22.20133],[93.11239,22.2008],[93.11154,22.20071],[93.10222,22.1988],[93.09727,22.19934],[93.08882,22.2026],[93.08769,22.20358],[93.0859,22.20513],[93.08154,22.20839],[93.07699,22.21011],[93.07247,22.20853],[93.07154,22.2082],[93.06765,22.20639],[93.05978,22.20395],[93.05386,22.20323],[93.04913,22.19954],[93.04831,22.1989],[93.04666,22.19762],[93.04609,22.19659],[93.04565,22.1958],[93.04451,22.19373],[93.04654,22.19002],[93.0537,22.17582],[93.05494,22.16543],[93.05201,22.15666],[93.05083,22.15014],[93.04802,22.14581],[93.04699,22.13906],[93.04693,22.13867],[93.05409,22.1317],[93.05922,22.12754],[93.06261,22.12086],[93.06648,22.11327],[93.06557,22.10205],[93.05976,22.09979],[93.05209,22.09924],[93.04627,22.10132],[93.03918,22.10493],[93.03649,22.10493],[93.0322,22.10493],[93.02298,22.10565],[93.01598,22.10547],[93.01327,22.10221],[93.01325,22.09805],[93.01559,22.09308],[93.0145,22.08521],[93.01176,22.07933],[93.00807,22.06992],[93.00378,22.06115],[93.00076,22.05564],[92.99997,22.05038],[92.99995,22.03954],[93.00066,22.0363],[93.00159,22.03212],[93.00671,22.02301],[93.00845,22.01992],[93.01038,22.01115],[93.00958,22.00265],[93.01015,21.99578],[93.00986,21.99172],[93.00925,21.98393],[93.00663,21.97986],[92.99898,21.97795],[92.99239,21.98084],[92.98803,21.98292],[92.9874,21.98496],[92.98581,21.99006],[92.98175,22.0019],[92.97953,22.00641],[92.97314,22.00995],[92.96945,22.01411],[92.96693,22.02026],[92.96657,22.02712],[92.96094,22.03019],[92.9558,22.02992],[92.95282,22.02739],[92.95112,22.02594],[92.94843,22.02286],[92.94211,22.01834],[92.94024,22.01877],[92.93464,22.02004],[92.93161,22.01751],[92.93396,22.01475],[92.93569,22.01272],[92.93909,22.00856],[92.93217,22.00186],[92.92771,21.99589],[92.9248,21.98711],[92.92226,21.9808],[92.91945,21.97382],[92.91576,21.96505],[92.91447,21.95663],[92.91611,21.94941],[92.91089,21.94623],[92.90797,21.95045],[92.90584,21.95355],[92.90472,21.98076],[92.90134,21.99035],[92.89641,22.0039],[92.89426,22.01196],[92.88943,22.01818],[92.88574,22.02152],[92.87954,22.02594],[92.87468,22.0301],[92.87247,22.03651],[92.87131,22.04665],[92.87015,22.05424],[92.87016,22.06075],[92.86774,22.06536],[92.86328,22.06762],[92.85699,22.06563],[92.85458,22.07269],[92.85244,22.07577],[92.8508,22.08294],[92.85131,22.09031],[92.84998,22.09771],[92.8501,22.10721],[92.84767,22.11685],[92.84803,22.12588],[92.8506,22.13644],[92.84876,22.14401],[92.84863,22.15017],[92.8466,22.16228],[92.84511,22.18402],[92.8434,22.19106],[92.84388,22.19695],[92.84308,22.20856],[92.84389,22.2183],[92.84241,22.2345],[92.84132,22.24236],[92.83823,22.25096],[92.83703,22.25738],[92.83944,22.26622],[92.83868,22.27173],[92.83657,22.27683],[92.83978,22.28154],[92.84248,22.2894],[92.83937,22.29627],[92.83251,22.30239],[92.82996,22.31121],[92.83131,22.31595],[92.83075,22.32151],[92.82696,22.32739],[92.82816,22.33236],[92.83203,22.33513],[92.84359,22.33351],[92.8483,22.33203],[92.85751,22.32227],[92.86794,22.32593],[92.87089,22.32965],[92.87742,22.3458],[92.88551,22.35905],[92.88818,22.36145],[92.90222,22.36912],[92.91413,22.38116],[92.92106,22.38598],[92.92512,22.39087],[92.93443,22.39711],[92.93843,22.39739],[92.94585,22.39122],[92.94116,22.38661],[92.94308,22.38162],[92.94555,22.37815],[92.95941,22.3749],[92.96509,22.37998],[92.9692,22.39541],[92.96691,22.39963],[92.96241,22.39939],[92.95526,22.40316],[92.95388,22.40963],[92.95052,22.4161],[92.94752,22.43292],[92.94524,22.44089],[92.9443,22.46044],[92.94857,22.46453],[92.94845,22.46936],[92.94234,22.47722],[92.93872,22.4843],[92.93839,22.50069],[92.94346,22.53239],[92.94221,22.54232],[92.93978,22.54753],[92.93568,22.55293],[92.93693,22.55708],[92.94323,22.56185],[92.94732,22.5664],[92.95168,22.57775],[92.95255,22.59102],[92.95123,22.59739],[92.95619,22.60444],[92.95399,22.62166],[92.95741,22.62999],[92.95411,22.63519],[92.94399,22.64766],[92.93619,22.6659],[92.93605,22.68007],[92.93522,22.68679],[92.93918,22.70926],[92.93585,22.71625],[92.92323,22.7251],[92.92199,22.73072],[92.92077,22.73906],[92.92198,22.76684],[92.92713,22.774],[92.93309,22.7787],[92.93204,22.78259],[92.92758,22.78316],[92.92653,22.79119],[92.92789,22.79213],[92.93481,22.79288],[92.94407,22.79234],[92.96253,22.78308],[92.97047,22.77222],[92.98234,22.76016],[92.99021,22.7586],[92.99316,22.75643],[93.00214,22.7567],[93.00816,22.75631],[93.01113,22.75941],[93.01081,22.76541],[93.01427,22.77063],[93.01228,22.77605],[93.01535,22.77925],[93.01978,22.78256],[93.02142,22.78699],[93.02664,22.78706],[93.03096,22.78633],[93.03271,22.79444],[93.03374,22.79863],[93.04761,22.79645],[93.05805,22.7947],[93.06556,22.79688],[93.0655,22.80305],[93.07203,22.80519],[93.08094,22.80931],[93.08627,22.81025],[93.09136,22.81062],[93.08872,22.80694],[93.08566,22.80415],[93.0843,22.80007],[93.08916,22.79738],[93.09267,22.79413],[93.10403,22.78711]]]}},{"type":"Feature","properties":{"ID_0":105,"ISO":"IND","NAME_0":"India","ID_1":24,"NAME_1":"Mizoram","ID_2":363,"NAME_2":"Serchhip","NL_NAME_2":null,"VARNAME_2":null,"TYPE_2":"District","ENGTYPE_2":"District","STATE":"Mizoram","DISTRICT":"Serchhip"},"geometry":{"type":"Polygon","coordinates":[[[93.01378,23.4965],[93.01308,23.49508],[93.00877,23.48989],[93.00676,23.48615],[93.01696,23.47702],[93.03319,23.47165],[93.03175,23.46969],[93.03019,23.46059],[93.03134,23.4554],[93.03522,23.45015],[93.03986,23.44679],[93.03753,23.44109],[93.03333,23.43573],[93.03207,23.43095],[93.0406,23.41653],[93.03891,23.39578],[93.05004,23.37847],[93.05467,23.37518],[93.05347,23.3712],[93.04965,23.36626],[93.04657,23.35939],[93.04633,23.35295],[93.04391,23.35052],[93.04259,23.34672],[93.043,23.3432],[93.04056,23.33952],[93.0379,23.32944],[93.03576,23.32627],[93.01863,23.3135],[93.01519,23.30942],[93.01171,23.30689],[93.01119,23.30372],[93.01184,23.30043],[93.01013,23.29577],[93.01078,23.29128],[93.01257,23.2876],[93.0127,23.28259],[93.01972,23.27342],[93.02758,23.26983],[93.03172,23.2689],[93.03545,23.26918],[93.03648,23.26623],[93.03459,23.26284],[93.03743,23.2603],[93.03741,23.25741],[93.04485,23.25526],[93.04935,23.25237],[93.04654,23.24851],[93.04281,23.2469],[93.04242,23.24684],[93.05715,23.24011],[93.07403,23.24011],[93.09207,23.24302],[93.10778,23.24418],[93.12,23.24942],[93.13979,23.25],[93.1491,23.24418],[93.1555,23.23545],[93.15958,23.22032],[93.16424,23.20519],[93.1654,23.18773],[93.1654,23.17842],[93.16947,23.1662],[93.17587,23.15513],[93.17704,23.13302],[93.17704,23.11556],[93.18694,23.07308],[93.18694,23.05718],[93.18302,23.05797],[93.17683,23.05308],[93.17673,23.053],[93.17212,23.05083],[93.16783,23.04902],[93.16198,23.05192],[93.15564,23.05807],[93.14734,23.06169],[93.14185,23.06061],[93.14029,23.05645],[93.13848,23.05482],[93.13762,23.05404],[93.13687,23.05337],[93.13294,23.0475],[93.13335,23.04637],[93.13507,23.04163],[93.13583,23.03521],[93.13436,23.03123],[93.13163,23.0259],[93.13414,23.01984],[93.13579,23.01288],[93.13021,23.00645],[93.12106,23.01284],[93.09814,23.02858],[93.08578,23.03147],[93.0841,23.03437],[93.08557,23.03698],[93.08275,23.03898],[93.06353,23.04727],[93.04812,23.04894],[93.04389,23.05246],[93.04447,23.0733],[93.04653,23.07726],[93.04532,23.0804],[93.04175,23.08393],[93.03542,23.08389],[93.02916,23.08189],[93.02383,23.08185],[93.00893,23.0901],[93.00176,23.09562],[92.99716,23.09733],[92.99599,23.10033],[92.99348,23.10013],[92.99144,23.10304],[92.98989,23.10289],[92.98672,23.10718],[92.9696,23.11413],[92.96913,23.11783],[92.96471,23.11752],[92.96237,23.11897],[92.96308,23.13305],[92.96504,23.13563],[92.96463,23.1372],[92.96195,23.13746],[92.96295,23.14293],[92.96159,23.14427],[92.96285,23.15067],[92.95971,23.15444],[92.96197,23.16031],[92.95882,23.1682],[92.95697,23.16937],[92.95267,23.16987],[92.95076,23.17208],[92.94162,23.17217],[92.93952,23.17415],[92.93815,23.17866],[92.93871,23.18346],[92.93985,23.1854],[92.94019,23.18943],[92.93789,23.18973],[92.93408,23.18855],[92.92992,23.18894],[92.92732,23.18948],[92.92634,23.19104],[92.92367,23.1928],[92.91933,23.18464],[92.91479,23.18299],[92.9101,23.18026],[92.90307,23.17991],[92.89926,23.1808],[92.88905,23.17193],[92.8861,23.17139],[92.88008,23.17207],[92.877,23.17435],[92.8746,23.17742],[92.8699,23.17545],[92.86881,23.17697],[92.86896,23.17937],[92.86451,23.18651],[92.86402,23.189],[92.86099,23.1952],[92.86039,23.19843],[92.86349,23.21336],[92.86228,23.21776],[92.85917,23.22131],[92.8568,23.22271],[92.85615,23.22411],[92.85311,23.22609],[92.85109,23.22998],[92.85175,23.23165],[92.85065,23.23402],[92.85136,23.23661],[92.85056,23.23679],[92.8508,23.23789],[92.85083,23.23915],[92.84842,23.24068],[92.84302,23.24194],[92.84155,23.24374],[92.8404,23.24709],[92.83711,23.2481],[92.83018,23.24522],[92.82743,23.24517],[92.826,23.24392],[92.82313,23.24388],[92.82179,23.24211],[92.82056,23.23646],[92.82126,23.23102],[92.82003,23.22894],[92.81829,23.22804],[92.80417,23.22879],[92.79233,23.2331],[92.78481,23.2294],[92.78123,23.23099],[92.77499,23.23577],[92.77019,23.23494],[92.76824,23.23328],[92.76016,23.22919],[92.75823,23.23416],[92.75655,23.23527],[92.75513,23.23586],[92.75078,23.23543],[92.74654,23.23656],[92.74242,23.23474],[92.73986,23.2395],[92.73782,23.24159],[92.72657,23.24306],[92.72612,23.24116],[92.72754,23.23387],[92.72713,23.23058],[92.72887,23.22451],[92.72752,23.21944],[92.72895,23.21273],[92.72648,23.20819],[92.72588,23.1974],[92.72503,23.19521],[92.72386,23.19424],[92.71799,23.19353],[92.71091,23.19472],[92.70756,23.19715],[92.70821,23.19963],[92.70486,23.20005],[92.70866,23.20655],[92.70908,23.20995],[92.69839,23.21876],[92.69622,23.2243],[92.69436,23.23921],[92.69489,23.24193],[92.69296,23.24494],[92.69276,23.24685],[92.69391,23.25042],[92.69484,23.26288],[92.69299,23.27155],[92.69072,23.2759],[92.69221,23.28161],[92.68887,23.28181],[92.68806,23.28256],[92.69003,23.28722],[92.68859,23.29295],[92.68906,23.29635],[92.69103,23.29939],[92.69034,23.3061],[92.69228,23.30655],[92.6933,23.30954],[92.69086,23.31173],[92.70798,23.31172],[92.70798,23.32445],[92.70896,23.3362],[92.71092,23.34697],[92.71777,23.35186],[92.7305,23.35186],[92.74029,23.34305],[92.75204,23.34011],[92.75986,23.34011],[92.76672,23.3362],[92.78043,23.32543],[92.79021,23.32054],[92.80685,23.32054],[92.82252,23.32543],[92.83133,23.33522],[92.8372,23.34501],[92.8372,23.35284],[92.82937,23.36557],[92.82448,23.37927],[92.82154,23.39004],[92.82154,23.39689],[92.82154,23.40668],[92.82643,23.42039],[92.82643,23.42724],[92.82154,23.43605],[92.79217,23.44682],[92.78043,23.45367],[92.7765,23.47325],[92.7765,23.48598],[92.7765,23.50066],[92.7765,23.51143],[92.78238,23.52415],[92.78728,23.53198],[92.78923,23.53982],[92.7863,23.54863],[92.77847,23.55744],[92.77161,23.56821],[92.76965,23.58093],[92.76965,23.5917],[92.77749,23.5966],[92.78336,23.60638],[92.78434,23.61617],[92.79021,23.61813],[92.79707,23.61422],[92.80588,23.60638],[92.80882,23.5966],[92.81273,23.57604],[92.81762,23.55842],[92.82154,23.54373],[92.84308,23.53101],[92.86266,23.5173],[92.87147,23.49968],[92.8744,23.48108],[92.87733,23.46737],[92.88908,23.4615],[92.89887,23.47031],[92.89986,23.48108],[92.92237,23.4987],[92.94195,23.51045],[92.95761,23.5222],[92.97425,23.51926],[92.97816,23.51045],[92.99089,23.49479],[93.01378,23.4965]]]}}],"state":"Mizoram","source":"geohacker/india (Datameet-derived), Census 2011 boundaries"}