{"type":"FeatureCollection","features":[{"type":"Feature","properties":{"ID_0":105,"ISO":"IND","NAME_0":"India","ID_1":25,"NAME_1":"Nagaland","ID_2":364,"NAME_2":"Dimapur","NL_NAME_2":null,"VARNAME_2":null,"TYPE_2":"District","ENGTYPE_2":"District","STATE":"Nagaland","DISTRICT":"Dimapur"},"geometry":{"type":"Polygon","coordinates":[[[93.96075,25.90586],[93.9772,25.89185],[93.98609,25.88376],[93.98043,25.87405],[93.96748,25.86434],[93.97153,25.85868],[93.978,25.85625],[93.98528,25.85625],[93.99419,25.85625],[93.99904,25.85059],[94.01279,25.84169],[94.01279,25.83522],[94.01118,25.82713],[94.00632,25.81661],[94.00632,25.81013],[94.00632,25.80042],[94.00146,25.79072],[93.9958,25.78424],[93.98286,25.77211],[93.97153,25.75755],[93.96344,25.74703],[93.95778,25.73489],[93.92784,25.71386],[93.90276,25.68473],[93.88739,25.66855],[93.86959,25.65399],[93.86797,25.64509],[93.8623,25.64428],[93.84774,25.64994],[93.83156,25.6556],[93.80972,25.6556],[93.7903,25.65237],[93.77897,25.65156],[93.76846,25.65156],[93.76036,25.65399],[93.74904,25.65965],[93.74175,25.66693],[93.73367,25.67745],[93.73286,25.68877],[93.73609,25.69525],[93.73528,25.70738],[93.73205,25.71143],[93.72314,25.70577],[93.70696,25.70253],[93.68269,25.69606],[93.67136,25.69606],[93.65923,25.68877],[93.64952,25.67502],[93.64467,25.66289],[93.63415,25.65884],[93.62444,25.65884],[93.61311,25.6645],[93.60178,25.67017],[93.59127,25.67745],[93.57913,25.67988],[93.56618,25.67988],[93.55405,25.67988],[93.53787,25.68473],[93.53149,25.69401],[93.53798,25.7032],[93.54356,25.7017],[93.54442,25.7059],[93.54593,25.71019],[93.54881,25.7147],[93.54978,25.71897],[93.5462,25.72152],[93.54484,25.72697],[93.5467,25.73447],[93.54988,25.73244],[93.55692,25.73774],[93.55627,25.74193],[93.56194,25.74095],[93.56548,25.74134],[93.57006,25.75174],[93.56925,25.75501],[93.57342,25.75661],[93.57382,25.75966],[93.57325,25.7608],[93.58377,25.75775],[93.58719,25.75945],[93.58712,25.76555],[93.58823,25.76815],[93.59267,25.76624],[93.59371,25.76429],[93.59834,25.76836],[93.60275,25.77082],[93.60557,25.76746],[93.60571,25.77263],[93.60807,25.77687],[93.61141,25.77649],[93.62233,25.77983],[93.62356,25.78392],[93.62113,25.78523],[93.62382,25.79043],[93.62695,25.7916],[93.62753,25.79863],[93.6298,25.79998],[93.629,25.8044],[93.63335,25.80524],[93.63406,25.80997],[93.63612,25.81368],[93.6403,25.81343],[93.641,25.81792],[93.64436,25.81957],[93.64849,25.82397],[93.65236,25.82282],[93.65674,25.82635],[93.66083,25.82438],[93.66861,25.82463],[93.66951,25.82879],[93.67256,25.82812],[93.67806,25.82887],[93.68288,25.83575],[93.6825,25.8407],[93.69202,25.84413],[93.69054,25.84757],[93.69377,25.84725],[93.69785,25.85131],[93.70359,25.8535],[93.70364,25.8497],[93.70238,25.84699],[93.70548,25.84863],[93.70644,25.85329],[93.6909,25.88927],[93.68583,25.90494],[93.68768,25.90944],[93.69768,25.91707],[93.70506,25.92128],[93.71251,25.92267],[93.71651,25.92172],[93.72894,25.9284],[93.73645,25.93054],[93.75009,25.93728],[93.75185,25.93637],[93.75202,25.9396],[93.74941,25.94205],[93.75885,25.94869],[93.76279,25.95493],[93.76842,25.95505],[93.77026,25.9535],[93.76955,25.95799],[93.77302,25.96602],[93.77882,25.96325],[93.78028,25.96061],[93.78519,25.9583],[93.78661,25.95423],[93.78942,25.95258],[93.78919,25.94901],[93.7866,25.94744],[93.78941,25.94602],[93.79068,25.94419],[93.79142,25.94005],[93.79327,25.93674],[93.78862,25.93296],[93.79321,25.93098],[93.79361,25.92604],[93.79227,25.92252],[93.7963,25.91819],[93.79833,25.90969],[93.79811,25.90629],[93.79573,25.90121],[93.79514,25.89804],[93.79185,25.89491],[93.79146,25.89006],[93.78745,25.87893],[93.78828,25.87572],[93.79064,25.87378],[93.79182,25.86969],[93.78578,25.8669],[93.78529,25.86326],[93.78147,25.85927],[93.78359,25.85393],[93.78297,25.8514],[93.78381,25.84996],[93.77982,25.84631],[93.78109,25.84464],[93.78259,25.83822],[93.78452,25.83578],[93.78735,25.82796],[93.78876,25.82602],[93.7907,25.8208],[93.79132,25.81603],[93.79576,25.81435],[93.80759,25.81634],[93.81158,25.82127],[93.81884,25.82623],[93.82137,25.8324],[93.8243,25.84709],[93.83274,25.85625],[93.84234,25.86261],[93.85171,25.86297],[93.86873,25.85541],[93.87363,25.85092],[93.88274,25.84591],[93.88855,25.85246],[93.89162,25.85864],[93.89341,25.86481],[93.89861,25.86375],[93.90184,25.87103],[93.91383,25.88177],[93.9159,25.88766],[93.92385,25.8898],[93.93463,25.89143],[93.94019,25.90096],[93.94836,25.9012],[93.95984,25.90525],[93.96075,25.90586]]]}},{"type":"Feature","properties":{"ID_0":105,"ISO":"IND","NAME_0":"India","ID_1":25,"NAME_1":"Nagaland","ID_2":365,"NAME_2":"Kohima","NL_NAME_2":null,"VARNAME_2":null,"TYPE_2":"District","ENGTYPE_2":"District","STATE":"Nagaland","DISTRICT":"Kohima"},"geometry":{"type":"Polygon","coordinates":[[[94.27402,26.01501],[94.27402,25.99711],[94.27607,25.98068],[94.28223,25.96561],[94.28703,25.95397],[94.28908,25.94439],[94.28565,25.9348],[94.27059,25.92247],[94.24799,25.91837],[94.2343,25.90741],[94.21854,25.89029],[94.21649,25.87865],[94.22266,25.86427],[94.24183,25.84578],[94.25347,25.83003],[94.26785,25.8177],[94.2818,25.80536],[94.27928,25.80172],[94.26974,25.78468],[94.26438,25.77032],[94.2597,25.76167],[94.25117,25.74969],[94.23872,25.7285],[94.23323,25.71603],[94.23181,25.70388],[94.22825,25.69793],[94.22061,25.69012],[94.21911,25.68757],[94.21639,25.6799],[94.21822,25.67398],[94.21911,25.66385],[94.22135,25.66185],[94.22182,25.65726],[94.21782,25.63892],[94.21523,25.63735],[94.21281,25.63711],[94.21152,25.62208],[94.21343,25.61921],[94.21496,25.61876],[94.21579,25.61473],[94.21127,25.60279],[94.20793,25.59914],[94.20264,25.59128],[94.19595,25.57713],[94.19497,25.57023],[94.19977,25.55811],[94.19572,25.55302],[94.19487,25.55243],[94.19185,25.55095],[94.18277,25.55325],[94.17954,25.55019],[94.16791,25.54701],[94.16353,25.54992],[94.16011,25.55525],[94.15288,25.54784],[94.15184,25.54185],[94.1482,25.53169],[94.14523,25.52764],[94.13873,25.5237],[94.12851,25.52588],[94.10608,25.5289],[94.09211,25.53273],[94.09252,25.53797],[94.0962,25.54172],[94.09496,25.54644],[94.08595,25.55973],[94.08004,25.5616],[94.06942,25.55898],[94.0647,25.56637],[94.05412,25.57676],[94.046,25.58095],[94.04362,25.57748],[94.03901,25.57986],[94.03916,25.58303],[94.03792,25.58193],[94.0349,25.58149],[94.03341,25.5847],[94.02727,25.58799],[94.02551,25.59339],[94.01473,25.59613],[94.0104,25.5954],[94.00765,25.59094],[94.00783,25.58753],[94.01176,25.57909],[94.01228,25.5753],[94.0116,25.57275],[94.01042,25.57131],[94.00745,25.56985],[94.00061,25.57388],[93.98047,25.57125],[93.97785,25.56616],[93.97265,25.56118],[93.96522,25.55658],[93.95739,25.55675],[93.94352,25.56343],[93.93012,25.56539],[93.91933,25.56403],[93.91709,25.56672],[93.9109,25.56753],[93.90485,25.56743],[93.90024,25.56873],[93.89196,25.56842],[93.87837,25.56198],[93.86224,25.55753],[93.85232,25.55865],[93.84421,25.56169],[93.83649,25.56306],[93.83347,25.56137],[93.83326,25.55642],[93.82504,25.556],[93.82335,25.54816],[93.81972,25.54439],[93.81594,25.54545],[93.80785,25.54452],[93.77949,25.53805],[93.77182,25.54081],[93.77064,25.54028],[93.77097,25.53602],[93.76895,25.53071],[93.76818,25.52529],[93.76932,25.51771],[93.76429,25.51548],[93.76579,25.4999],[93.76935,25.49677],[93.77339,25.49784],[93.78847,25.50649],[93.79725,25.50438],[93.80405,25.49903],[93.80761,25.49556],[93.81389,25.48473],[93.809,25.46559],[93.80523,25.46342],[93.80243,25.46041],[93.79836,25.45393],[93.79375,25.44866],[93.79021,25.44338],[93.78811,25.43588],[93.78448,25.43194],[93.78053,25.4295],[93.78107,25.42471],[93.76442,25.41813],[93.76034,25.41412],[93.74667,25.40571],[93.74199,25.39992],[93.74007,25.39518],[93.74132,25.38944],[93.73979,25.38442],[93.731,25.38037],[93.72311,25.37558],[93.71898,25.37036],[93.71804,25.3616],[93.71159,25.35809],[93.69998,25.35942],[93.69278,25.36159],[93.69145,25.34742],[93.68713,25.33121],[93.68392,25.32963],[93.67207,25.32871],[93.67396,25.31728],[93.67294,25.31151],[93.66609,25.30828],[93.66475,25.30424],[93.66561,25.29843],[93.65162,25.27902],[93.65137,25.27366],[93.64991,25.26912],[93.64355,25.26588],[93.64312,25.26001],[93.63809,25.2504],[93.63187,25.24292],[93.62891,25.23575],[93.62115,25.22491],[93.61258,25.20619],[93.60802,25.20205],[93.60429,25.20432],[93.60104,25.20239],[93.5971,25.2043],[93.59303,25.20391],[93.59286,25.20667],[93.59484,25.21113],[93.59198,25.21391],[93.59029,25.21995],[93.58806,25.22217],[93.58585,25.22231],[93.58165,25.22601],[93.5782,25.22569],[93.57485,25.22755],[93.57076,25.23245],[93.5701,25.23561],[93.56313,25.24659],[93.55471,25.25053],[93.54717,25.24849],[93.54121,25.24538],[93.52936,25.24836],[93.52061,25.24878],[93.51643,25.24477],[93.50843,25.24371],[93.50514,25.24413],[93.50417,25.25338],[93.51079,25.27561],[93.50438,25.27577],[93.4949,25.27872],[93.48754,25.27593],[93.48338,25.27664],[93.47675,25.27904],[93.47259,25.28544],[93.47463,25.29242],[93.47514,25.29968],[93.47402,25.30928],[93.46798,25.31381],[93.46313,25.31986],[93.4567,25.32526],[93.45797,25.33005],[93.46194,25.33659],[93.45791,25.34092],[93.45189,25.34419],[93.45374,25.34812],[93.46232,25.35887],[93.46626,25.36173],[93.47822,25.37988],[93.47729,25.38601],[93.47394,25.39311],[93.46719,25.40306],[93.46326,25.41096],[93.46541,25.41587],[93.46515,25.4234],[93.46187,25.4347],[93.45687,25.44195],[93.4436,25.45061],[93.43496,25.45477],[93.42751,25.45526],[93.42202,25.4548],[93.41711,25.45279],[93.40292,25.45918],[93.39592,25.46412],[93.39042,25.46917],[93.39191,25.4742],[93.39104,25.47804],[93.39131,25.48143],[93.3905,25.48563],[93.3871,25.49031],[93.38637,25.49335],[93.38304,25.49757],[93.37182,25.50113],[93.37115,25.50515],[93.3669,25.50787],[93.36502,25.51014],[93.36682,25.51287],[93.36472,25.51617],[93.36005,25.52032],[93.35757,25.52767],[93.35418,25.53119],[93.35017,25.53367],[93.35234,25.53757],[93.34923,25.53833],[93.34458,25.53608],[93.34039,25.53729],[93.33575,25.54541],[93.33174,25.54681],[93.33338,25.54902],[93.34126,25.55486],[93.34547,25.56112],[93.34831,25.56322],[93.35439,25.5652],[93.3607,25.56044],[93.36418,25.56065],[93.36598,25.56326],[93.36516,25.56976],[93.36944,25.57026],[93.37342,25.56917],[93.37599,25.57104],[93.37684,25.57374],[93.37649,25.57731],[93.3827,25.57618],[93.38474,25.57792],[93.38503,25.5812],[93.38311,25.5828],[93.3824,25.58475],[93.39063,25.5891],[93.39005,25.59472],[93.4002,25.59628],[93.40684,25.59648],[93.40925,25.60041],[93.40964,25.6041],[93.40723,25.60649],[93.40764,25.60942],[93.40905,25.61169],[93.41228,25.61368],[93.41678,25.61489],[93.41487,25.61664],[93.4183,25.62106],[93.42247,25.62226],[93.42754,25.63146],[93.43102,25.6292],[93.43418,25.62987],[93.43909,25.63234],[93.43919,25.6344],[93.44152,25.63478],[93.4444,25.63804],[93.44679,25.63881],[93.44994,25.63493],[93.45198,25.63748],[93.45936,25.63313],[93.46196,25.63339],[93.46122,25.63655],[93.4586,25.63842],[93.45714,25.64059],[93.4607,25.64155],[93.46557,25.64419],[93.46853,25.64376],[93.47478,25.64429],[93.47594,25.64799],[93.48335,25.64577],[93.4836,25.65176],[93.48721,25.65047],[93.49072,25.65344],[93.4902,25.65597],[93.49394,25.65526],[93.49992,25.65652],[93.50208,25.66202],[93.50829,25.66681],[93.51019,25.67102],[93.52029,25.68367],[93.51939,25.68597],[93.51684,25.68807],[93.52273,25.6932],[93.52594,25.69967],[93.52856,25.69377],[93.53057,25.6927],[93.53149,25.69401],[93.53787,25.68473],[93.55405,25.67988],[93.56618,25.67988],[93.57913,25.67988],[93.59127,25.67745],[93.60178,25.67017],[93.61311,25.6645],[93.62444,25.65884],[93.63415,25.65884],[93.64467,25.66289],[93.64952,25.67502],[93.65923,25.68877],[93.67136,25.69606],[93.68269,25.69606],[93.70696,25.70253],[93.72314,25.70577],[93.73205,25.71143],[93.73528,25.70738],[93.73609,25.69525],[93.73286,25.68877],[93.73367,25.67745],[93.74175,25.66693],[93.74904,25.65965],[93.76036,25.65399],[93.76846,25.65156],[93.77897,25.65156],[93.7903,25.65237],[93.80972,25.6556],[93.83156,25.6556],[93.84774,25.64994],[93.8623,25.64428],[93.86797,25.64509],[93.86959,25.65399],[93.88739,25.66855],[93.90276,25.68473],[93.92784,25.71386],[93.95778,25.73489],[93.96344,25.74703],[93.97153,25.75755],[93.98286,25.77211],[93.9958,25.78424],[94.00146,25.79072],[94.00632,25.80042],[94.00632,25.81013],[94.00632,25.81661],[94.01118,25.82713],[94.01279,25.83522],[94.01279,25.84169],[93.99904,25.85059],[93.99419,25.85625],[93.98528,25.85625],[93.978,25.85625],[93.97153,25.85868],[93.96748,25.86434],[93.98043,25.87405],[93.98609,25.88376],[93.9772,25.89185],[93.96075,25.90586],[93.96917,25.91142],[93.97198,25.91754],[93.97939,25.91968],[93.98268,25.92627],[93.98846,25.92538],[93.99582,25.92548],[93.99882,25.93052],[93.99182,25.93259],[93.99164,25.93431],[93.99512,25.93399],[93.99671,25.93292],[94.00012,25.93455],[94.00526,25.93292],[94.00867,25.93662],[94.01664,25.94038],[94.03696,25.94264],[94.04697,25.94447],[94.05263,25.94924],[94.06059,25.95391],[94.0654,25.95872],[94.06925,25.95789],[94.07921,25.96666],[94.08473,25.96754],[94.08874,25.96943],[94.09808,25.98501],[94.10181,25.98781],[94.10725,25.9901],[94.11638,25.99056],[94.12589,25.99344],[94.13661,25.99425],[94.15813,25.98166],[94.16523,25.97866],[94.1692,25.97862],[94.17313,25.98112],[94.17573,25.98482],[94.18698,25.99225],[94.19054,25.99273],[94.19431,25.99189],[94.19917,25.99836],[94.2035,26.00549],[94.20944,26.0092],[94.21385,26.01657],[94.21288,26.02092],[94.21613,26.02415],[94.21946,26.02938],[94.22237,26.0269],[94.22575,26.0215],[94.23246,26.01493],[94.23927,26.00982],[94.24298,26.00873],[94.25891,26.01227],[94.26582,26.01192],[94.27402,26.01501]]]}},{"type":"Feature","properties":{"ID_0":105,"ISO":"IND","NAME_0":"India","ID_1":25,"NAME_1":"Nagaland","ID_2":366,"NAME_2":"Mokokchung","NL_NAME_2":null,"VARNAME_2":"Mokochung","TYPE_2":"District","ENGTYPE_2":"District","STATE":"Nagaland","DISTRICT":"Mokokchung"},"geometry":{"type":"Polygon","coordinates":[[[94.73773,26.76885],[94.73972,26.76107],[94.74005,26.7536],[94.75423,26.74389],[94.75826,26.73884],[94.75977,26.73357],[94.75577,26.73375],[94.74908,26.73831],[94.74636,26.73528],[94.75096,26.72724],[94.75188,26.72133],[94.75231,26.70691],[94.74757,26.70305],[94.73746,26.70388],[94.72696,26.70198],[94.72616,26.69932],[94.71996,26.68941],[94.71866,26.68495],[94.70955,26.67938],[94.70013,26.67264],[94.69583,26.66867],[94.67294,26.65687],[94.67017,26.65326],[94.67446,26.65206],[94.67925,26.65196],[94.68938,26.64697],[94.71154,26.64175],[94.72073,26.63165],[94.72457,26.62577],[94.7235,26.62018],[94.72482,26.61543],[94.7344,26.60969],[94.73698,26.60064],[94.73549,26.59389],[94.73114,26.58814],[94.7308,26.57935],[94.72865,26.57287],[94.714,26.55492],[94.70275,26.54373],[94.69143,26.52926],[94.69434,26.51176],[94.69698,26.50495],[94.69646,26.49828],[94.69269,26.48476],[94.69382,26.48121],[94.70232,26.47369],[94.70876,26.45848],[94.70786,26.45386],[94.71147,26.44506],[94.70643,26.43061],[94.70574,26.42497],[94.70626,26.41802],[94.70099,26.41617],[94.69806,26.4159],[94.69385,26.41274],[94.69266,26.41054],[94.6902,26.40872],[94.68888,26.40295],[94.67859,26.38987],[94.6737,26.38826],[94.67056,26.38385],[94.66656,26.38414],[94.66247,26.38165],[94.66582,26.37705],[94.66534,26.37457],[94.65716,26.36692],[94.65525,26.36166],[94.65505,26.35827],[94.65643,26.3538],[94.65466,26.3532],[94.65315,26.34651],[94.65024,26.34538],[94.64211,26.33957],[94.63492,26.33982],[94.63175,26.3392],[94.62917,26.33548],[94.62385,26.33305],[94.61135,26.32465],[94.60011,26.31397],[94.59769,26.30864],[94.59407,26.30382],[94.58916,26.3053],[94.58426,26.29556],[94.57276,26.29448],[94.56792,26.28901],[94.5654,26.28451],[94.56657,26.27559],[94.56629,26.26966],[94.56517,26.26678],[94.56568,26.26126],[94.57711,26.24843],[94.57971,26.24404],[94.5884,26.24123],[94.58927,26.23365],[94.58887,26.22633],[94.58766,26.22408],[94.58024,26.21919],[94.57667,26.21522],[94.56982,26.213],[94.56245,26.2091],[94.55077,26.20794],[94.54291,26.21278],[94.53542,26.22256],[94.53123,26.21761],[94.52439,26.2162],[94.51355,26.21775],[94.50613,26.21777],[94.50169,26.21994],[94.5008,26.22494],[94.50379,26.229],[94.50325,26.23261],[94.50417,26.23469],[94.51289,26.23822],[94.51484,26.23997],[94.51383,26.2433],[94.51101,26.2459],[94.50941,26.25076],[94.50481,26.25765],[94.5023,26.26912],[94.49992,26.27426],[94.49317,26.27882],[94.49024,26.28487],[94.4899,26.29067],[94.48843,26.2952],[94.47778,26.29261],[94.47587,26.28879],[94.47508,26.2809],[94.47104,26.27808],[94.46353,26.26578],[94.45576,26.24875],[94.45846,26.24201],[94.45448,26.23165],[94.45067,26.22705],[94.44741,26.21952],[94.44787,26.21291],[94.4436,26.20952],[94.43737,26.20897],[94.41544,26.21638],[94.41068,26.21682],[94.39588,26.20659],[94.38863,26.20245],[94.38126,26.19957],[94.37038,26.19742],[94.37405,26.20032],[94.38216,26.2112],[94.38919,26.22552],[94.3879,26.23142],[94.38474,26.23286],[94.37871,26.23317],[94.37357,26.23695],[94.36344,26.24237],[94.36044,26.24641],[94.35592,26.2476],[94.34888,26.24635],[94.34318,26.244],[94.34084,26.2438],[94.3381,26.24685],[94.34029,26.25006],[94.34364,26.25143],[94.34812,26.25455],[94.35111,26.25776],[94.35997,26.27331],[94.36094,26.27702],[94.36088,26.28081],[94.35863,26.29463],[94.35818,26.30433],[94.35566,26.31397],[94.35551,26.31989],[94.36784,26.3382],[94.36676,26.34243],[94.36472,26.34246],[94.35907,26.34128],[94.35703,26.33734],[94.35292,26.33584],[94.35021,26.33763],[94.35024,26.33993],[94.35557,26.34951],[94.35933,26.36262],[94.35622,26.36999],[94.35486,26.3759],[94.34851,26.38252],[94.34485,26.3843],[94.34317,26.38606],[94.33466,26.39397],[94.33134,26.40111],[94.3304,26.40593],[94.3278,26.4071],[94.32632,26.405],[94.3164,26.39736],[94.30991,26.38823],[94.30575,26.3846],[94.30444,26.3863],[94.30606,26.39714],[94.30407,26.40281],[94.29983,26.40866],[94.29621,26.41171],[94.29361,26.41586],[94.29248,26.42309],[94.30117,26.44123],[94.31081,26.45179],[94.31681,26.45983],[94.31651,26.46293],[94.3243,26.4707],[94.32478,26.47221],[94.32388,26.47938],[94.32932,26.48384],[94.3326,26.48503],[94.33694,26.48482],[94.34341,26.49004],[94.34963,26.49284],[94.35207,26.49575],[94.35182,26.4992],[94.35356,26.50216],[94.35553,26.50345],[94.35372,26.50481],[94.35111,26.50862],[94.35459,26.51028],[94.35875,26.50914],[94.36446,26.51033],[94.36925,26.50999],[94.37762,26.51312],[94.37807,26.51716],[94.37691,26.52317],[94.37827,26.52526],[94.39141,26.53283],[94.39409,26.53264],[94.39656,26.52973],[94.39945,26.53232],[94.39892,26.53455],[94.40248,26.5388],[94.40134,26.54408],[94.40268,26.54686],[94.40675,26.54825],[94.40795,26.54971],[94.40764,26.5524],[94.40479,26.55523],[94.4061,26.55738],[94.40897,26.55713],[94.41196,26.55845],[94.41058,26.5606],[94.40776,26.56143],[94.40931,26.56899],[94.41188,26.5734],[94.41485,26.58328],[94.40601,26.60193],[94.40858,26.60979],[94.40787,26.61433],[94.40988,26.61644],[94.43449,26.62538],[94.45452,26.63902],[94.45681,26.63664],[94.4625,26.63546],[94.46482,26.63871],[94.46446,26.64037],[94.46166,26.64384],[94.46142,26.64809],[94.45857,26.65535],[94.46183,26.66316],[94.46452,26.66751],[94.46794,26.66982],[94.48575,26.6737],[94.4928,26.67225],[94.49827,26.67371],[94.50301,26.67769],[94.50714,26.68298],[94.50995,26.68343],[94.5155,26.6873],[94.51968,26.6946],[94.5201,26.70145],[94.52273,26.70437],[94.52776,26.70128],[94.54087,26.70963],[94.54506,26.7109],[94.55037,26.71017],[94.55467,26.70844],[94.56113,26.70814],[94.56344,26.70737],[94.56473,26.706],[94.56233,26.69383],[94.56295,26.69063],[94.56609,26.68993],[94.57087,26.69006],[94.57469,26.69102],[94.5715,26.69622],[94.58279,26.70558],[94.58539,26.70331],[94.58898,26.70244],[94.59241,26.70273],[94.59493,26.70655],[94.59502,26.71236],[94.59617,26.71818],[94.59831,26.71994],[94.60372,26.71617],[94.60468,26.71721],[94.60464,26.71985],[94.60319,26.72381],[94.60049,26.72526],[94.59333,26.72613],[94.59518,26.72989],[94.59994,26.73772],[94.60415,26.73928],[94.61006,26.7401],[94.61044,26.73586],[94.61195,26.73265],[94.6174,26.73055],[94.62015,26.72674],[94.62109,26.72117],[94.62272,26.71953],[94.6283,26.71863],[94.63197,26.71965],[94.64029,26.72397],[94.64622,26.72451],[94.65339,26.72363],[94.65854,26.7248],[94.66514,26.72776],[94.68661,26.73259],[94.69148,26.73576],[94.69688,26.73969],[94.7114,26.75282],[94.7197,26.75804],[94.73188,26.76401],[94.73651,26.76741],[94.73773,26.76885]]]}},{"type":"Feature","properties":{"ID_0":105,"ISO":"IND","NAME_0":"India","ID_1":25,"NAME_1":"Nagaland","ID_2":367,"NAME_2":"Mon","NL_NAME_2":null,"VARNAME_2":null,"TYPE_2":"District","ENGTYPE_2":"District","STATE":"Nagaland","DISTRICT":"Mon"},"geometry":{"type":"Polygon","coordinates":[[[95.19552,27.04295],[95.19579,27.0325],[95.19785,27.01984],[95.19762,27.01569],[95.20008,27.00623],[95.19982,26.99936],[95.19627,26.99781],[95.1952,26.98999],[95.20044,26.98556],[95.20776,26.9847],[95.20996,26.98263],[95.20522,26.98217],[95.20656,26.97882],[95.20877,26.97508],[95.21504,26.97037],[95.21367,26.96812],[95.20884,26.96535],[95.20676,26.96259],[95.20851,26.96073],[95.21342,26.95879],[95.20924,26.95667],[95.2122,26.94335],[95.21445,26.93695],[95.21706,26.9342],[95.22556,26.93443],[95.22931,26.93063],[95.23185,26.92614],[95.23396,26.9206],[95.23396,26.91875],[95.23196,26.91789],[95.23209,26.91483],[95.2341,26.90965],[95.23377,26.9059],[95.23132,26.89835],[95.23386,26.89084],[95.22993,26.88567],[95.21783,26.88687],[95.21285,26.8856],[95.21136,26.88173],[95.20643,26.87787],[95.1845,26.86483],[95.18577,26.85963],[95.19305,26.85117],[95.19561,26.84962],[95.19733,26.84939],[95.19771,26.85154],[95.20424,26.84894],[95.2086,26.85072],[95.20641,26.84628],[95.20051,26.84288],[95.19904,26.83993],[95.20056,26.83289],[95.20258,26.82875],[95.20355,26.82132],[95.20684,26.81169],[95.21512,26.79838],[95.22157,26.79354],[95.22747,26.79234],[95.23502,26.78929],[95.24026,26.78917],[95.24172,26.78693],[95.24492,26.78733],[95.24254,26.78451],[95.23467,26.78035],[95.23164,26.77769],[95.23331,26.77372],[95.23318,26.77193],[95.2292,26.76847],[95.22408,26.76172],[95.2201,26.75982],[95.21926,26.75555],[95.22137,26.75152],[95.22098,26.74743],[95.21685,26.7413],[95.21614,26.73532],[95.2282,26.72385],[95.22965,26.71688],[95.23611,26.71221],[95.2337,26.6971],[95.23597,26.69152],[95.23598,26.68823],[95.23763,26.68629],[95.2345,26.68307],[95.23167,26.67761],[95.22806,26.67307],[95.22743,26.67202],[95.22473,26.66752],[95.21948,26.66065],[95.21486,26.65568],[95.20984,26.65151],[95.20781,26.6502],[95.20617,26.64913],[95.197,26.64736],[95.19128,26.64772],[95.18202,26.64326],[95.17432,26.63418],[95.17142,26.63007],[95.16479,26.6266],[95.16138,26.62482],[95.15833,26.62323],[95.15471,26.61949],[95.15373,26.60958],[95.15249,26.60184],[95.15221,26.59761],[95.15303,26.59362],[95.15623,26.58681],[95.15449,26.5808],[95.15082,26.57682],[95.14875,26.57457],[95.1445,26.56788],[95.14442,26.56365],[95.14442,26.56301],[95.14275,26.56229],[95.13855,26.56047],[95.13384,26.56235],[95.12682,26.56235],[95.12469,26.55661],[95.12132,26.55295],[95.11479,26.548],[95.11642,26.5448],[95.11906,26.53965],[95.12077,26.53448],[95.12078,26.52979],[95.11315,26.51871],[95.11251,26.51838],[95.10685,26.51548],[95.10349,26.51289],[95.10462,26.5091],[95.10242,26.50318],[95.09599,26.49848],[95.091,26.49459],[95.08791,26.49066],[95.08403,26.48594],[95.08201,26.48359],[95.08042,26.48174],[95.0792,26.48061],[95.07603,26.47766],[95.07578,26.47587],[95.07544,26.47334],[95.07233,26.46983],[95.07196,26.46942],[95.06879,26.46667],[95.06721,26.46155],[95.06631,26.45678],[95.06641,26.45037],[95.07172,26.4504],[95.07508,26.45243],[95.0763,26.45258],[95.08162,26.45323],[95.08702,26.45199],[95.09056,26.44725],[95.09682,26.4394],[95.09998,26.43603],[95.10152,26.43267],[95.10619,26.42999],[95.10867,26.42373],[95.10769,26.4188],[95.10582,26.41503],[95.10545,26.41106],[95.10496,26.40647],[95.10477,26.40125],[95.12167,26.39804],[95.12504,26.39547],[95.13085,26.39061],[95.13574,26.38783],[95.13594,26.38323],[95.13458,26.37568],[95.13191,26.3667],[95.12973,26.36204],[95.1283,26.35466],[95.13165,26.3465],[95.13348,26.3426],[95.12753,26.33591],[95.12804,26.33068],[95.12823,26.32926],[95.11999,26.32743],[95.09403,26.32847],[95.06289,26.31705],[95.04213,26.30874],[95.02967,26.29317],[95.02032,26.28902],[95.00787,26.28902],[94.99229,26.30044],[94.97361,26.30251],[94.96011,26.30251],[94.94454,26.31289],[94.93727,26.32431],[94.93831,26.33781],[94.94662,26.34715],[94.94973,26.35753],[94.94973,26.36584],[94.94247,26.37415],[94.93001,26.37518],[94.92897,26.3783],[94.92897,26.39076],[94.9352,26.40425],[94.93416,26.41048],[94.92377,26.42294],[94.9134,26.43436],[94.91209,26.44005],[94.91196,26.44005],[94.90341,26.44552],[94.90247,26.45132],[94.90546,26.46383],[94.90239,26.47224],[94.89896,26.4764],[94.89412,26.48485],[94.89784,26.48994],[94.89469,26.49825],[94.89498,26.50303],[94.89936,26.51015],[94.8976,26.51369],[94.89545,26.51872],[94.89533,26.52281],[94.89567,26.52816],[94.89759,26.53174],[94.89439,26.53884],[94.89268,26.55146],[94.88931,26.55585],[94.88818,26.55997],[94.89195,26.56559],[94.88688,26.56886],[94.88907,26.57107],[94.88634,26.57547],[94.88431,26.58097],[94.88507,26.58632],[94.89618,26.59801],[94.88917,26.59729],[94.89138,26.60006],[94.89474,26.60874],[94.89082,26.61094],[94.89038,26.61651],[94.88429,26.6177],[94.88005,26.61523],[94.87577,26.61518],[94.86619,26.61765],[94.85867,26.61606],[94.84708,26.61988],[94.83929,26.62495],[94.83278,26.62712],[94.81269,26.63008],[94.80652,26.63431],[94.80165,26.63581],[94.79528,26.63532],[94.79127,26.64021],[94.78997,26.64778],[94.79058,26.65596],[94.78682,26.66051],[94.78297,26.66136],[94.78639,26.66992],[94.78648,26.67263],[94.78486,26.67612],[94.78574,26.68101],[94.78872,26.68393],[94.7916,26.68886],[94.79073,26.69251],[94.78478,26.69928],[94.78499,26.70365],[94.78957,26.70359],[94.79794,26.69905],[94.80536,26.69667],[94.80783,26.69716],[94.80894,26.70092],[94.81595,26.70221],[94.82824,26.71634],[94.83589,26.72287],[94.83517,26.72516],[94.8276,26.73346],[94.82666,26.73696],[94.82063,26.74602],[94.81702,26.74833],[94.81313,26.74805],[94.81062,26.74997],[94.80302,26.76649],[94.80575,26.76847],[94.80703,26.77229],[94.80502,26.77421],[94.79796,26.77275],[94.79695,26.77693],[94.80184,26.77987],[94.8084,26.78105],[94.81815,26.78473],[94.81663,26.78856],[94.81315,26.79185],[94.81405,26.79658],[94.80894,26.80002],[94.80428,26.80025],[94.79874,26.79937],[94.79079,26.80145],[94.79496,26.80373],[94.80221,26.80606],[94.80536,26.81219],[94.80161,26.81381],[94.79665,26.81852],[94.80672,26.82123],[94.80918,26.82328],[94.81306,26.82476],[94.81507,26.83002],[94.81541,26.83681],[94.8167,26.84147],[94.82109,26.84487],[94.82173,26.84931],[94.82108,26.85446],[94.82629,26.85931],[94.83226,26.86271],[94.83646,26.86846],[94.83878,26.874],[94.84584,26.87679],[94.85153,26.88134],[94.85335,26.88534],[94.85901,26.89328],[94.86532,26.90691],[94.86862,26.90989],[94.86964,26.91501],[94.88155,26.92671],[94.88622,26.93246],[94.89447,26.93733],[94.90129,26.94034],[94.90882,26.94227],[94.91386,26.94257],[94.91799,26.94514],[94.92377,26.95033],[94.92816,26.9521],[94.9336,26.93854],[94.93855,26.93797],[94.94122,26.93927],[94.94709,26.9402],[94.95728,26.94355],[94.96417,26.94064],[94.96677,26.93618],[94.96794,26.93149],[94.97067,26.92836],[94.97426,26.9276],[94.97966,26.92462],[94.98567,26.91825],[94.98945,26.91783],[94.99205,26.91839],[94.99119,26.92292],[94.99306,26.92616],[94.99947,26.92429],[95.00579,26.92487],[95.01657,26.92435],[95.02135,26.9254],[95.02856,26.93251],[95.03805,26.93848],[95.05465,26.94088],[95.06534,26.94819],[95.08686,26.95274],[95.11005,26.96691],[95.11322,26.97232],[95.1135,26.97758],[95.11694,26.98368],[95.12638,26.98691],[95.13699,26.99358],[95.14276,26.9983],[95.14948,26.99984],[95.1545,27.00604],[95.19552,27.04295]]]}},{"type":"Feature","properties":{"ID_0":105,"ISO":"IND","NAME_0":"India","ID_1":25,"NAME_1":"Nagaland","ID_2":368,"NAME_2":"Phek","NL_NAME_2":null,"VARNAME_2":"Pheka","TYPE_2":"District","ENGTYPE_2":"District","STATE":"Nagaland","DISTRICT":"Phek"},"geometry":{"type":"Polygon","coordinates":[[[94.71668,25.764],[94.72145,25.75675],[94.72074,25.74836],[94.72117,25.74334],[94.72251,25.73345],[94.72093,25.73153],[94.72614,25.72736],[94.73044,25.72869],[94.72969,25.73209],[94.72695,25.7334],[94.72835,25.73508],[94.72722,25.73796],[94.72403,25.74024],[94.72424,25.74635],[94.72868,25.74767],[94.72722,25.75384],[94.7318,25.75517],[94.73089,25.75949],[94.7365,25.76042],[94.73836,25.76503],[94.74279,25.76849],[94.74316,25.77356],[94.74451,25.77667],[94.75271,25.78014],[94.75417,25.78509],[94.75595,25.78625],[94.75861,25.78666],[94.7728,25.78582],[94.78974,25.78293],[94.80802,25.7744],[94.83505,25.75908],[94.83861,25.75253],[94.85919,25.73087],[94.86267,25.72333],[94.8604,25.69221],[94.85414,25.66899],[94.85184,25.65678],[94.85137,25.64038],[94.85534,25.62554],[94.8564,25.61743],[94.85722,25.61611],[94.86349,25.61623],[94.87302,25.6132],[94.87632,25.60549],[94.88324,25.59509],[94.88882,25.59317],[94.88898,25.59311],[94.88892,25.59287],[94.88917,25.59218],[94.88872,25.592],[94.8877,25.58762],[94.89189,25.58206],[94.89708,25.5774],[94.90416,25.57118],[94.90499,25.56711],[94.88783,25.56542],[94.85855,25.5634],[94.85678,25.56344],[94.85648,25.56333],[94.85301,25.5633],[94.84994,25.56087],[94.84944,25.56069],[94.848,25.55935],[94.84342,25.55574],[94.83686,25.55049],[94.83392,25.54673],[94.8298,25.53839],[94.82967,25.53486],[94.82961,25.53298],[94.82884,25.52812],[94.82533,25.52094],[94.82209,25.51719],[94.82024,25.51368],[94.81865,25.50685],[94.81556,25.49993],[94.81249,25.49537],[94.80588,25.49336],[94.79712,25.49373],[94.78983,25.4912],[94.78452,25.49018],[94.77896,25.48428],[94.77274,25.48129],[94.76706,25.48243],[94.76453,25.48543],[94.76232,25.4915],[94.75668,25.49202],[94.75576,25.489],[94.75542,25.48788],[94.75155,25.48251],[94.74651,25.47913],[94.73921,25.47678],[94.73089,25.4747],[94.72179,25.47246],[94.71463,25.471],[94.70243,25.4686],[94.70093,25.4685],[94.69567,25.46813],[94.68864,25.4655],[94.68243,25.45973],[94.66976,25.45536],[94.66598,25.4554],[94.65874,25.45705],[94.65646,25.4586],[94.64823,25.46162],[94.63297,25.46566],[94.62534,25.46909],[94.60748,25.48244],[94.59737,25.48626],[94.59489,25.48815],[94.59084,25.48975],[94.5872,25.49245],[94.58501,25.49687],[94.57459,25.50523],[94.56818,25.50659],[94.55742,25.51277],[94.559,25.52434],[94.56126,25.53069],[94.55827,25.53488],[94.56348,25.53967],[94.55987,25.54571],[94.5629,25.54951],[94.56138,25.56051],[94.56466,25.56794],[94.56041,25.56799],[94.56154,25.57833],[94.55574,25.58581],[94.55957,25.59411],[94.56515,25.6026],[94.56691,25.6041],[94.56863,25.60779],[94.57282,25.61131],[94.57692,25.62037],[94.57851,25.62625],[94.58377,25.63449],[94.59051,25.64027],[94.59455,25.64265],[94.5952,25.64385],[94.58694,25.64659],[94.57609,25.6447],[94.57723,25.64833],[94.57679,25.65283],[94.58135,25.65739],[94.58205,25.66061],[94.58522,25.66178],[94.58344,25.66522],[94.58559,25.67001],[94.58737,25.6718],[94.58533,25.67485],[94.58813,25.67727],[94.58997,25.68125],[94.59695,25.68691],[94.59562,25.69128],[94.58705,25.69189],[94.58298,25.6932],[94.57861,25.696],[94.57301,25.69765],[94.56799,25.69222],[94.56508,25.68082],[94.55222,25.66741],[94.55178,25.66246],[94.54474,25.65754],[94.53954,25.65108],[94.53155,25.65013],[94.53066,25.64259],[94.52818,25.64429],[94.52419,25.64343],[94.51451,25.63049],[94.5109,25.62991],[94.50867,25.6269],[94.5078,25.61895],[94.50537,25.61699],[94.50183,25.62002],[94.49994,25.61882],[94.4993,25.6165],[94.49342,25.61433],[94.49111,25.61865],[94.49118,25.6198],[94.47404,25.62164],[94.44927,25.60109],[94.44782,25.59804],[94.44428,25.59601],[94.43774,25.59586],[94.43002,25.59272],[94.42566,25.58147],[94.42238,25.57599],[94.4251,25.573],[94.42639,25.56145],[94.42559,25.55292],[94.42027,25.54265],[94.41681,25.54194],[94.4109,25.54352],[94.40449,25.5409],[94.38854,25.53657],[94.36467,25.52149],[94.32901,25.50835],[94.32069,25.49928],[94.31354,25.49447],[94.30898,25.4938],[94.30264,25.49463],[94.299,25.50071],[94.29074,25.50952],[94.28674,25.5117],[94.27987,25.50545],[94.27415,25.50299],[94.26694,25.50244],[94.25726,25.50342],[94.25206,25.49907],[94.23174,25.49831],[94.22914,25.49601],[94.22298,25.49677],[94.21986,25.49963],[94.21485,25.50024],[94.21281,25.50282],[94.21293,25.50817],[94.2069,25.51164],[94.20689,25.51395],[94.19925,25.52277],[94.19073,25.53078],[94.19014,25.53463],[94.19391,25.5422],[94.19487,25.55243],[94.19572,25.55302],[94.19977,25.55811],[94.19497,25.57023],[94.19595,25.57713],[94.20264,25.59128],[94.20793,25.59914],[94.21127,25.60279],[94.21579,25.61473],[94.21496,25.61876],[94.21343,25.61921],[94.21152,25.62208],[94.21281,25.63711],[94.21523,25.63735],[94.21782,25.63892],[94.22182,25.65726],[94.22135,25.66185],[94.21911,25.66385],[94.21822,25.67398],[94.21639,25.6799],[94.21911,25.68757],[94.22061,25.69012],[94.22825,25.69793],[94.23181,25.70388],[94.23323,25.71603],[94.23872,25.7285],[94.25117,25.74969],[94.2597,25.76167],[94.26438,25.77032],[94.26974,25.78468],[94.27928,25.80172],[94.2818,25.80536],[94.29593,25.80127],[94.3062,25.78963],[94.32127,25.79648],[94.3644,25.8177],[94.43082,25.84373],[94.45822,25.84715],[94.46613,25.84715],[94.46951,25.83631],[94.47179,25.83534],[94.48018,25.83653],[94.4934,25.83669],[94.49785,25.83534],[94.50567,25.82828],[94.51483,25.82429],[94.51805,25.82108],[94.52036,25.8223],[94.52232,25.82627],[94.5251,25.82772],[94.53134,25.82677],[94.54732,25.81491],[94.54691,25.80714],[94.54266,25.80005],[94.53772,25.78933],[94.54331,25.78595],[94.54623,25.78642],[94.5598,25.78307],[94.5686,25.78287],[94.59293,25.78555],[94.59399,25.78487],[94.59868,25.78516],[94.60384,25.78305],[94.60486,25.7811],[94.61122,25.78279],[94.61452,25.78533],[94.61991,25.78195],[94.62525,25.77586],[94.63262,25.77348],[94.64107,25.77327],[94.64588,25.77617],[94.64926,25.78009],[94.65574,25.78224],[94.66418,25.78145],[94.68977,25.76916],[94.70297,25.76458],[94.71339,25.76341],[94.71668,25.764]]]}},{"type":"Feature","properties":{"ID_0":105,"ISO":"IND","NAME_0":"India","ID_1":25,"NAME_1":"Nagaland","ID_2":369,"NAME_2":"Tuensang","NL_NAME_2":null,"VARNAME_2":"Tuenasang","TYPE_2":"District","ENGTYPE_2":"District","STATE":"Nagaland","DISTRICT":"Tuensang"},"geometry":{"type":"Polygon","coordinates":[[[94.79079,26.80145],[94.79874,26.79937],[94.80428,26.80025],[94.80894,26.80002],[94.81405,26.79658],[94.81315,26.79185],[94.81663,26.78856],[94.81815,26.78473],[94.8084,26.78105],[94.80184,26.77987],[94.79695,26.77693],[94.79796,26.77275],[94.80502,26.77421],[94.80703,26.77229],[94.80575,26.76847],[94.80302,26.76649],[94.81062,26.74997],[94.81313,26.74805],[94.81702,26.74833],[94.82063,26.74602],[94.82666,26.73696],[94.8276,26.73346],[94.83517,26.72516],[94.83589,26.72287],[94.82824,26.71634],[94.81595,26.70221],[94.80894,26.70092],[94.80783,26.69716],[94.80536,26.69667],[94.79794,26.69905],[94.78957,26.70359],[94.78499,26.70365],[94.78478,26.69928],[94.79073,26.69251],[94.7916,26.68886],[94.78872,26.68393],[94.78574,26.68101],[94.78486,26.67612],[94.78648,26.67263],[94.78639,26.66992],[94.78297,26.66136],[94.78682,26.66051],[94.79058,26.65596],[94.78997,26.64778],[94.79127,26.64021],[94.79528,26.63532],[94.80165,26.63581],[94.80652,26.63431],[94.81269,26.63008],[94.83278,26.62712],[94.83929,26.62495],[94.84708,26.61988],[94.85867,26.61606],[94.86619,26.61765],[94.87577,26.61518],[94.88005,26.61523],[94.88429,26.6177],[94.89038,26.61651],[94.89082,26.61094],[94.89474,26.60874],[94.89138,26.60006],[94.88917,26.59729],[94.89618,26.59801],[94.88507,26.58632],[94.88431,26.58097],[94.88634,26.57547],[94.88907,26.57107],[94.88688,26.56886],[94.89195,26.56559],[94.88818,26.55997],[94.88931,26.55585],[94.89268,26.55146],[94.89439,26.53884],[94.89759,26.53174],[94.89567,26.52816],[94.89533,26.52281],[94.89545,26.51872],[94.8976,26.51369],[94.89936,26.51015],[94.89498,26.50303],[94.89469,26.49825],[94.89784,26.48994],[94.89412,26.48485],[94.89896,26.4764],[94.90239,26.47224],[94.90546,26.46383],[94.90247,26.45132],[94.90341,26.44552],[94.91196,26.44005],[94.91209,26.44005],[94.9134,26.43436],[94.92377,26.42294],[94.93416,26.41048],[94.9352,26.40425],[94.92897,26.39076],[94.92897,26.3783],[94.93001,26.37518],[94.94247,26.37415],[94.94973,26.36584],[94.94973,26.35753],[94.94662,26.34715],[94.93831,26.33781],[94.93727,26.32431],[94.94454,26.31289],[94.96011,26.30251],[94.97361,26.30251],[94.99229,26.30044],[95.00787,26.28902],[95.02032,26.28902],[95.02967,26.29317],[95.04213,26.30874],[95.06289,26.31705],[95.09403,26.32847],[95.11999,26.32743],[95.12823,26.32926],[95.12875,26.32535],[95.12937,26.32164],[95.1299,26.31722],[95.13123,26.30737],[95.13154,26.30258],[95.13083,26.29655],[95.13115,26.2925],[95.12979,26.28872],[95.12709,26.28498],[95.12127,26.27937],[95.1207,26.27487],[95.12269,26.26871],[95.12491,26.26425],[95.12874,26.26023],[95.12967,26.25617],[95.12832,26.25258],[95.12578,26.24584],[95.1229,26.24255],[95.12123,26.2387],[95.12314,26.23298],[95.12837,26.22949],[95.13321,26.22564],[95.14059,26.21813],[95.14254,26.21424],[95.13823,26.20924],[95.1342,26.20767],[95.1283,26.20315],[95.12467,26.19662],[95.12773,26.19396],[95.12582,26.18272],[95.12299,26.17634],[95.12022,26.17225],[95.11806,26.16894],[95.11684,26.16301],[95.1205,26.15511],[95.12379,26.14911],[95.12788,26.13697],[95.12536,26.13132],[95.12318,26.12766],[95.12089,26.122],[95.12057,26.10974],[95.12325,26.10421],[95.12672,26.101],[95.1315,26.10031],[95.13805,26.10256],[95.14423,26.10095],[95.14798,26.09792],[95.15163,26.09489],[95.15746,26.09616],[95.16592,26.09901],[95.17099,26.09678],[95.17699,26.09228],[95.18015,26.08981],[95.18536,26.08468],[95.1857,26.08035],[95.18357,26.07451],[95.18161,26.07259],[95.18031,26.07131],[95.17753,26.06756],[95.17303,26.06176],[95.16805,26.05777],[95.16557,26.05338],[95.16519,26.04456],[95.165,26.03887],[95.16489,26.03725],[95.16472,26.035],[95.16264,26.03142],[95.16141,26.03029],[95.14891,26.01881],[95.14265,26.01087],[95.14066,26.00647],[95.13663,26.00418],[95.13155,26.0001],[95.12798,25.99528],[95.11754,25.98775],[95.11011,25.97568],[95.10972,25.97488],[95.10647,25.96815],[95.10017,25.96495],[95.09335,25.96148],[95.08848,25.95757],[95.07895,25.95084],[95.07344,25.94903],[95.0655,25.94768],[95.05741,25.94698],[95.05306,25.9445],[95.04996,25.93922],[95.0449,25.93479],[95.0367,25.93507],[95.03584,25.93147],[95.03618,25.92861],[95.03636,25.92704],[95.03311,25.92438],[95.02803,25.91985],[95.02187,25.91],[95.02146,25.90902],[95.0201,25.9057],[95.01933,25.90102],[95.01978,25.898],[95.0203,25.89451],[95.02217,25.88754],[95.01903,25.88479],[95.01748,25.88294],[95.01557,25.88067],[95.01541,25.87202],[95.01824,25.86783],[95.02142,25.86185],[95.02437,25.85847],[95.02755,25.85148],[95.03003,25.84932],[95.03323,25.84653],[95.03371,25.84042],[95.03423,25.83389],[95.03463,25.82896],[95.03475,25.82745],[95.03497,25.82642],[95.03605,25.82376],[95.03748,25.82022],[95.04033,25.81704],[95.04385,25.81302],[95.04938,25.81007],[95.0518,25.80517],[95.05149,25.79912],[95.04759,25.78771],[95.0455,25.78279],[95.04565,25.77863],[95.05253,25.76266],[95.0444,25.7533],[95.04239,25.7502],[95.04069,25.74758],[95.03369,25.74144],[95.0272,25.74062],[95.01888,25.73847],[95.0094,25.73851],[95.00241,25.73263],[94.99931,25.72663],[94.99878,25.7221],[94.99873,25.72168],[94.99323,25.71426],[94.98904,25.70908],[94.98367,25.70428],[94.97992,25.70189],[94.9763,25.6995],[94.97387,25.69736],[94.97317,25.69674],[94.95377,25.68344],[94.94287,25.67528],[94.93758,25.66903],[94.9351,25.66455],[94.93415,25.66105],[94.93263,25.65402],[94.93187,25.65202],[94.92983,25.64666],[94.92663,25.64056],[94.92551,25.63235],[94.92228,25.62447],[94.92091,25.61483],[94.91968,25.61114],[94.91722,25.60765],[94.91146,25.6033],[94.90469,25.6014],[94.90346,25.60106],[94.89572,25.598],[94.88898,25.59311],[94.88882,25.59317],[94.88324,25.59509],[94.87632,25.60549],[94.87302,25.6132],[94.86349,25.61623],[94.85722,25.61611],[94.8564,25.61743],[94.85534,25.62554],[94.85137,25.64038],[94.85184,25.65678],[94.85414,25.66899],[94.8604,25.69221],[94.86267,25.72333],[94.85919,25.73087],[94.83861,25.75253],[94.83505,25.75908],[94.80802,25.7744],[94.78974,25.78293],[94.7728,25.78582],[94.75861,25.78666],[94.75595,25.78625],[94.75417,25.78509],[94.75271,25.78014],[94.74451,25.77667],[94.74316,25.77356],[94.74279,25.76849],[94.73836,25.76503],[94.7365,25.76042],[94.73089,25.75949],[94.7318,25.75517],[94.72722,25.75384],[94.72868,25.74767],[94.72424,25.74635],[94.72403,25.74024],[94.72722,25.73796],[94.72835,25.73508],[94.72695,25.7334],[94.72969,25.73209],[94.73044,25.72869],[94.72614,25.72736],[94.72093,25.73153],[94.72251,25.73345],[94.72117,25.74334],[94.72074,25.74836],[94.72145,25.75675],[94.71668,25.764],[94.7113,25.776],[94.70211,25.79221],[94.69996,25.79479],[94.6842,25.80667],[94.66705,25.81392],[94.65963,25.81828],[94.64916,25.82199],[94.63335,25.82027],[94.62444,25.82462],[94.61553,25.82217],[94.61364,25.8236],[94.60658,25.83435],[94.61376,25.84179],[94.61479,25.84478],[94.61384,25.85319],[94.60914,25.86043],[94.6052,25.87066],[94.59635,25.88396],[94.59098,25.88856],[94.58002,25.89279],[94.57664,25.89802],[94.57704,25.90141],[94.5827,25.90874],[94.5968,25.92175],[94.60251,25.93005],[94.61033,25.93766],[94.61304,25.94464],[94.62545,25.95774],[94.65559,26.00364],[94.65876,26.00672],[94.66014,26.01105],[94.6632,26.01323],[94.66832,26.01957],[94.67228,26.02313],[94.67913,26.03376],[94.68665,26.04156],[94.69528,26.04703],[94.69981,26.051],[94.70621,26.05787],[94.70164,26.07363],[94.69699,26.07845],[94.69407,26.09451],[94.69077,26.10373],[94.69114,26.10914],[94.68934,26.12344],[94.69003,26.13499],[94.69239,26.14372],[94.70222,26.15512],[94.70412,26.16176],[94.70505,26.17794],[94.70087,26.17707],[94.69846,26.1871],[94.69361,26.19871],[94.68272,26.20511],[94.67519,26.2133],[94.6692,26.21454],[94.66209,26.20822],[94.65648,26.20963],[94.64815,26.21902],[94.64294,26.22366],[94.63513,26.21318],[94.63041,26.20864],[94.62297,26.20446],[94.61435,26.20278],[94.60978,26.20328],[94.60632,26.20422],[94.5974,26.21059],[94.58894,26.21932],[94.58766,26.22408],[94.58887,26.22633],[94.58927,26.23365],[94.5884,26.24123],[94.57971,26.24404],[94.57711,26.24843],[94.56568,26.26126],[94.56517,26.26678],[94.56629,26.26966],[94.56657,26.27559],[94.5654,26.28451],[94.56792,26.28901],[94.57276,26.29448],[94.58426,26.29556],[94.58916,26.3053],[94.59407,26.30382],[94.59769,26.30864],[94.60011,26.31397],[94.61135,26.32465],[94.62385,26.33305],[94.62917,26.33548],[94.63175,26.3392],[94.63492,26.33982],[94.64211,26.33957],[94.65024,26.34538],[94.65315,26.34651],[94.65466,26.3532],[94.65643,26.3538],[94.65505,26.35827],[94.65525,26.36166],[94.65716,26.36692],[94.66534,26.37457],[94.66582,26.37705],[94.66247,26.38165],[94.66656,26.38414],[94.67056,26.38385],[94.6737,26.38826],[94.67859,26.38987],[94.68888,26.40295],[94.6902,26.40872],[94.69266,26.41054],[94.69385,26.41274],[94.69806,26.4159],[94.70099,26.41617],[94.70626,26.41802],[94.70574,26.42497],[94.70643,26.43061],[94.71147,26.44506],[94.70786,26.45386],[94.70876,26.45848],[94.70232,26.47369],[94.69382,26.48121],[94.69269,26.48476],[94.69646,26.49828],[94.69698,26.50495],[94.69434,26.51176],[94.69143,26.52926],[94.70275,26.54373],[94.714,26.55492],[94.72865,26.57287],[94.7308,26.57935],[94.73114,26.58814],[94.73549,26.59389],[94.73698,26.60064],[94.7344,26.60969],[94.72482,26.61543],[94.7235,26.62018],[94.72457,26.62577],[94.72073,26.63165],[94.71154,26.64175],[94.68938,26.64697],[94.67925,26.65196],[94.67446,26.65206],[94.67017,26.65326],[94.67294,26.65687],[94.69583,26.66867],[94.70013,26.67264],[94.70955,26.67938],[94.71866,26.68495],[94.71996,26.68941],[94.72616,26.69932],[94.72696,26.70198],[94.73746,26.70388],[94.74757,26.70305],[94.75231,26.70691],[94.75188,26.72133],[94.75096,26.72724],[94.74636,26.73528],[94.74908,26.73831],[94.75577,26.73375],[94.75977,26.73357],[94.75826,26.73884],[94.75423,26.74389],[94.74005,26.7536],[94.73972,26.76107],[94.73773,26.76885],[94.74168,26.77357],[94.74236,26.77864],[94.7458,26.78214],[94.75072,26.77967],[94.7541,26.77431],[94.75637,26.77227],[94.75935,26.77414],[94.76003,26.77663],[94.76236,26.77993],[94.76833,26.7834],[94.76907,26.7911],[94.77309,26.79496],[94.78564,26.79857],[94.79079,26.80145]]]}},{"type":"Feature","properties":{"ID_0":105,"ISO":"IND","NAME_0":"India","ID_1":25,"NAME_1":"Nagaland","ID_2":370,"NAME_2":"Wokha","NL_NAME_2":null,"VARNAME_2":null,"TYPE_2":"District","ENGTYPE_2":"District","STATE":"Nagaland","DISTRICT":"Wokha"},"geometry":{"type":"Polygon","coordinates":[[[94.31651,26.46293],[94.31681,26.45983],[94.31081,26.45179],[94.30117,26.44123],[94.29248,26.42309],[94.29361,26.41586],[94.29621,26.41171],[94.29983,26.40866],[94.30407,26.40281],[94.30606,26.39714],[94.30444,26.3863],[94.30575,26.3846],[94.30991,26.38823],[94.3164,26.39736],[94.32632,26.405],[94.3278,26.4071],[94.3304,26.40593],[94.33134,26.40111],[94.33466,26.39397],[94.34317,26.38606],[94.34485,26.3843],[94.34851,26.38252],[94.35486,26.3759],[94.35622,26.36999],[94.35933,26.36262],[94.35557,26.34951],[94.35024,26.33993],[94.35021,26.33763],[94.35292,26.33584],[94.35703,26.33734],[94.35907,26.34128],[94.36472,26.34246],[94.36676,26.34243],[94.36784,26.3382],[94.35551,26.31989],[94.35566,26.31397],[94.35818,26.30433],[94.35863,26.29463],[94.36088,26.28081],[94.36094,26.27702],[94.35997,26.27331],[94.35111,26.25776],[94.34812,26.25455],[94.34364,26.25143],[94.34029,26.25006],[94.3381,26.24685],[94.34084,26.2438],[94.34318,26.244],[94.34888,26.24635],[94.35592,26.2476],[94.36044,26.24641],[94.36344,26.24237],[94.37357,26.23695],[94.37871,26.23317],[94.38474,26.23286],[94.3879,26.23142],[94.38919,26.22552],[94.38216,26.2112],[94.37405,26.20032],[94.37038,26.19742],[94.36307,26.19383],[94.35631,26.19228],[94.34965,26.18653],[94.34586,26.18481],[94.3378,26.18404],[94.33843,26.17974],[94.34156,26.17582],[94.35178,26.17604],[94.35123,26.17109],[94.34962,26.16836],[94.354,26.15957],[94.36271,26.15149],[94.36671,26.14292],[94.37881,26.13626],[94.38689,26.1276],[94.39005,26.11988],[94.38927,26.11705],[94.38596,26.11308],[94.38322,26.1047],[94.38643,26.09509],[94.38864,26.09122],[94.39119,26.08936],[94.39119,26.08648],[94.38938,26.08341],[94.38851,26.07903],[94.38579,26.07718],[94.3813,26.07091],[94.37939,26.06426],[94.3776,26.06061],[94.37483,26.05856],[94.3722,26.04862],[94.36793,26.04003],[94.3624,26.03207],[94.36383,26.03146],[94.3615,26.0252],[94.36114,26.01968],[94.35968,26.01483],[94.35528,26.01218],[94.34719,26.00837],[94.34483,26.00601],[94.34157,26.0026],[94.3401,26.00178],[94.3366,26.00245],[94.33315,26.00598],[94.32967,26.00941],[94.3234,26.02132],[94.31734,26.02306],[94.3148,26.01824],[94.31049,26.01823],[94.30656,26.01355],[94.30087,26.01255],[94.29522,26.01304],[94.28757,26.0139],[94.27753,26.01633],[94.27402,26.01501],[94.26582,26.01192],[94.25891,26.01227],[94.24298,26.00873],[94.23927,26.00982],[94.23246,26.01493],[94.22575,26.0215],[94.22237,26.0269],[94.21946,26.02938],[94.21613,26.02415],[94.21288,26.02092],[94.21385,26.01657],[94.20944,26.0092],[94.2035,26.00549],[94.19917,25.99836],[94.19431,25.99189],[94.19054,25.99273],[94.18698,25.99225],[94.17573,25.98482],[94.17313,25.98112],[94.1692,25.97862],[94.16523,25.97866],[94.15813,25.98166],[94.13661,25.99425],[94.12589,25.99344],[94.11638,25.99056],[94.10725,25.9901],[94.10181,25.98781],[94.09808,25.98501],[94.08874,25.96943],[94.08473,25.96754],[94.07921,25.96666],[94.06925,25.95789],[94.0654,25.95872],[94.06059,25.95391],[94.05263,25.94924],[94.04697,25.94447],[94.03696,25.94264],[94.01664,25.94038],[94.00867,25.93662],[94.00526,25.93292],[94.00012,25.93455],[93.99671,25.93292],[93.99512,25.93399],[93.99164,25.93431],[93.99182,25.93259],[93.99882,25.93052],[93.99582,25.92548],[93.98846,25.92538],[93.98268,25.92627],[93.97109,25.94485],[93.97085,25.95326],[93.96921,25.96084],[93.95601,25.97419],[93.95805,25.98157],[93.96059,25.99701],[93.95898,26.00246],[93.95599,26.00457],[93.95489,26.00733],[93.95838,26.01189],[93.96266,26.02216],[93.96313,26.03335],[93.96589,26.0424],[93.97263,26.04496],[93.9745,26.05216],[93.98081,26.05863],[93.99112,26.07264],[93.98939,26.07412],[93.98602,26.08357],[93.98643,26.0883],[93.99097,26.08949],[93.99249,26.09278],[93.99217,26.09783],[93.99413,26.10609],[93.99957,26.10847],[94.00217,26.11138],[94.00214,26.11486],[93.99986,26.11591],[93.99496,26.1157],[93.99124,26.11812],[93.99282,26.12027],[93.99648,26.12237],[93.99661,26.12814],[93.99833,26.12936],[93.99831,26.13098],[93.99326,26.13282],[93.99075,26.13387],[93.9932,26.13739],[93.99628,26.13741],[93.99966,26.1365],[94.0031,26.13902],[94.00523,26.14186],[94.00636,26.14724],[94.00291,26.15134],[93.99966,26.15824],[94.00435,26.16407],[94.0039,26.16938],[94.00481,26.17327],[94.00877,26.18053],[94.013,26.18628],[94.02196,26.19146],[94.02662,26.19715],[94.0311,26.19939],[94.03574,26.20319],[94.03682,26.20972],[94.03656,26.21771],[94.04047,26.22351],[94.03817,26.22951],[94.04179,26.23389],[94.04422,26.23997],[94.04913,26.25021],[94.05286,26.25579],[94.06464,26.26177],[94.07047,26.26003],[94.07602,26.26924],[94.07782,26.27535],[94.07682,26.2852],[94.08006,26.28881],[94.08444,26.2886],[94.08723,26.29042],[94.09029,26.29713],[94.09808,26.30294],[94.10268,26.30869],[94.10448,26.32204],[94.10805,26.3264],[94.11129,26.32605],[94.11841,26.32272],[94.12872,26.32325],[94.11936,26.33049],[94.11937,26.3337],[94.12397,26.33591],[94.13566,26.33822],[94.13877,26.34155],[94.14265,26.34213],[94.14384,26.3402],[94.14224,26.33604],[94.14671,26.33542],[94.14932,26.33908],[94.15453,26.33998],[94.16452,26.33934],[94.17215,26.34441],[94.17551,26.34422],[94.17928,26.35084],[94.17999,26.35412],[94.17534,26.35513],[94.16938,26.35406],[94.16767,26.35331],[94.16447,26.36012],[94.17358,26.36758],[94.17561,26.37176],[94.17549,26.37445],[94.17405,26.37782],[94.17909,26.38872],[94.17694,26.39956],[94.17684,26.41341],[94.17401,26.42089],[94.17652,26.42807],[94.17576,26.4318],[94.18655,26.46051],[94.20112,26.4699],[94.20937,26.48372],[94.21149,26.48985],[94.22362,26.50057],[94.22892,26.50326],[94.23989,26.51143],[94.24483,26.51692],[94.25205,26.52773],[94.25332,26.53253],[94.26257,26.54395],[94.27674,26.55884],[94.28229,26.56354],[94.28979,26.56411],[94.28891,26.5599],[94.28531,26.55824],[94.28484,26.55536],[94.28562,26.54657],[94.28494,26.54029],[94.28562,26.53409],[94.28906,26.52517],[94.28879,26.51832],[94.28707,26.51496],[94.28724,26.50852],[94.29024,26.49597],[94.29243,26.49003],[94.29392,26.48074],[94.30331,26.46726],[94.31098,26.46606],[94.31348,26.465],[94.31651,26.46293]]]}},{"type":"Feature","properties":{"ID_0":105,"ISO":"IND","NAME_0":"India","ID_1":25,"NAME_1":"Nagaland","ID_2":371,"NAME_2":"Zunheboto","NL_NAME_2":null,"VARNAME_2":"Zanheboto|Zonheboto","TYPE_2":"District","ENGTYPE_2":"District","STATE":"Nagaland","DISTRICT":"Zunheboto"},"geometry":{"type":"Polygon","coordinates":[[[94.58766,26.22408],[94.58894,26.21932],[94.5974,26.21059],[94.60632,26.20422],[94.60978,26.20328],[94.61435,26.20278],[94.62297,26.20446],[94.63041,26.20864],[94.63513,26.21318],[94.64294,26.22366],[94.64815,26.21902],[94.65648,26.20963],[94.66209,26.20822],[94.6692,26.21454],[94.67519,26.2133],[94.68272,26.20511],[94.69361,26.19871],[94.69846,26.1871],[94.70087,26.17707],[94.70505,26.17794],[94.70412,26.16176],[94.70222,26.15512],[94.69239,26.14372],[94.69003,26.13499],[94.68934,26.12344],[94.69114,26.10914],[94.69077,26.10373],[94.69407,26.09451],[94.69699,26.07845],[94.70164,26.07363],[94.70621,26.05787],[94.69981,26.051],[94.69528,26.04703],[94.68665,26.04156],[94.67913,26.03376],[94.67228,26.02313],[94.66832,26.01957],[94.6632,26.01323],[94.66014,26.01105],[94.65876,26.00672],[94.65559,26.00364],[94.62545,25.95774],[94.61304,25.94464],[94.61033,25.93766],[94.60251,25.93005],[94.5968,25.92175],[94.5827,25.90874],[94.57704,25.90141],[94.57664,25.89802],[94.58002,25.89279],[94.59098,25.88856],[94.59635,25.88396],[94.6052,25.87066],[94.60914,25.86043],[94.61384,25.85319],[94.61479,25.84478],[94.61376,25.84179],[94.60658,25.83435],[94.61364,25.8236],[94.61553,25.82217],[94.62444,25.82462],[94.63335,25.82027],[94.64916,25.82199],[94.65963,25.81828],[94.66705,25.81392],[94.6842,25.80667],[94.69996,25.79479],[94.70211,25.79221],[94.7113,25.776],[94.71668,25.764],[94.71339,25.76341],[94.70297,25.76458],[94.68977,25.76916],[94.66418,25.78145],[94.65574,25.78224],[94.64926,25.78009],[94.64588,25.77617],[94.64107,25.77327],[94.63262,25.77348],[94.62525,25.77586],[94.61991,25.78195],[94.61452,25.78533],[94.61122,25.78279],[94.60486,25.7811],[94.60384,25.78305],[94.59868,25.78516],[94.59399,25.78487],[94.59293,25.78555],[94.5686,25.78287],[94.5598,25.78307],[94.54623,25.78642],[94.54331,25.78595],[94.53772,25.78933],[94.54266,25.80005],[94.54691,25.80714],[94.54732,25.81491],[94.53134,25.82677],[94.5251,25.82772],[94.52232,25.82627],[94.52036,25.8223],[94.51805,25.82108],[94.51483,25.82429],[94.50567,25.82828],[94.49785,25.83534],[94.4934,25.83669],[94.48018,25.83653],[94.47179,25.83534],[94.46951,25.83631],[94.46613,25.84715],[94.45822,25.84715],[94.43082,25.84373],[94.3644,25.8177],[94.32127,25.79648],[94.3062,25.78963],[94.29593,25.80127],[94.2818,25.80536],[94.26785,25.8177],[94.25347,25.83003],[94.24183,25.84578],[94.22266,25.86427],[94.21649,25.87865],[94.21854,25.89029],[94.2343,25.90741],[94.24799,25.91837],[94.27059,25.92247],[94.28565,25.9348],[94.28908,25.94439],[94.28703,25.95397],[94.28223,25.96561],[94.27607,25.98068],[94.27402,25.99711],[94.27402,26.01501],[94.27753,26.01633],[94.28757,26.0139],[94.29522,26.01304],[94.30087,26.01255],[94.30656,26.01355],[94.31049,26.01823],[94.3148,26.01824],[94.31734,26.02306],[94.3234,26.02132],[94.32967,26.00941],[94.33315,26.00598],[94.3366,26.00245],[94.3401,26.00178],[94.34157,26.0026],[94.34483,26.00601],[94.34719,26.00837],[94.35528,26.01218],[94.35968,26.01483],[94.36114,26.01968],[94.3615,26.0252],[94.36383,26.03146],[94.3624,26.03207],[94.36793,26.04003],[94.3722,26.04862],[94.37483,26.05856],[94.3776,26.06061],[94.37939,26.06426],[94.3813,26.07091],[94.38579,26.07718],[94.38851,26.07903],[94.38938,26.08341],[94.39119,26.08648],[94.39119,26.08936],[94.38864,26.09122],[94.38643,26.09509],[94.38322,26.1047],[94.38596,26.11308],[94.38927,26.11705],[94.39005,26.11988],[94.38689,26.1276],[94.37881,26.13626],[94.36671,26.14292],[94.36271,26.15149],[94.354,26.15957],[94.34962,26.16836],[94.35123,26.17109],[94.35178,26.17604],[94.34156,26.17582],[94.33843,26.17974],[94.3378,26.18404],[94.34586,26.18481],[94.34965,26.18653],[94.35631,26.19228],[94.36307,26.19383],[94.37038,26.19742],[94.38126,26.19957],[94.38863,26.20245],[94.39588,26.20659],[94.41068,26.21682],[94.41544,26.21638],[94.43737,26.20897],[94.4436,26.20952],[94.44787,26.21291],[94.44741,26.21952],[94.45067,26.22705],[94.45448,26.23165],[94.45846,26.24201],[94.45576,26.24875],[94.46353,26.26578],[94.47104,26.27808],[94.47508,26.2809],[94.47587,26.28879],[94.47778,26.29261],[94.48843,26.2952],[94.4899,26.29067],[94.49024,26.28487],[94.49317,26.27882],[94.49992,26.27426],[94.5023,26.26912],[94.50481,26.25765],[94.50941,26.25076],[94.51101,26.2459],[94.51383,26.2433],[94.51484,26.23997],[94.51289,26.23822],[94.50417,26.23469],[94.50325,26.23261],[94.50379,26.229],[94.5008,26.22494],[94.50169,26.21994],[94.50613,26.21777],[94.51355,26.21775],[94.52439,26.2162],[94.53123,26.21761],[94.53542,26.22256],[94.54291,26.21278],[94.55077,26.20794],[94.56245,26.2091],[94.56982,26.213],[94.57667,26.21522],[94.58024,26.21919],[94.58766,26.22408]]]}}],"state":"Nagaland","source":"geohacker/india (Datameet-derived), Census 2011 boundaries"}