{"type":"FeatureCollection","features":[{"type":"Feature","properties":{"ID_0":105,"ISO":"IND","NAME_0":"India","ID_1":27,"NAME_1":"Puducherry","ID_2":402,"NAME_2":"Karaikal","NL_NAME_2":null,"VARNAME_2":"Karaikkal|Karikal","TYPE_2":"District","ENGTYPE_2":"District","STATE":"Puducherry","DISTRICT":"Karaikal"},"geometry":{"type":"MultiPolygon","coordinates":[[[[79.84486,10.82653],[79.84486,10.82625],[79.84541,10.82625],[79.84541,10.82569],[79.84486,10.8257],[79.84486,10.82542],[79.84402,10.82542],[79.84402,10.82514],[79.84348,10.82514],[79.84348,10.82486],[79.84292,10.82486],[79.84292,10.82458],[79.84209,10.82458],[79.84209,10.8243],[79.84153,10.82431],[79.84153,10.82403],[79.84041,10.82403],[79.84041,10.82375],[79.84014,10.82375],[79.84014,10.82431],[79.84042,10.8243],[79.84042,10.82458],[79.84097,10.82458],[79.84097,10.82486],[79.84125,10.82486],[79.84125,10.82514],[79.8418,10.82514],[79.8418,10.82542],[79.84236,10.82542],[79.84236,10.8257],[79.84292,10.8257],[79.84292,10.82597],[79.84348,10.82597],[79.84348,10.82625],[79.84402,10.82625],[79.84402,10.82653],[79.84486,10.82653]]],[[[79.74824,10.98153],[79.7526,10.97989],[79.76051,10.98058],[79.76521,10.9792],[79.77228,10.97956],[79.77435,10.97724],[79.77393,10.97101],[79.77724,10.96793],[79.78342,10.96733],[79.78706,10.9698],[79.78963,10.97338],[79.79037,10.97853],[79.79192,10.98093],[79.79645,10.98307],[79.79742,10.9849],[79.80145,10.98621],[79.80257,10.98488],[79.80454,10.98288],[79.8098,10.98205],[79.81203,10.98296],[79.81303,10.98485],[79.8139,10.98715],[79.82478,10.98663],[79.82491,10.9848],[79.82442,10.97949],[79.83446,10.97682],[79.83448,10.97671],[79.83537,10.97662],[79.83764,10.97644],[79.84441,10.97597],[79.85059,10.97579],[79.85458,10.97602],[79.85458,10.97431],[79.85431,10.97431],[79.85431,10.97264],[79.85403,10.97264],[79.85403,10.97097],[79.85375,10.97097],[79.85375,10.96931],[79.85347,10.96932],[79.85347,10.96403],[79.8532,10.96403],[79.8532,10.96208],[79.85291,10.96208],[79.85291,10.96153],[79.8532,10.96153],[79.8532,10.96097],[79.85347,10.96097],[79.85347,10.95986],[79.8532,10.95986],[79.8532,10.95958],[79.85291,10.95958],[79.85291,10.9593],[79.8532,10.95931],[79.8532,10.95514],[79.85291,10.95514],[79.85291,10.95347],[79.8532,10.95347],[79.8532,10.95292],[79.85347,10.95292],[79.85347,10.95153],[79.8532,10.95153],[79.8532,10.95069],[79.85291,10.95069],[79.85291,10.94847],[79.8532,10.94847],[79.8532,10.94569],[79.85291,10.94569],[79.85291,10.94514],[79.8532,10.94515],[79.8532,10.94347],[79.85291,10.94347],[79.85291,10.94181],[79.8532,10.94181],[79.8532,10.94153],[79.85347,10.94153],[79.85347,10.93931],[79.85375,10.93931],[79.85375,10.93236],[79.85403,10.93236],[79.85403,10.92319],[79.85431,10.92319],[79.85431,10.91792],[79.85403,10.91792],[79.85403,10.91653],[79.85375,10.91653],[79.85375,10.91514],[79.85347,10.91514],[79.85347,10.91375],[79.8532,10.91375],[79.8532,10.91347],[79.85098,10.91347],[79.85098,10.9132],[79.85042,10.9132],[79.85042,10.91292],[79.84764,10.91292],[79.84764,10.91236],[79.8482,10.91236],[79.8482,10.91208],[79.84875,10.91208],[79.84875,10.91181],[79.84929,10.91181],[79.84929,10.91125],[79.85098,10.91125],[79.85098,10.91153],[79.85125,10.91153],[79.85125,10.91208],[79.85152,10.91208],[79.85152,10.91236],[79.85264,10.91236],[79.85264,10.91208],[79.85291,10.91208],[79.85291,10.91069],[79.85264,10.91069],[79.85264,10.90903],[79.85235,10.90904],[79.85235,10.90819],[79.85208,10.90819],[79.85208,10.90736],[79.85236,10.90736],[79.85235,10.90486],[79.85264,10.90486],[79.85264,10.90236],[79.85235,10.90236],[79.85235,10.89514],[79.85208,10.89514],[79.85208,10.89264],[79.85235,10.89264],[79.85235,10.89236],[79.85264,10.89236],[79.85264,10.89014],[79.85291,10.89014],[79.85291,10.88986],[79.85236,10.88986],[79.85236,10.88958],[79.85208,10.88958],[79.85208,10.88931],[79.85181,10.88931],[79.85181,10.88903],[79.85152,10.88903],[79.85152,10.88875],[79.85125,10.88875],[79.85125,10.88791],[79.85098,10.88792],[79.85098,10.88653],[79.85069,10.88653],[79.85069,10.88569],[79.84986,10.88569],[79.84986,10.88542],[79.84875,10.88542],[79.84875,10.88487],[79.84847,10.88487],[79.84847,10.88431],[79.8482,10.88431],[79.8482,10.88403],[79.84875,10.88403],[79.84875,10.88375],[79.85042,10.88375],[79.85042,10.88403],[79.85098,10.88403],[79.85098,10.88431],[79.85152,10.88431],[79.85152,10.88375],[79.85125,10.88375],[79.85125,10.88264],[79.85098,10.88264],[79.85098,10.88153],[79.85125,10.88153],[79.85125,10.88069],[79.85152,10.8807],[79.85152,10.88014],[79.85181,10.88014],[79.85181,10.87958],[79.85208,10.87958],[79.85208,10.8793],[79.85235,10.87931],[79.85235,10.87875],[79.85264,10.87875],[79.85264,10.87847],[79.85291,10.87847],[79.85291,10.87458],[79.85264,10.87458],[79.85264,10.86986],[79.85235,10.86987],[79.85235,10.86847],[79.85208,10.86847],[79.85208,10.86708],[79.85181,10.86708],[79.85181,10.86542],[79.85152,10.86542],[79.85152,10.86486],[79.85181,10.86486],[79.85181,10.86403],[79.85208,10.86403],[79.85208,10.85903],[79.85235,10.85903],[79.85235,10.85403],[79.85264,10.85403],[79.85264,10.83957],[79.85236,10.83958],[79.85236,10.83875],[79.85264,10.83875],[79.85264,10.83764],[79.85291,10.83764],[79.85291,10.83708],[79.85264,10.83708],[79.85264,10.83681],[79.85236,10.83681],[79.85236,10.83653],[79.85264,10.83653],[79.85264,10.83097],[79.85236,10.83097],[79.85236,10.8293],[79.85208,10.82931],[79.85208,10.82763],[79.85181,10.82764],[79.85181,10.82681],[79.84736,10.82681],[79.84736,10.82653],[79.84625,10.82653],[79.84625,10.82681],[79.84541,10.82681],[79.84541,10.82708],[79.84486,10.82708],[79.84486,10.82736],[79.84402,10.82736],[79.84402,10.82708],[79.84348,10.82708],[79.84348,10.82681],[79.84292,10.82681],[79.84292,10.82653],[79.84236,10.82653],[79.84236,10.82625],[79.8418,10.82625],[79.8418,10.82597],[79.84125,10.82597],[79.84125,10.8257],[79.84097,10.8257],[79.84097,10.82542],[79.84041,10.82542],[79.84041,10.82514],[79.83986,10.82514],[79.83986,10.82542],[79.83958,10.82542],[79.83958,10.82514],[79.8393,10.82514],[79.8393,10.82457],[79.83903,10.82458],[79.83903,10.82375],[79.8393,10.82375],[79.8393,10.82347],[79.8382,10.82347],[79.8382,10.8232],[79.83736,10.8232],[79.83736,10.82292],[79.83681,10.82292],[79.83681,10.82264],[79.83625,10.82264],[79.83625,10.82236],[79.83598,10.82236],[79.83598,10.82208],[79.83542,10.82208],[79.83542,10.82181],[79.83514,10.82182],[79.83514,10.82153],[79.8346,10.82153],[79.8346,10.82125],[79.83403,10.82125],[79.83403,10.82097],[79.83375,10.82097],[79.83375,10.82069],[79.83319,10.82069],[79.83319,10.82042],[79.83264,10.82042],[79.83264,10.82014],[79.83208,10.82014],[79.83208,10.81986],[79.8315,10.81986],[79.83097,10.81986],[79.83097,10.81958],[79.83014,10.81958],[79.83014,10.8193],[79.82903,10.81931],[79.82903,10.81903],[79.82818,10.81903],[79.82818,10.81876],[79.82708,10.81876],[79.82708,10.81847],[79.82542,10.81847],[79.82542,10.81819],[79.82403,10.81819],[79.82403,10.81792],[79.82375,10.81792],[79.82375,10.81764],[79.82403,10.81764],[79.82403,10.81736],[79.82541,10.81736],[79.82541,10.81764],[79.82708,10.81764],[79.82708,10.81792],[79.82819,10.81792],[79.82819,10.81819],[79.82903,10.81819],[79.82903,10.81847],[79.83014,10.81847],[79.83014,10.81876],[79.83097,10.81876],[79.83097,10.81903],[79.8315,10.81903],[79.83208,10.81903],[79.83208,10.81931],[79.83264,10.8193],[79.83264,10.81958],[79.83319,10.81958],[79.83319,10.81986],[79.83375,10.81986],[79.83375,10.82014],[79.83403,10.82014],[79.83403,10.82042],[79.83459,10.82042],[79.83459,10.82069],[79.83514,10.82069],[79.83514,10.82097],[79.83542,10.82097],[79.83542,10.82125],[79.83598,10.82125],[79.83598,10.82153],[79.83625,10.82153],[79.83625,10.82182],[79.83681,10.82181],[79.83681,10.82208],[79.83735,10.82208],[79.83735,10.82236],[79.8382,10.82236],[79.8382,10.82264],[79.8393,10.82264],[79.8393,10.82292],[79.84042,10.82292],[79.84042,10.8232],[79.84153,10.8232],[79.84153,10.82347],[79.84209,10.82347],[79.84209,10.82375],[79.84292,10.82375],[79.84292,10.82403],[79.84348,10.82403],[79.84348,10.82431],[79.84402,10.8243],[79.84402,10.82458],[79.84486,10.82458],[79.84486,10.82486],[79.84541,10.82486],[79.84541,10.82514],[79.84625,10.82514],[79.84625,10.82542],[79.8468,10.82542],[79.84681,10.82556],[79.84681,10.8257],[79.84736,10.8257],[79.84736,10.82597],[79.85152,10.82597],[79.85152,10.82375],[79.85125,10.82375],[79.85125,10.82236],[79.85098,10.82236],[79.85098,10.81986],[79.85125,10.81986],[79.85125,10.8193],[79.85098,10.81931],[79.85098,10.81903],[79.85069,10.81903],[79.85069,10.81792],[79.85098,10.81792],[79.85098,10.81764],[79.85125,10.81764],[79.85125,10.81736],[79.85098,10.81736],[79.85098,10.81708],[79.85125,10.81708],[79.85125,10.81486],[79.85098,10.81486],[79.85098,10.81403],[79.85125,10.81403],[79.85125,10.81377],[79.84329,10.81225],[79.83572,10.81172],[79.83199,10.81137],[79.81976,10.8111],[79.81334,10.81408],[79.81168,10.81577],[79.81368,10.81837],[79.81326,10.82874],[79.81204,10.83282],[79.8082,10.83138],[79.80589,10.82804],[79.80307,10.83369],[79.79668,10.83589],[79.79314,10.83949],[79.79113,10.8457],[79.79228,10.84883],[79.79563,10.84381],[79.79941,10.84468],[79.80338,10.84731],[79.80816,10.84889],[79.80746,10.85269],[79.80346,10.85748],[79.79727,10.85809],[79.78957,10.86175],[79.79179,10.86395],[79.80558,10.86365],[79.81139,10.86443],[79.80898,10.86744],[79.80279,10.87113],[79.79246,10.87],[79.78833,10.87293],[79.78487,10.87355],[79.78027,10.87131],[79.77563,10.87578],[79.77248,10.87325],[79.76698,10.87276],[79.76736,10.87555],[79.77006,10.87798],[79.77493,10.8789],[79.77636,10.88168],[79.77317,10.88956],[79.76122,10.89143],[79.76045,10.88315],[79.75694,10.8801],[79.75186,10.88086],[79.75416,10.88666],[79.7492,10.88942],[79.74795,10.89522],[79.74532,10.89308],[79.74578,10.88724],[79.74303,10.88194],[79.74141,10.88329],[79.7422,10.89055],[79.74181,10.89444],[79.74485,10.89675],[79.74298,10.89936],[79.72688,10.89745],[79.72839,10.90229],[79.72557,10.90359],[79.72591,10.9069],[79.7239,10.90802],[79.72119,10.9052],[79.71959,10.90579],[79.72083,10.9107],[79.70923,10.9132],[79.70863,10.91416],[79.70804,10.9151],[79.71034,10.91741],[79.71043,10.91914],[79.70423,10.91887],[79.70438,10.92104],[79.70848,10.92116],[79.70767,10.92341],[79.70847,10.92671],[79.713,10.92792],[79.71585,10.93051],[79.72022,10.93222],[79.72123,10.93531],[79.71919,10.94054],[79.71555,10.93829],[79.71481,10.93413],[79.70934,10.93558],[79.70435,10.93519],[79.70324,10.93829],[79.70287,10.94562],[79.70392,10.94761],[79.70365,10.95186],[79.7115,10.95227],[79.71546,10.95329],[79.72093,10.9506],[79.72669,10.95235],[79.7317,10.94816],[79.73265,10.94116],[79.7401,10.94365],[79.74554,10.94334],[79.74573,10.94929],[79.74456,10.95447],[79.73992,10.95578],[79.73814,10.95861],[79.73914,10.96146],[79.74131,10.96326],[79.74381,10.96701],[79.73952,10.96609],[79.73819,10.96932],[79.73016,10.97101],[79.73164,10.97529],[79.72987,10.98135],[79.73018,10.98511],[79.7319,10.98704],[79.73721,10.9891],[79.74306,10.98506],[79.74824,10.98153]]]]}},{"type":"Feature","properties":{"ID_0":105,"ISO":"IND","NAME_0":"India","ID_1":27,"NAME_1":"Puducherry","ID_2":403,"NAME_2":"Mahe","NL_NAME_2":null,"VARNAME_2":null,"TYPE_2":"District","ENGTYPE_2":"District","STATE":"Puducherry","DISTRICT":"Mahe"},"geometry":{"type":"Polygon","coordinates":[[[75.2307,12.02414],[75.23106,12.02456],[75.22492,12.03195],[75.22736,12.0443],[75.22367,12.05447],[75.22314,12.06444],[75.22424,12.07438],[75.22226,12.07815],[75.22246,12.08557],[75.22113,12.10095],[75.22306,12.10484],[75.2366,12.11023],[75.24053,12.10926],[75.24345,12.10467],[75.24739,12.10369],[75.25589,12.10858],[75.25986,12.10893],[75.26602,12.10366],[75.27453,12.10026],[75.27782,12.10177],[75.28198,12.10914],[75.28393,12.11498],[75.29277,12.11613],[75.31068,12.12473],[75.30985,12.13205],[75.31116,12.13646],[75.31429,12.1401],[75.32064,12.14352],[75.32516,12.14489],[75.33112,12.14515],[75.33523,12.144],[75.34195,12.13718],[75.34616,12.13861],[75.34785,12.13531],[75.36361,12.13497],[75.36669,12.13538],[75.36826,12.14008],[75.37149,12.14263],[75.37202,12.14647],[75.3746,12.14908],[75.37839,12.14603],[75.38853,12.14629],[75.39393,12.14548],[75.39983,12.1405],[75.40252,12.13684],[75.40218,12.13414],[75.39824,12.12987],[75.39215,12.12634],[75.38309,12.12398],[75.38229,12.12912],[75.37994,12.12639],[75.3793,12.12214],[75.37548,12.12341],[75.36854,12.12126],[75.36592,12.11693],[75.36268,12.11611],[75.3579,12.1129],[75.3553,12.10936],[75.35194,12.10885],[75.33988,12.09825],[75.33598,12.09864],[75.32999,12.10259],[75.32818,12.10728],[75.31963,12.10665],[75.31288,12.10531],[75.30907,12.10266],[75.30965,12.09063],[75.31476,12.08761],[75.30917,12.07844],[75.29917,12.06679],[75.29737,12.06365],[75.29617,12.05924],[75.30067,12.05802],[75.30481,12.05292],[75.30879,12.05379],[75.31167,12.04931],[75.31014,12.04931],[75.31014,12.04903],[75.30986,12.04903],[75.30986,12.04931],[75.30847,12.04931],[75.30847,12.04903],[75.3082,12.04903],[75.3082,12.04875],[75.30791,12.04875],[75.30791,12.04847],[75.30764,12.04847],[75.30764,12.04819],[75.30736,12.04819],[75.30736,12.04708],[75.30764,12.04708],[75.30764,12.04681],[75.30736,12.04682],[75.30736,12.04597],[75.30708,12.04597],[75.30708,12.04514],[75.30681,12.04514],[75.30681,12.04486],[75.30653,12.04486],[75.30653,12.04458],[75.30625,12.04458],[75.30625,12.04403],[75.30597,12.04403],[75.30597,12.04319],[75.30569,12.0432],[75.30569,12.04264],[75.30542,12.04264],[75.30542,12.04208],[75.30514,12.04208],[75.30514,12.04153],[75.30486,12.04153],[75.30486,12.04125],[75.30458,12.04125],[75.30458,12.04014],[75.30431,12.04014],[75.30431,12.03903],[75.30458,12.03903],[75.30458,12.03792],[75.30486,12.03792],[75.30486,12.03736],[75.30514,12.03736],[75.30514,12.03708],[75.30486,12.03708],[75.30486,12.03681],[75.30458,12.03681],[75.30458,12.03708],[75.30403,12.03708],[75.30403,12.03736],[75.30347,12.03736],[75.30347,12.03708],[75.30319,12.03708],[75.30319,12.03681],[75.30292,12.03681],[75.30292,12.03653],[75.30264,12.03653],[75.30264,12.03625],[75.30292,12.03625],[75.30292,12.03569],[75.30319,12.0357],[75.30319,12.03542],[75.30347,12.03542],[75.30347,12.03514],[75.30375,12.03514],[75.30375,12.03403],[75.30347,12.03403],[75.30347,12.03375],[75.30319,12.03375],[75.30319,12.03347],[75.30292,12.03347],[75.30292,12.03319],[75.3018,12.03319],[75.3018,12.03347],[75.30153,12.03347],[75.30153,12.03375],[75.30097,12.03375],[75.30097,12.03347],[75.3007,12.03347],[75.3007,12.03319],[75.30042,12.03319],[75.30042,12.03264],[75.30014,12.03264],[75.30014,12.03152],[75.29986,12.03153],[75.29986,12.03042],[75.29958,12.03042],[75.29958,12.02931],[75.29931,12.02931],[75.29931,12.02819],[75.29958,12.02819],[75.29958,12.02792],[75.29986,12.02792],[75.29986,12.02736],[75.30014,12.02736],[75.30014,12.02708],[75.30042,12.02709],[75.30042,12.02681],[75.3007,12.02681],[75.3007,12.02653],[75.30097,12.02653],[75.30097,12.02597],[75.30125,12.02597],[75.30125,12.02542],[75.30153,12.02542],[75.30153,12.0246],[75.30097,12.02458],[75.30097,12.02486],[75.29986,12.02486],[75.29986,12.02514],[75.29903,12.02514],[75.29903,12.02569],[75.29931,12.02569],[75.29931,12.02625],[75.29903,12.02625],[75.29903,12.02681],[75.29875,12.02681],[75.29875,12.02709],[75.29847,12.02708],[75.29847,12.02764],[75.29819,12.02764],[75.29819,12.02819],[75.29792,12.02819],[75.29792,12.02847],[75.29736,12.02846],[75.29736,12.02875],[75.29708,12.02875],[75.29708,12.02903],[75.29652,12.02903],[75.29652,12.02931],[75.29625,12.0293],[75.29625,12.02986],[75.29597,12.02986],[75.29597,12.03042],[75.29569,12.03042],[75.29569,12.03069],[75.29514,12.03069],[75.29514,12.03097],[75.29486,12.03097],[75.29486,12.03153],[75.29459,12.03152],[75.29459,12.03181],[75.2932,12.03181],[75.2932,12.03152],[75.29292,12.03152],[75.29292,12.03181],[75.29208,12.03181],[75.29208,12.03152],[75.29181,12.03153],[75.29181,12.03069],[75.29153,12.03069],[75.29153,12.03042],[75.29181,12.03042],[75.29181,12.02986],[75.29208,12.02986],[75.29208,12.02958],[75.29236,12.02958],[75.29236,12.0293],[75.29264,12.02931],[75.29264,12.02903],[75.29292,12.02903],[75.29292,12.02846],[75.2932,12.02847],[75.2932,12.02792],[75.29347,12.02792],[75.29347,12.02764],[75.29403,12.02764],[75.29403,12.02792],[75.29542,12.02792],[75.29542,12.02764],[75.2957,12.02764],[75.2957,12.02736],[75.29625,12.02736],[75.29625,12.02708],[75.29681,12.02709],[75.29681,12.02681],[75.29736,12.02681],[75.29736,12.02653],[75.29764,12.02653],[75.29764,12.02597],[75.29736,12.02597],[75.29736,12.02569],[75.29652,12.02569],[75.29652,12.02542],[75.29542,12.02542],[75.29542,12.02514],[75.29486,12.02514],[75.29486,12.02486],[75.29459,12.02486],[75.29459,12.02458],[75.2943,12.02458],[75.2943,12.02375],[75.29403,12.02375],[75.29403,12.02292],[75.29375,12.02292],[75.29375,12.02181],[75.29403,12.02181],[75.29403,12.02125],[75.29459,12.02125],[75.29459,12.02097],[75.29486,12.02097],[75.29486,12.02069],[75.29514,12.02069],[75.29514,12.02042],[75.29542,12.02042],[75.29542,12.02014],[75.2957,12.02014],[75.2957,12.01958],[75.29597,12.01958],[75.29597,12.01903],[75.29625,12.01903],[75.29625,12.01792],[75.29597,12.01792],[75.29597,12.01764],[75.29459,12.01764],[75.29459,12.01792],[75.29403,12.01792],[75.29403,12.01764],[75.2932,12.01764],[75.2932,12.01792],[75.29292,12.01792],[75.29292,12.01847],[75.29264,12.01847],[75.29264,12.01903],[75.29236,12.01903],[75.29236,12.01931],[75.29181,12.01931],[75.29181,12.01958],[75.29125,12.01958],[75.29125,12.02014],[75.29097,12.02014],[75.29097,12.02069],[75.29125,12.02069],[75.29125,12.02125],[75.29153,12.02125],[75.29153,12.02208],[75.29097,12.02208],[75.29097,12.02236],[75.2907,12.02236],[75.2907,12.02265],[75.29041,12.02264],[75.29041,12.02319],[75.2907,12.02319],[75.2907,12.02375],[75.29097,12.02375],[75.29097,12.02403],[75.29125,12.02403],[75.29125,12.02431],[75.29181,12.02431],[75.29181,12.02542],[75.29153,12.02542],[75.29153,12.02597],[75.29125,12.02597],[75.29125,12.02681],[75.29153,12.02681],[75.29153,12.02736],[75.29125,12.02736],[75.29125,12.02764],[75.29097,12.02764],[75.29097,12.02792],[75.28986,12.02792],[75.28986,12.02819],[75.28931,12.02819],[75.28931,12.02847],[75.28902,12.02846],[75.28902,12.02875],[75.28848,12.02875],[75.28848,12.02903],[75.28709,12.02903],[75.28709,12.02931],[75.2868,12.0293],[75.2868,12.02958],[75.28653,12.02958],[75.28653,12.02986],[75.28597,12.02986],[75.28597,12.02958],[75.2857,12.02958],[75.2857,12.0293],[75.28542,12.02931],[75.28542,12.02875],[75.28514,12.02875],[75.28514,12.02819],[75.28486,12.02819],[75.28486,12.02792],[75.2843,12.02792],[75.2843,12.02764],[75.28376,12.02764],[75.28376,12.02681],[75.28403,12.02681],[75.28403,12.02653],[75.28486,12.02653],[75.28486,12.02625],[75.28542,12.02625],[75.28542,12.02597],[75.2857,12.02597],[75.2857,12.02569],[75.28597,12.02569],[75.28597,12.02542],[75.28625,12.02542],[75.28625,12.02486],[75.28653,12.02486],[75.28653,12.02431],[75.28625,12.02431],[75.28625,12.02375],[75.28597,12.02375],[75.28597,12.02403],[75.28542,12.02403],[75.28542,12.02431],[75.28514,12.02431],[75.28514,12.02458],[75.28486,12.02458],[75.28486,12.02486],[75.28431,12.02486],[75.2843,12.02514],[75.28403,12.02514],[75.28403,12.02542],[75.28347,12.02542],[75.28347,12.02569],[75.28042,12.02569],[75.28042,12.02542],[75.27986,12.02542],[75.27986,12.02514],[75.2793,12.02514],[75.2793,12.02486],[75.27792,12.02486],[75.27792,12.02514],[75.27708,12.02514],[75.27708,12.02542],[75.27625,12.02542],[75.27625,12.02569],[75.27486,12.02569],[75.27486,12.02597],[75.27402,12.02597],[75.27402,12.02653],[75.27348,12.02653],[75.27348,12.02681],[75.27319,12.02681],[75.27319,12.02736],[75.27292,12.02736],[75.27292,12.02764],[75.27264,12.02764],[75.27264,12.02819],[75.27292,12.02819],[75.27292,12.02875],[75.27264,12.02875],[75.27264,12.02931],[75.27236,12.0293],[75.27236,12.02958],[75.27097,12.02958],[75.27097,12.0293],[75.27069,12.02931],[75.27069,12.02903],[75.27042,12.02903],[75.27042,12.02875],[75.27014,12.02875],[75.27014,12.02846],[75.27042,12.02847],[75.27042,12.02819],[75.27069,12.02819],[75.27069,12.02792],[75.27097,12.02792],[75.27097,12.02681],[75.27014,12.02681],[75.27014,12.02653],[75.26986,12.02653],[75.26986,12.02625],[75.2693,12.02625],[75.2693,12.02569],[75.26847,12.02569],[75.26847,12.02542],[75.26764,12.02542],[75.26764,12.02486],[75.26736,12.02486],[75.26736,12.02403],[75.26708,12.02403],[75.26708,12.02319],[75.26653,12.02319],[75.26653,12.02264],[75.26625,12.02265],[75.26625,12.02208],[75.26598,12.02208],[75.26598,12.02153],[75.26569,12.02153],[75.26569,12.02097],[75.26542,12.02097],[75.26542,12.02042],[75.26514,12.02042],[75.26514,12.01986],[75.26486,12.01986],[75.26486,12.01931],[75.26458,12.01931],[75.26458,12.01847],[75.26431,12.01847],[75.26431,12.01764],[75.26403,12.01764],[75.26403,12.01708],[75.26375,12.01708],[75.26375,12.01597],[75.26347,12.01597],[75.26347,12.01458],[75.26319,12.01458],[75.26319,12.01347],[75.26292,12.01347],[75.26292,12.01208],[75.26264,12.01208],[75.26264,12.00903],[75.26236,12.00903],[75.26236,12.00625],[75.26263,12.00625],[75.26263,12.00542],[75.26292,12.00542],[75.26292,12.00431],[75.26319,12.00431],[75.26319,12.00347],[75.26347,12.00347],[75.26347,12.00292],[75.26375,12.00292],[75.26375,12.00264],[75.26403,12.00264],[75.26403,12.00236],[75.26431,12.00236],[75.26431,12.00208],[75.26458,12.00208],[75.26458,12.0018],[75.26486,12.00181],[75.26486,12.00152],[75.26514,12.00153],[75.26514,12.00125],[75.26569,12.00125],[75.26569,12.00097],[75.26598,12.00097],[75.26598,12.00069],[75.26653,12.00069],[75.26653,12.00042],[75.2682,12.00042],[75.2682,12.00014],[75.26876,12.00014],[75.26876,11.99986],[75.2693,11.99986],[75.2693,11.99958],[75.27014,11.99958],[75.27014,11.99931],[75.27069,11.99931],[75.27069,11.99875],[75.27097,11.99875],[75.27097,11.99848],[75.27153,11.99848],[75.27153,11.99819],[75.27209,11.99819],[75.27209,11.99792],[75.27236,11.99792],[75.27236,11.99736],[75.27292,11.99736],[75.27292,11.99681],[75.27319,11.99681],[75.27319,11.99625],[75.27375,11.99625],[75.27375,11.99597],[75.27431,11.99597],[75.27431,11.99569],[75.27458,11.99569],[75.27458,11.99514],[75.27486,11.99514],[75.27486,11.99486],[75.27514,11.99486],[75.27514,11.99458],[75.2757,11.99458],[75.2757,11.99375],[75.27597,11.99375],[75.27597,11.99347],[75.27625,11.99347],[75.27625,11.99319],[75.27653,11.99319],[75.27653,11.99292],[75.2768,11.99292],[75.2768,11.99235],[75.27736,11.99236],[75.27736,11.99181],[75.27763,11.99181],[75.27763,11.99153],[75.27792,11.99153],[75.27792,11.99125],[75.27819,11.99125],[75.2782,11.99069],[75.27847,11.99069],[75.27847,11.99041],[75.27875,11.99042],[75.27875,11.99014],[75.27903,11.99014],[75.27903,11.98986],[75.2793,11.98986],[75.2793,11.98931],[75.27959,11.98931],[75.27959,11.98903],[75.28014,11.98903],[75.28014,11.98875],[75.28042,11.98875],[75.28042,11.98819],[75.28069,11.98819],[75.28069,11.98792],[75.28098,11.98792],[75.28098,11.98764],[75.28125,11.98764],[75.28125,11.98736],[75.28152,11.98736],[75.28152,11.98708],[75.28181,11.98708],[75.28181,11.9868],[75.28208,11.98681],[75.28208,11.98625],[75.28236,11.98625],[75.28236,11.98569],[75.28264,11.98569],[75.28264,11.98542],[75.28291,11.98542],[75.28291,11.98514],[75.2832,11.98514],[75.2832,11.98403],[75.28347,11.98403],[75.28347,11.98348],[75.28376,11.98348],[75.28376,11.98319],[75.28403,11.9832],[75.28403,11.98264],[75.2843,11.98264],[75.2843,11.98208],[75.28458,11.98208],[75.28458,11.9818],[75.2843,11.98181],[75.2843,11.98153],[75.28458,11.98153],[75.28458,11.98097],[75.28486,11.98097],[75.28486,11.98042],[75.28514,11.98042],[75.28514,11.97958],[75.28542,11.97958],[75.28542,11.97875],[75.2857,11.97875],[75.2857,11.97792],[75.28597,11.97792],[75.28597,11.97708],[75.28615,11.97708],[75.28653,11.97708],[75.28653,11.97625],[75.2868,11.97625],[75.2868,11.97597],[75.28709,11.97597],[75.28709,11.97569],[75.28736,11.97569],[75.28736,11.97514],[75.28764,11.97514],[75.28764,11.97486],[75.28792,11.97486],[75.28792,11.97403],[75.28848,11.97403],[75.28848,11.97347],[75.28875,11.97347],[75.28875,11.97319],[75.28848,11.97319],[75.28848,11.97264],[75.28875,11.97264],[75.28875,11.97236],[75.28902,11.97236],[75.28902,11.97125],[75.28931,11.97125],[75.28931,11.97097],[75.28958,11.97097],[75.28958,11.97042],[75.28986,11.97042],[75.28986,11.96986],[75.29014,11.96986],[75.29014,11.96931],[75.29041,11.96931],[75.29041,11.96903],[75.2907,11.96903],[75.2907,11.96818],[75.29097,11.96819],[75.29097,11.96792],[75.29125,11.96792],[75.29125,11.96708],[75.29181,11.96708],[75.29181,11.96653],[75.29208,11.96653],[75.29208,11.96625],[75.29236,11.96625],[75.29236,11.96569],[75.29264,11.96569],[75.29264,11.96542],[75.29292,11.96542],[75.29292,11.96514],[75.2932,11.96514],[75.2932,11.96486],[75.29375,11.96486],[75.29375,11.96431],[75.29403,11.96431],[75.29403,11.96375],[75.2943,11.96375],[75.2943,11.96347],[75.29486,11.96347],[75.29486,11.9632],[75.29514,11.9632],[75.29514,11.96292],[75.29542,11.96292],[75.29542,11.96264],[75.2957,11.96264],[75.29569,11.96236],[75.29597,11.96237],[75.29597,11.96208],[75.29625,11.96208],[75.29625,11.96153],[75.29652,11.96153],[75.29652,11.96097],[75.29708,11.96097],[75.29708,11.96069],[75.29736,11.96069],[75.29736,11.96042],[75.29764,11.96042],[75.29764,11.96014],[75.29792,11.96014],[75.29792,11.95986],[75.29847,11.95986],[75.29847,11.95958],[75.29875,11.95958],[75.29875,11.9593],[75.29903,11.95931],[75.29903,11.95903],[75.29958,11.95903],[75.29958,11.95847],[75.29986,11.95847],[75.29986,11.95819],[75.30014,11.95819],[75.30014,11.95792],[75.30042,11.95792],[75.30042,11.95764],[75.3007,11.95764],[75.3007,11.95736],[75.30097,11.95736],[75.30097,11.95708],[75.30125,11.95708],[75.30125,11.95681],[75.30153,11.95681],[75.30153,11.95653],[75.3018,11.95653],[75.3018,11.95624],[75.30209,11.95625],[75.30209,11.9557],[75.30236,11.9557],[75.30236,11.95542],[75.30264,11.95542],[75.30264,11.95486],[75.30292,11.95486],[75.30292,11.95431],[75.30319,11.95431],[75.30319,11.95403],[75.30347,11.95403],[75.30347,11.95347],[75.30375,11.95347],[75.30375,11.95319],[75.30403,11.95319],[75.30403,11.95264],[75.30431,11.95264],[75.30431,11.95236],[75.30458,11.95236],[75.30458,11.95181],[75.30486,11.95181],[75.30486,11.95125],[75.30458,11.95125],[75.30458,11.95069],[75.30431,11.9507],[75.30431,11.95042],[75.30403,11.95043],[75.30403,11.94986],[75.30375,11.94986],[75.30375,11.94958],[75.30319,11.94958],[75.30319,11.9493],[75.30292,11.94931],[75.30292,11.94903],[75.30236,11.94903],[75.30236,11.94875],[75.30209,11.94875],[75.30209,11.94847],[75.30097,11.94847],[75.30097,11.9482],[75.29986,11.9482],[75.29986,11.94792],[75.29887,11.94792],[75.29875,11.94792],[75.29875,11.9482],[75.29847,11.9482],[75.29847,11.94847],[75.29819,11.94847],[75.29819,11.94903],[75.29736,11.94903],[75.29736,11.94875],[75.29708,11.94875],[75.29708,11.94847],[75.29681,11.94847],[75.29681,11.9482],[75.29625,11.9482],[75.29625,11.94792],[75.29597,11.94792],[75.29597,11.9482],[75.29569,11.9482],[75.29569,11.94847],[75.29542,11.94847],[75.29542,11.94875],[75.29514,11.94875],[75.29514,11.94931],[75.29486,11.9493],[75.29486,11.94958],[75.29459,11.94958],[75.29459,11.94986],[75.2943,11.94986],[75.2943,11.9507],[75.29375,11.9507],[75.29375,11.95097],[75.29347,11.95097],[75.29347,11.95125],[75.29292,11.95125],[75.29292,11.95153],[75.29264,11.95153],[75.29264,11.95181],[75.29236,11.95181],[75.29236,11.95208],[75.29208,11.95208],[75.29208,11.95236],[75.29181,11.95236],[75.29181,11.95292],[75.29125,11.95292],[75.29125,11.95319],[75.29097,11.95319],[75.29097,11.95347],[75.2907,11.95347],[75.2907,11.95375],[75.29014,11.95375],[75.29014,11.95403],[75.28957,11.95403],[75.28957,11.95431],[75.28931,11.95431],[75.28931,11.95486],[75.28902,11.95486],[75.28902,11.95514],[75.28875,11.95514],[75.28875,11.95542],[75.28848,11.95542],[75.28848,11.9557],[75.28819,11.9557],[75.28819,11.95597],[75.28792,11.95597],[75.28792,11.95625],[75.28764,11.95624],[75.28764,11.95681],[75.28736,11.95681],[75.28736,11.95736],[75.28709,11.95736],[75.28709,11.95764],[75.2868,11.95764],[75.2868,11.95819],[75.28653,11.95819],[75.28653,11.95847],[75.28625,11.95847],[75.28625,11.95903],[75.28597,11.95903],[75.28597,11.95958],[75.2857,11.95958],[75.2857,11.95986],[75.28542,11.95986],[75.28542,11.96014],[75.28514,11.96014],[75.28514,11.96069],[75.28458,11.96069],[75.28458,11.96125],[75.28431,11.96125],[75.2843,11.96181],[75.28403,11.96181],[75.28403,11.96237],[75.28375,11.96236],[75.28376,11.96264],[75.28347,11.96264],[75.28347,11.96292],[75.2832,11.96292],[75.2832,11.96347],[75.28291,11.96347],[75.28291,11.96375],[75.28264,11.96375],[75.28264,11.96403],[75.28236,11.96403],[75.28236,11.96458],[75.28208,11.96458],[75.28208,11.96514],[75.28152,11.96514],[75.28152,11.96597],[75.28098,11.96597],[75.28098,11.96653],[75.2807,11.96653],[75.2807,11.96681],[75.28042,11.96681],[75.28042,11.96736],[75.28014,11.96736],[75.28014,11.96792],[75.27986,11.96792],[75.27986,11.96903],[75.27959,11.96903],[75.27959,11.96958],[75.27903,11.96958],[75.27903,11.96986],[75.27875,11.96986],[75.27875,11.97014],[75.2782,11.97014],[75.2782,11.97069],[75.27792,11.97069],[75.27792,11.97097],[75.27763,11.97097],[75.27763,11.97154],[75.27736,11.97153],[75.27736,11.97208],[75.27708,11.97208],[75.27708,11.97236],[75.2768,11.97236],[75.2768,11.97292],[75.27625,11.97292],[75.27625,11.97319],[75.27597,11.97319],[75.27597,11.97375],[75.2757,11.97375],[75.2757,11.97431],[75.27541,11.9743],[75.27541,11.97486],[75.27514,11.97486],[75.27514,11.97514],[75.27486,11.97514],[75.27486,11.97542],[75.27458,11.97542],[75.27458,11.97569],[75.27431,11.97569],[75.27431,11.97625],[75.27402,11.97625],[75.27402,11.97653],[75.27375,11.97653],[75.27375,11.97708],[75.27348,11.97708],[75.27348,11.97764],[75.27319,11.97764],[75.27319,11.97792],[75.27264,11.97792],[75.27264,11.97847],[75.27236,11.97847],[75.27236,11.97903],[75.2718,11.97903],[75.2718,11.97958],[75.27153,11.97958],[75.27153,11.97986],[75.27125,11.97986],[75.27125,11.98042],[75.27097,11.98042],[75.27097,11.98097],[75.27069,11.98097],[75.27069,11.98125],[75.27042,11.98125],[75.27042,11.98181],[75.27014,11.9818],[75.27014,11.98208],[75.26986,11.98208],[75.26986,11.98236],[75.2693,11.98236],[75.2693,11.98264],[75.26903,11.98264],[75.26903,11.9832],[75.26875,11.9832],[75.26876,11.98375],[75.26847,11.98375],[75.26847,11.98431],[75.2682,11.98431],[75.2682,11.98458],[75.26764,11.98458],[75.26764,11.98514],[75.26736,11.98514],[75.26736,11.98542],[75.26708,11.98542],[75.26708,11.98597],[75.26681,11.98597],[75.26681,11.98625],[75.26653,11.98625],[75.26653,11.98654],[75.26625,11.98654],[75.26625,11.98681],[75.26598,11.9868],[75.26598,11.98708],[75.26569,11.98708],[75.26569,11.98736],[75.26514,11.98736],[75.26514,11.98792],[75.26486,11.98792],[75.26486,11.98847],[75.26431,11.98847],[75.26431,11.98875],[75.26403,11.98875],[75.26403,11.98931],[75.26375,11.98931],[75.26375,11.98986],[75.26347,11.98986],[75.26347,11.99014],[75.26292,11.99014],[75.26292,11.99069],[75.26236,11.99069],[75.26236,11.99125],[75.26208,11.99125],[75.26208,11.99181],[75.2618,11.99181],[75.2618,11.99208],[75.26153,11.99208],[75.26153,11.99264],[75.26125,11.99264],[75.26125,11.99292],[75.26097,11.99292],[75.26097,11.99319],[75.2607,11.99319],[75.2607,11.99347],[75.26041,11.99347],[75.26041,11.99375],[75.26014,11.99375],[75.26014,11.99431],[75.25959,11.99431],[75.25959,11.99514],[75.25931,11.99514],[75.25931,11.99542],[75.25903,11.99542],[75.25903,11.99569],[75.25875,11.99569],[75.25875,11.99625],[75.25847,11.99625],[75.25847,11.99653],[75.25819,11.99653],[75.25819,11.99708],[75.25764,11.99708],[75.25764,11.99764],[75.25736,11.99764],[75.25736,11.99792],[75.25708,11.99792],[75.25708,11.99848],[75.25682,11.99848],[75.25682,11.99875],[75.25653,11.99875],[75.25653,11.99931],[75.25625,11.99931],[75.25625,11.99958],[75.25597,11.99958],[75.25597,12.00014],[75.25542,12.00014],[75.25542,12.00042],[75.25514,12.00042],[75.25514,12.00069],[75.25486,12.00069],[75.25486,12.00125],[75.2543,12.00125],[75.2543,12.00181],[75.25403,12.0018],[75.25403,12.00208],[75.25375,12.00208],[75.25375,12.00264],[75.2532,12.00264],[75.2532,12.00292],[75.25291,12.00292],[75.25291,12.00347],[75.25264,12.00347],[75.25264,12.00403],[75.25208,12.00403],[75.25208,12.00458],[75.25181,12.00458],[75.25181,12.00486],[75.25153,12.00486],[75.25153,12.00514],[75.25125,12.00514],[75.25125,12.0057],[75.25097,12.00569],[75.25097,12.00625],[75.25042,12.00625],[75.25042,12.00653],[75.24986,12.00653],[75.24986,12.00708],[75.24958,12.00708],[75.24958,12.00736],[75.24947,12.00736],[75.24931,12.00736],[75.24931,12.00792],[75.24875,12.00792],[75.24875,12.00819],[75.24847,12.0082],[75.24847,12.00875],[75.24819,12.00875],[75.24819,12.00903],[75.24765,12.00903],[75.24765,12.00931],[75.24736,12.00931],[75.24736,12.00986],[75.24709,12.00986],[75.24709,12.01042],[75.2468,12.01042],[75.2468,12.0107],[75.24625,12.0107],[75.24625,12.01097],[75.2457,12.01097],[75.2457,12.01153],[75.24541,12.01153],[75.24541,12.01181],[75.24486,12.0118],[75.24486,12.01236],[75.24431,12.01236],[75.24431,12.01264],[75.24403,12.01264],[75.24403,12.01292],[75.24375,12.01292],[75.24375,12.01319],[75.24347,12.01319],[75.24347,12.01347],[75.24319,12.01346],[75.24319,12.01375],[75.24292,12.01375],[75.24292,12.01431],[75.24236,12.01431],[75.24236,12.01458],[75.24181,12.01458],[75.24181,12.01486],[75.24125,12.01486],[75.24125,12.01542],[75.24069,12.01542],[75.24069,12.0157],[75.24042,12.0157],[75.24042,12.01597],[75.23986,12.01597],[75.23986,12.01625],[75.23959,12.01625],[75.23959,12.01653],[75.2393,12.01652],[75.2393,12.01681],[75.23875,12.01681],[75.23875,12.01708],[75.23851,12.01708],[75.2382,12.01708],[75.2382,12.01719],[75.2382,12.01736],[75.23792,12.01736],[75.23792,12.01764],[75.23736,12.01764],[75.23736,12.01792],[75.23681,12.01792],[75.23681,12.01819],[75.23653,12.01819],[75.23653,12.01847],[75.23597,12.01847],[75.23597,12.01875],[75.23569,12.01875],[75.23569,12.01903],[75.23514,12.01903],[75.23514,12.01931],[75.23431,12.01931],[75.23431,12.01958],[75.23375,12.01958],[75.23375,12.01986],[75.23347,12.01986],[75.23347,12.02014],[75.23319,12.02014],[75.23319,12.02042],[75.23292,12.02042],[75.23292,12.02069],[75.23264,12.02069],[75.23264,12.02097],[75.23236,12.02097],[75.23236,12.02265],[75.23209,12.02265],[75.23209,12.02292],[75.23236,12.02292],[75.23236,12.02347],[75.23209,12.02347],[75.23209,12.02375],[75.2318,12.02375],[75.2318,12.02403],[75.2307,12.02403],[75.2307,12.02414]]]}},{"type":"Feature","properties":{"ID_0":105,"ISO":"IND","NAME_0":"India","ID_1":27,"NAME_1":"Puducherry","ID_2":404,"NAME_2":"Puducherry","NL_NAME_2":null,"VARNAME_2":"Pondicherry|Puduchcheri|Pondichry","TYPE_2":"District","ENGTYPE_2":"District","STATE":"Puducherry","DISTRICT":"Puducherry"},"geometry":{"type":"Polygon","coordinates":[[[79.83764,11.94055],[79.83764,11.93986],[79.83736,11.93986],[79.83736,11.93875],[79.83708,11.93875],[79.83708,11.93625],[79.83681,11.93625],[79.83681,11.93543],[79.83653,11.93543],[79.83653,11.93347],[79.83625,11.93347],[79.83625,11.93319],[79.83652,11.93319],[79.83652,11.93292],[79.83625,11.93292],[79.83625,11.93125],[79.83598,11.93125],[79.83598,11.92958],[79.83625,11.92958],[79.83625,11.92931],[79.83598,11.92931],[79.83598,11.92903],[79.83569,11.92903],[79.83569,11.92819],[79.83542,11.92819],[79.83542,11.92792],[79.83514,11.92792],[79.83514,11.92764],[79.83542,11.92764],[79.83542,11.92736],[79.83514,11.92736],[79.83514,11.92625],[79.83486,11.92626],[79.83486,11.92458],[79.83459,11.92458],[79.83459,11.92375],[79.83431,11.92375],[79.83431,11.92292],[79.83403,11.92292],[79.83403,11.92264],[79.83375,11.92264],[79.83375,11.92181],[79.83347,11.92181],[79.83347,11.91986],[79.83319,11.91986],[79.83319,11.91958],[79.83292,11.91958],[79.83292,11.91875],[79.83264,11.91875],[79.83264,11.91764],[79.83236,11.91764],[79.83236,11.91681],[79.83208,11.91681],[79.83208,11.91625],[79.8318,11.91625],[79.8318,11.91597],[79.83153,11.91597],[79.83153,11.91569],[79.83125,11.91569],[79.83125,11.91542],[79.83097,11.91542],[79.83097,11.91347],[79.8307,11.91347],[79.8307,11.91319],[79.83041,11.91319],[79.83041,11.91264],[79.83014,11.91264],[79.83014,11.91181],[79.82986,11.91181],[79.82986,11.91069],[79.82958,11.91069],[79.82958,11.91042],[79.82986,11.91042],[79.82986,11.90958],[79.83014,11.90958],[79.83014,11.90792],[79.8307,11.90792],[79.8307,11.90764],[79.83097,11.90764],[79.83097,11.90708],[79.8307,11.90708],[79.8307,11.90681],[79.82986,11.90681],[79.82986,11.90653],[79.82875,11.90653],[79.82875,11.90681],[79.82819,11.90681],[79.82819,11.90708],[79.82792,11.90708],[79.82792,11.90736],[79.82764,11.90736],[79.82764,11.90792],[79.82736,11.90792],[79.82736,11.90847],[79.82708,11.90847],[79.82708,11.90903],[79.82736,11.90903],[79.82736,11.91042],[79.82764,11.91042],[79.82764,11.91432],[79.82736,11.91432],[79.82736,11.91486],[79.82708,11.91486],[79.82708,11.91514],[79.82681,11.91514],[79.82681,11.91542],[79.82653,11.91542],[79.82653,11.91569],[79.82625,11.91569],[79.82625,11.91597],[79.82569,11.91597],[79.82569,11.91625],[79.82541,11.91625],[79.82541,11.91653],[79.8243,11.91653],[79.8243,11.91597],[79.82458,11.91597],[79.82458,11.91542],[79.82486,11.91542],[79.82486,11.91486],[79.82514,11.91486],[79.82514,11.91458],[79.82569,11.91458],[79.82569,11.91431],[79.82597,11.91432],[79.82597,11.91403],[79.82625,11.91403],[79.82625,11.91347],[79.82653,11.91347],[79.82653,11.91264],[79.82625,11.91264],[79.82625,11.91208],[79.82653,11.91208],[79.82653,11.90958],[79.82625,11.90958],[79.82625,11.90903],[79.82597,11.90903],[79.82597,11.90792],[79.82569,11.90792],[79.82569,11.90764],[79.82514,11.90764],[79.82514,11.90903],[79.82486,11.90903],[79.82486,11.90931],[79.82459,11.90931],[79.82459,11.90875],[79.82291,11.90875],[79.82291,11.90903],[79.82264,11.90903],[79.82264,11.90931],[79.82237,11.90931],[79.82237,11.90903],[79.82181,11.90903],[79.82181,11.90875],[79.82153,11.90875],[79.82153,11.90847],[79.82125,11.90847],[79.82125,11.9082],[79.82014,11.9082],[79.82014,11.90792],[79.81986,11.90792],[79.81986,11.90764],[79.81958,11.90764],[79.81958,11.90736],[79.81931,11.90736],[79.81931,11.90708],[79.81903,11.90708],[79.81903,11.90681],[79.81875,11.90681],[79.81875,11.90625],[79.81847,11.90625],[79.81847,11.90431],[79.81819,11.90431],[79.81819,11.90207],[79.81792,11.90208],[79.81792,11.90153],[79.81819,11.90153],[79.81819,11.90181],[79.81875,11.90181],[79.81875,11.90236],[79.81903,11.90236],[79.81903,11.90264],[79.81931,11.90264],[79.81931,11.90375],[79.81958,11.90375],[79.81958,11.90514],[79.81986,11.90514],[79.81986,11.90569],[79.82014,11.90569],[79.82014,11.90625],[79.82042,11.90625],[79.82042,11.90653],[79.82069,11.90653],[79.82069,11.90681],[79.82125,11.90681],[79.82125,11.90708],[79.82153,11.90708],[79.82153,11.90736],[79.82375,11.90736],[79.82375,11.90708],[79.82403,11.90708],[79.82403,11.90681],[79.82459,11.90681],[79.82459,11.90625],[79.82653,11.90625],[79.82653,11.90597],[79.82736,11.90597],[79.82736,11.90569],[79.82931,11.90569],[79.82931,11.90542],[79.82958,11.90542],[79.82958,11.90486],[79.82986,11.90486],[79.82986,11.90458],[79.83041,11.90458],[79.83041,11.90403],[79.83097,11.90403],[79.83097,11.90486],[79.83125,11.90486],[79.83125,11.90514],[79.83154,11.90513],[79.83154,11.90542],[79.83208,11.90542],[79.83208,11.90403],[79.8318,11.90403],[79.8318,11.90375],[79.83125,11.90375],[79.83125,11.90347],[79.82848,11.90347],[79.82848,11.90292],[79.82818,11.90292],[79.82818,11.90207],[79.82792,11.90208],[79.82792,11.90097],[79.82764,11.90097],[79.82764,11.90042],[79.82736,11.90042],[79.82736,11.89847],[79.82792,11.89847],[79.82792,11.89681],[79.82764,11.89681],[79.82764,11.89625],[79.82736,11.89625],[79.82736,11.89597],[79.82708,11.89597],[79.82708,11.89486],[79.82736,11.89486],[79.82736,11.89458],[79.82708,11.89458],[79.82708,11.8943],[79.82681,11.89431],[79.82681,11.89403],[79.82653,11.89403],[79.82653,11.89375],[79.82625,11.89375],[79.82625,11.89097],[79.82653,11.89097],[79.82653,11.89069],[79.82625,11.89069],[79.82625,11.88958],[79.82597,11.88958],[79.82597,11.88931],[79.82569,11.88931],[79.82569,11.88875],[79.82541,11.88875],[79.82541,11.88819],[79.82514,11.88819],[79.82514,11.88681],[79.82486,11.88681],[79.82486,11.88625],[79.82459,11.88625],[79.82459,11.88569],[79.8243,11.88569],[79.8243,11.88486],[79.82459,11.88486],[79.82458,11.88375],[79.8243,11.88375],[79.8243,11.8832],[79.82403,11.88319],[79.82403,11.88292],[79.82375,11.88292],[79.82375,11.88181],[79.82291,11.88181],[79.82291,11.88153],[79.82208,11.88153],[79.82208,11.88125],[79.82181,11.88125],[79.82181,11.88096],[79.82125,11.88097],[79.82125,11.88069],[79.82014,11.88069],[79.82014,11.88042],[79.81958,11.88042],[79.81958,11.88014],[79.81931,11.88014],[79.81931,11.87986],[79.81903,11.87986],[79.81903,11.87958],[79.81847,11.87958],[79.81847,11.87986],[79.81792,11.87986],[79.81792,11.88014],[79.81624,11.88014],[79.81624,11.88042],[79.81514,11.88042],[79.81514,11.88069],[79.81486,11.88069],[79.81486,11.88042],[79.81431,11.88042],[79.81431,11.88069],[79.81403,11.88069],[79.81403,11.88097],[79.81347,11.88096],[79.81347,11.88125],[79.81318,11.88125],[79.81318,11.88153],[79.81208,11.88153],[79.81208,11.88181],[79.81097,11.88181],[79.81097,11.88208],[79.81042,11.88208],[79.81042,11.88236],[79.80791,11.88236],[79.80791,11.88264],[79.80762,11.88264],[79.80737,11.88264],[79.80737,11.88292],[79.80653,11.88292],[79.80653,11.88264],[79.80625,11.88264],[79.80625,11.88292],[79.80486,11.88292],[79.80486,11.88319],[79.80347,11.8832],[79.80347,11.88347],[79.80209,11.88347],[79.80209,11.88375],[79.80097,11.88375],[79.80097,11.88347],[79.80042,11.88347],[79.80042,11.8832],[79.80014,11.88319],[79.80014,11.88292],[79.79958,11.88292],[79.79958,11.88264],[79.79792,11.88264],[79.79792,11.88236],[79.79736,11.88236],[79.79736,11.88208],[79.79681,11.88208],[79.79681,11.88181],[79.79625,11.88181],[79.79625,11.88153],[79.79569,11.88153],[79.79569,11.88125],[79.79542,11.88125],[79.79542,11.88097],[79.79375,11.88097],[79.79375,11.88069],[79.79347,11.88069],[79.79347,11.88014],[79.7932,11.88014],[79.7932,11.87986],[79.79347,11.87986],[79.79347,11.87958],[79.7932,11.87958],[79.7932,11.87903],[79.79208,11.87903],[79.79208,11.87875],[79.7907,11.87875],[79.7907,11.87847],[79.79153,11.87847],[79.79153,11.87819],[79.79181,11.87819],[79.79181,11.87792],[79.79375,11.87792],[79.79375,11.87764],[79.79459,11.87764],[79.79459,11.87792],[79.79486,11.87792],[79.79486,11.87819],[79.79542,11.87819],[79.79542,11.87847],[79.79569,11.87847],[79.79569,11.87903],[79.79625,11.87903],[79.79625,11.87931],[79.79652,11.87931],[79.79652,11.87986],[79.79681,11.87986],[79.79681,11.88014],[79.79736,11.88014],[79.79736,11.88042],[79.79764,11.88042],[79.79764,11.88069],[79.79847,11.88069],[79.79847,11.88097],[79.79875,11.88096],[79.79875,11.88125],[79.79903,11.88125],[79.79903,11.88153],[79.79931,11.88153],[79.79931,11.88181],[79.79958,11.88181],[79.79958,11.88153],[79.8007,11.88153],[79.8007,11.88096],[79.80042,11.88097],[79.80042,11.88069],[79.80097,11.88069],[79.80097,11.88042],[79.8018,11.88042],[79.8018,11.88069],[79.80264,11.88069],[79.80264,11.88042],[79.80347,11.88042],[79.80347,11.88069],[79.80375,11.88069],[79.80375,11.88153],[79.80403,11.88153],[79.80403,11.88181],[79.80458,11.88181],[79.80458,11.88208],[79.80486,11.88208],[79.80486,11.88181],[79.80514,11.88181],[79.80514,11.88208],[79.80569,11.88208],[79.80569,11.88181],[79.80653,11.88181],[79.80653,11.88153],[79.80681,11.88153],[79.80681,11.88125],[79.80708,11.88125],[79.80708,11.88096],[79.80724,11.88097],[79.80736,11.88097],[79.80736,11.88069],[79.80847,11.88069],[79.80847,11.88042],[79.80959,11.88042],[79.80959,11.88014],[79.80986,11.88014],[79.80986,11.87986],[79.81043,11.87986],[79.81042,11.87958],[79.81097,11.87958],[79.81097,11.8793],[79.81153,11.87931],[79.81153,11.87903],[79.81208,11.87903],[79.81208,11.87847],[79.81236,11.87847],[79.81236,11.87819],[79.81292,11.87819],[79.81292,11.87792],[79.81318,11.87792],[79.81318,11.87764],[79.81486,11.87764],[79.81486,11.87736],[79.81514,11.87736],[79.81514,11.87708],[79.81541,11.87708],[79.81541,11.87681],[79.81597,11.87681],[79.81597,11.87653],[79.81653,11.87653],[79.81653,11.87625],[79.8168,11.87625],[79.8168,11.87597],[79.81736,11.87597],[79.81736,11.87542],[79.81764,11.87542],[79.81764,11.87515],[79.81819,11.87515],[79.81819,11.87458],[79.81903,11.87458],[79.81903,11.8743],[79.81958,11.87431],[79.81958,11.87347],[79.81931,11.87347],[79.81931,11.87319],[79.81847,11.87319],[79.81847,11.87347],[79.81792,11.87347],[79.81792,11.87375],[79.8168,11.87375],[79.8168,11.87347],[79.81486,11.87347],[79.81486,11.87375],[79.81375,11.87375],[79.81375,11.87403],[79.81264,11.87403],[79.81264,11.87431],[79.81236,11.8743],[79.81236,11.87458],[79.81097,11.87458],[79.81097,11.87486],[79.81014,11.87486],[79.81014,11.87515],[79.8093,11.87515],[79.8093,11.87542],[79.80875,11.87542],[79.80875,11.8757],[79.80764,11.8757],[79.80764,11.87542],[79.80681,11.87542],[79.80681,11.87515],[79.80625,11.87515],[79.80625,11.87486],[79.80582,11.87486],[79.80542,11.87486],[79.80542,11.87458],[79.80458,11.87458],[79.80458,11.8743],[79.80514,11.87431],[79.80514,11.87403],[79.80542,11.87403],[79.80542,11.87431],[79.80569,11.87431],[79.80653,11.8743],[79.80653,11.87458],[79.80737,11.87458],[79.80737,11.87486],[79.80791,11.87486],[79.80791,11.87458],[79.80959,11.87458],[79.80959,11.8743],[79.81014,11.87431],[79.81014,11.87403],[79.81043,11.87403],[79.81043,11.87347],[79.81069,11.87347],[79.81069,11.87319],[79.81097,11.87319],[79.81097,11.87292],[79.81153,11.87292],[79.81153,11.87264],[79.81208,11.87264],[79.81208,11.87236],[79.81292,11.87236],[79.81292,11.87208],[79.81431,11.87209],[79.81431,11.87181],[79.81458,11.87181],[79.81458,11.87209],[79.81486,11.87209],[79.81486,11.87181],[79.81597,11.87181],[79.81597,11.87153],[79.81624,11.87153],[79.81624,11.87125],[79.81653,11.87125],[79.81653,11.87097],[79.81764,11.87097],[79.81764,11.87125],[79.81847,11.87125],[79.81847,11.87097],[79.81875,11.87097],[79.81875,11.8707],[79.81903,11.8707],[79.81903,11.87014],[79.81931,11.87014],[79.81931,11.86986],[79.81958,11.86986],[79.81958,11.86958],[79.81986,11.86958],[79.81986,11.8693],[79.81958,11.86931],[79.81958,11.86819],[79.81931,11.86819],[79.81931,11.86736],[79.81903,11.86736],[79.81903,11.86681],[79.81875,11.86681],[79.81875,11.86625],[79.81847,11.86625],[79.81847,11.86569],[79.81819,11.86569],[79.81819,11.86403],[79.81764,11.86403],[79.81764,11.86347],[79.81736,11.86347],[79.81736,11.86319],[79.81709,11.86319],[79.81709,11.86264],[79.8168,11.86264],[79.8168,11.86181],[79.81653,11.86181],[79.81653,11.86125],[79.81624,11.86125],[79.81624,11.86042],[79.81597,11.86042],[79.81597,11.85958],[79.81625,11.85958],[79.81625,11.85931],[79.81597,11.85931],[79.81597,11.85875],[79.8157,11.85875],[79.8157,11.85819],[79.81541,11.85819],[79.81541,11.85736],[79.81514,11.85736],[79.81514,11.85653],[79.81486,11.85653],[79.81486,11.85569],[79.81458,11.8557],[79.81458,11.85542],[79.81431,11.85542],[79.81431,11.85514],[79.81403,11.85514],[79.81403,11.85458],[79.81375,11.85458],[79.81375,11.85431],[79.81347,11.85431],[79.81347,11.85347],[79.81292,11.85347],[79.81292,11.85319],[79.81264,11.85319],[79.81264,11.85264],[79.81236,11.85264],[79.81236,11.85181],[79.81208,11.85181],[79.81208,11.85098],[79.81181,11.85098],[79.81181,11.85042],[79.81153,11.85042],[79.81153,11.84958],[79.81125,11.84958],[79.81125,11.84875],[79.81097,11.84875],[79.81097,11.84819],[79.81069,11.8482],[79.81069,11.84736],[79.81042,11.84736],[79.81042,11.84653],[79.81014,11.84653],[79.81014,11.84514],[79.81043,11.84514],[79.81043,11.84431],[79.81014,11.84431],[79.81014,11.84403],[79.80986,11.84403],[79.80986,11.84375],[79.80959,11.84375],[79.80959,11.84347],[79.80903,11.84347],[79.80903,11.84319],[79.8093,11.84319],[79.8093,11.84208],[79.80903,11.84208],[79.80903,11.8418],[79.80875,11.84181],[79.80875,11.83986],[79.80847,11.83986],[79.80847,11.83931],[79.8082,11.83931],[79.8082,11.83904],[79.80791,11.83904],[79.80791,11.83875],[79.80764,11.83875],[79.80764,11.83819],[79.80736,11.83819],[79.80736,11.83764],[79.80764,11.83764],[79.80764,11.83653],[79.80708,11.83653],[79.80708,11.83681],[79.80625,11.83681],[79.80625,11.83764],[79.80653,11.83764],[79.80653,11.83792],[79.80681,11.83792],[79.80681,11.83847],[79.80653,11.83847],[79.80653,11.83904],[79.80625,11.83903],[79.80625,11.83958],[79.80569,11.83958],[79.80569,11.83931],[79.8018,11.83931],[79.8018,11.84181],[79.80124,11.84181],[79.80124,11.84153],[79.80097,11.84153],[79.80097,11.84097],[79.8007,11.84097],[79.8007,11.8407],[79.80042,11.8407],[79.80042,11.84042],[79.79986,11.84042],[79.79986,11.84014],[79.79958,11.84014],[79.79958,11.83931],[79.80042,11.83931],[79.80042,11.83904],[79.80097,11.83904],[79.80097,11.83875],[79.80124,11.83875],[79.80124,11.83819],[79.80153,11.83819],[79.80153,11.83736],[79.8018,11.83736],[79.8018,11.83625],[79.80209,11.83625],[79.80209,11.83514],[79.80236,11.83514],[79.80236,11.83458],[79.80292,11.83458],[79.80292,11.83431],[79.80319,11.83431],[79.80319,11.83403],[79.80403,11.83403],[79.80403,11.83375],[79.80514,11.83375],[79.80514,11.83347],[79.80542,11.83347],[79.80542,11.83292],[79.80569,11.83292],[79.80569,11.83236],[79.80597,11.83236],[79.80597,11.8282],[79.80569,11.8282],[79.80569,11.82792],[79.80542,11.82792],[79.80542,11.82764],[79.80569,11.82764],[79.80569,11.82736],[79.80542,11.82736],[79.80542,11.82681],[79.80514,11.82681],[79.80514,11.82458],[79.80458,11.82458],[79.80458,11.82403],[79.8043,11.82404],[79.8043,11.82347],[79.80403,11.82347],[79.80403,11.82208],[79.80375,11.82208],[79.80375,11.82181],[79.80403,11.82181],[79.80403,11.82097],[79.80347,11.82097],[79.80347,11.82042],[79.80319,11.82042],[79.80319,11.81986],[79.80292,11.81986],[79.80292,11.81903],[79.80264,11.81903],[79.80264,11.81681],[79.80236,11.81681],[79.80236,11.81653],[79.80209,11.81653],[79.80209,11.81597],[79.80236,11.81597],[79.80236,11.81486],[79.80209,11.81487],[79.80209,11.81403],[79.8018,11.81403],[79.8018,11.81236],[79.80153,11.81236],[79.80153,11.81208],[79.80125,11.81208],[79.80125,11.81125],[79.80097,11.81125],[79.80097,11.81042],[79.8007,11.81042],[79.8007,11.81014],[79.80042,11.81014],[79.80042,11.8084],[79.79682,11.81154],[79.79398,11.81564],[79.79297,11.81765],[79.79282,11.81946],[79.79176,11.82697],[79.79402,11.83021],[79.79098,11.83181],[79.78787,11.83509],[79.78616,11.8384],[79.78176,11.84027],[79.7785,11.83883],[79.76712,11.84048],[79.7654,11.83333],[79.7636,11.83251],[79.76044,11.82303],[79.75811,11.8221],[79.75214,11.82445],[79.74731,11.8327],[79.74871,11.83584],[79.75028,11.83598],[79.75156,11.84166],[79.75394,11.84224],[79.75574,11.85047],[79.75495,11.85784],[79.751,11.85895],[79.74981,11.86053],[79.74364,11.85972],[79.74339,11.85363],[79.73945,11.84986],[79.7384,11.835],[79.72776,11.83234],[79.73035,11.84688],[79.71817,11.84836],[79.71799,11.84763],[79.70669,11.84709],[79.7038,11.83829],[79.69767,11.85242],[79.69345,11.85389],[79.69573,11.87338],[79.69051,11.87406],[79.68205,11.87335],[79.68037,11.87062],[79.67838,11.86957],[79.67316,11.86995],[79.67091,11.86983],[79.67118,11.8666],[79.65907,11.86567],[79.65907,11.87212],[79.66037,11.87732],[79.66821,11.87625],[79.66871,11.87463],[79.67591,11.87933],[79.67987,11.87926],[79.68066,11.88194],[79.67995,11.88615],[79.68382,11.88746],[79.6823,11.89185],[79.67983,11.89345],[79.68286,11.90471],[79.70258,11.9025],[79.70251,11.89843],[79.69169,11.89777],[79.69154,11.8784],[79.70174,11.87655],[79.70438,11.8746],[79.70831,11.87395],[79.71537,11.87497],[79.71693,11.87684],[79.71602,11.88668],[79.71751,11.88924],[79.7249,11.89151],[79.70408,11.91299],[79.70603,11.92871],[79.69648,11.93245],[79.69461,11.93133],[79.69451,11.92593],[79.69608,11.9201],[79.69782,11.91668],[79.69278,11.9212],[79.692,11.92448],[79.69024,11.92618],[79.68414,11.92722],[79.6782,11.93653],[79.67769,11.93935],[79.68148,11.94336],[79.68313,11.9465],[79.68543,11.94517],[79.68668,11.94728],[79.69315,11.95079],[79.70155,11.95218],[79.70193,11.95643],[79.69526,11.96103],[79.69922,11.97003],[79.69905,11.97206],[79.6948,11.97511],[79.68998,11.97564],[79.6869,11.97398],[79.68417,11.97473],[79.68114,11.97284],[79.6775,11.97399],[79.67345,11.97237],[79.67114,11.97476],[79.66536,11.96752],[79.66143,11.97286],[79.65961,11.97705],[79.65122,11.97201],[79.6442,11.97321],[79.64234,11.97581],[79.64429,11.98627],[79.64442,11.98627],[79.64434,11.99267],[79.64701,11.99332],[79.64732,11.99723],[79.65237,11.9983],[79.65931,11.99689],[79.66326,12.00638],[79.66891,12.00729],[79.67152,12.01162],[79.67645,12.01286],[79.67904,12.01926],[79.69156,12.01744],[79.69242,12.01107],[79.69048,12.00112],[79.69076,11.99628],[79.6954,11.99268],[79.7017,11.98609],[79.70359,11.98005],[79.70585,11.97737],[79.7099,11.97622],[79.71259,11.97563],[79.71696,11.97544],[79.71986,11.97646],[79.72494,11.9779],[79.72711,11.97997],[79.72886,11.98602],[79.729,11.98602],[79.73468,11.99431],[79.74965,11.98613],[79.75261,11.97946],[79.75244,11.97613],[79.74907,11.97237],[79.74513,11.97085],[79.74241,11.96704],[79.73817,11.96705],[79.73544,11.96361],[79.72692,11.96249],[79.72209,11.96744],[79.7179,11.96887],[79.71571,11.96745],[79.71449,11.95525],[79.73361,11.94721],[79.73357,11.9373],[79.7369,11.92739],[79.73659,11.91021],[79.7369,11.90717],[79.74054,11.90716],[79.74084,11.90945],[79.74751,11.91516],[79.74722,11.91783],[79.74784,11.9289],[79.75814,11.9304],[79.76421,11.93459],[79.76545,11.93916],[79.76938,11.94145],[79.77181,11.9464],[79.77272,11.94679],[79.77576,11.94601],[79.77879,11.9464],[79.78333,11.94373],[79.78757,11.93837],[79.79031,11.94255],[79.79166,11.94774],[79.79243,11.95705],[79.79527,11.96189],[79.79791,11.96352],[79.79973,11.96429],[79.80459,11.96314],[79.80602,11.95922],[79.80633,11.95527],[79.80811,11.94651],[79.81102,11.94251],[79.8142,11.94062],[79.818,11.94039],[79.8254,11.94001],[79.8254,11.94015],[79.8307,11.94025],[79.83764,11.94055]]]}},{"type":"Feature","properties":{"ID_0":105,"ISO":"IND","NAME_0":"India","ID_1":27,"NAME_1":"Puducherry","ID_2":405,"NAME_2":"Yanam","NL_NAME_2":null,"VARNAME_2":"Yanaon","TYPE_2":"District","ENGTYPE_2":"District","STATE":"Puducherry","DISTRICT":"Yanam"},"geometry":{"type":"MultiPolygon","coordinates":[[[[82.26569,16.70292],[82.26569,16.70263],[82.26791,16.70264],[82.26791,16.70236],[82.27014,16.70236],[82.27014,16.70208],[82.27069,16.70208],[82.27069,16.70181],[82.2718,16.70181],[82.2718,16.70153],[82.27319,16.70153],[82.27319,16.70125],[82.27402,16.70125],[82.27402,16.70097],[82.27514,16.70097],[82.27514,16.7007],[82.27597,16.7007],[82.27597,16.70042],[82.27708,16.70042],[82.27708,16.70014],[82.27792,16.70014],[82.27792,16.69986],[82.27875,16.69986],[82.27875,16.69958],[82.2793,16.69959],[82.2793,16.69931],[82.28042,16.69931],[82.28042,16.69903],[82.28124,16.69903],[82.28124,16.69875],[82.28236,16.69875],[82.28236,16.69847],[82.2832,16.69847],[82.2832,16.69819],[82.28458,16.69819],[82.28458,16.69792],[82.28514,16.69792],[82.28514,16.69764],[82.28539,16.69764],[82.28516,16.69744],[82.27634,16.69311],[82.26467,16.69053],[82.25875,16.69011],[82.25875,16.69069],[82.25847,16.69069],[82.25847,16.6918],[82.25819,16.6918],[82.25819,16.69208],[82.25792,16.69208],[82.25792,16.69292],[82.25764,16.69292],[82.25764,16.69736],[82.25736,16.69736],[82.25736,16.69792],[82.25764,16.69792],[82.25764,16.69819],[82.25792,16.69819],[82.25792,16.70181],[82.25931,16.70181],[82.25931,16.70208],[82.2607,16.70208],[82.2607,16.70236],[82.26236,16.70236],[82.26236,16.70264],[82.26292,16.70263],[82.26292,16.70292],[82.26569,16.70292]]],[[[82.21097,16.72794],[82.21478,16.7252],[82.22042,16.71831],[82.22704,16.71718],[82.24495,16.71896],[82.2637,16.71937],[82.2807,16.72275],[82.28508,16.73451],[82.28909,16.74099],[82.2937,16.74304],[82.29774,16.74038],[82.30106,16.73334],[82.30283,16.72284],[82.29951,16.71433],[82.29944,16.71413],[82.29939,16.71403],[82.29931,16.71388],[82.29931,16.71375],[82.29903,16.71375],[82.29903,16.71347],[82.29847,16.71347],[82.29847,16.71292],[82.29819,16.71292],[82.29819,16.71236],[82.29764,16.71236],[82.29764,16.71182],[82.29736,16.71182],[82.29736,16.71153],[82.29708,16.71153],[82.29708,16.71125],[82.29681,16.71125],[82.29681,16.71097],[82.29652,16.71097],[82.29652,16.71042],[82.29624,16.71042],[82.29624,16.71014],[82.29597,16.71014],[82.29597,16.70986],[82.29542,16.70986],[82.29542,16.70958],[82.29514,16.70958],[82.29514,16.7093],[82.29486,16.7093],[82.29486,16.70903],[82.29459,16.70903],[82.29459,16.70876],[82.2943,16.70876],[82.2943,16.70847],[82.29403,16.70847],[82.29403,16.70819],[82.29347,16.70819],[82.29347,16.70792],[82.29208,16.70792],[82.29208,16.70764],[82.29125,16.70764],[82.29125,16.70736],[82.28848,16.70736],[82.28848,16.70708],[82.28792,16.70708],[82.28792,16.70736],[82.28709,16.70736],[82.28709,16.70708],[82.28625,16.70708],[82.28625,16.70736],[82.2857,16.70736],[82.2857,16.70764],[82.28069,16.70764],[82.28069,16.70792],[82.2793,16.70792],[82.2793,16.70819],[82.2718,16.70819],[82.2718,16.70847],[82.27069,16.70847],[82.27069,16.70903],[82.27014,16.70903],[82.27014,16.7093],[82.26958,16.7093],[82.26958,16.70958],[82.2693,16.70958],[82.2693,16.70986],[82.26903,16.70986],[82.26903,16.71014],[82.26875,16.71014],[82.26875,16.71042],[82.26847,16.71042],[82.26847,16.7107],[82.26791,16.7107],[82.26791,16.71125],[82.26736,16.71125],[82.26736,16.71153],[82.26653,16.71153],[82.26653,16.71182],[82.26625,16.71181],[82.26625,16.71209],[82.26542,16.71208],[82.26542,16.71236],[82.26514,16.71236],[82.26514,16.71264],[82.26486,16.71264],[82.26486,16.71292],[82.26458,16.71292],[82.26458,16.7132],[82.26431,16.7132],[82.26431,16.71347],[82.26375,16.71347],[82.26375,16.71375],[82.2632,16.71375],[82.2632,16.71403],[82.26264,16.71403],[82.26264,16.71431],[82.26208,16.71431],[82.26208,16.71458],[82.26153,16.71457],[82.26153,16.71486],[82.26125,16.71486],[82.26125,16.71514],[82.26041,16.71514],[82.26041,16.71542],[82.25958,16.71542],[82.25958,16.71569],[82.25875,16.71569],[82.25875,16.71597],[82.25819,16.71597],[82.25819,16.71625],[82.25764,16.71625],[82.25764,16.71653],[82.25707,16.71653],[82.25707,16.71681],[82.25597,16.71681],[82.25597,16.71708],[82.25459,16.71708],[82.25459,16.71736],[82.25347,16.71736],[82.25347,16.71764],[82.25126,16.71763],[82.25126,16.71792],[82.25069,16.71792],[82.25069,16.71763],[82.24903,16.71764],[82.24903,16.71736],[82.24847,16.71736],[82.24847,16.71708],[82.24625,16.71708],[82.24625,16.71681],[82.2457,16.71681],[82.2457,16.71597],[82.24541,16.71597],[82.24541,16.71514],[82.24513,16.71514],[82.24513,16.71403],[82.24486,16.71403],[82.24486,16.71319],[82.24458,16.7132],[82.24458,16.71236],[82.24431,16.71236],[82.24431,16.71125],[82.24403,16.71125],[82.24403,16.71042],[82.24375,16.71042],[82.24375,16.7093],[82.24347,16.7093],[82.24347,16.70875],[82.24319,16.70876],[82.24319,16.70847],[82.24292,16.70847],[82.24292,16.70819],[82.24264,16.70819],[82.24264,16.70764],[82.24292,16.70764],[82.24292,16.70792],[82.24347,16.70792],[82.24347,16.70764],[82.24403,16.70764],[82.24403,16.70736],[82.24431,16.70736],[82.24431,16.70708],[82.24458,16.70708],[82.24458,16.70681],[82.24486,16.70681],[82.24486,16.70653],[82.24597,16.70653],[82.24597,16.70625],[82.24625,16.70625],[82.24625,16.70597],[82.24653,16.70597],[82.24653,16.70569],[82.24736,16.70569],[82.24736,16.70542],[82.24764,16.70542],[82.24764,16.70514],[82.24792,16.70514],[82.24792,16.70486],[82.2482,16.70486],[82.24819,16.70431],[82.24847,16.70431],[82.24847,16.70403],[82.24875,16.70403],[82.24875,16.70375],[82.24903,16.70375],[82.24903,16.70347],[82.24931,16.70347],[82.24931,16.70292],[82.24958,16.70292],[82.24958,16.70263],[82.24986,16.70264],[82.24986,16.70208],[82.25014,16.70208],[82.25014,16.70181],[82.25042,16.70181],[82.25042,16.70153],[82.25069,16.70153],[82.25069,16.70125],[82.25097,16.70125],[82.25097,16.70097],[82.25125,16.70097],[82.25125,16.7007],[82.25153,16.7007],[82.25153,16.70042],[82.25181,16.70042],[82.25181,16.70014],[82.25208,16.70014],[82.25208,16.69986],[82.25236,16.69986],[82.25236,16.69958],[82.25264,16.69959],[82.25264,16.69903],[82.2532,16.69903],[82.2532,16.69875],[82.25375,16.69875],[82.25375,16.69847],[82.25403,16.69847],[82.25403,16.69792],[82.2543,16.69792],[82.2543,16.69736],[82.25459,16.69736],[82.25459,16.69708],[82.25486,16.69708],[82.25486,16.69653],[82.25514,16.69653],[82.25514,16.69597],[82.25542,16.69597],[82.25542,16.69569],[82.25569,16.69569],[82.25569,16.69542],[82.25597,16.69542],[82.25597,16.69514],[82.25625,16.69514],[82.25625,16.69486],[82.25653,16.69486],[82.25653,16.69458],[82.25681,16.69458],[82.25681,16.69431],[82.25653,16.69431],[82.25653,16.69347],[82.25708,16.69347],[82.25708,16.69236],[82.25736,16.69236],[82.25736,16.69153],[82.25764,16.69153],[82.25764,16.69011],[82.25345,16.68972],[82.24654,16.69144],[82.22741,16.70465],[82.21544,16.70976],[82.20253,16.70769],[82.19358,16.70845],[82.17908,16.7163],[82.17464,16.72511],[82.18032,16.7281],[82.18875,16.72721],[82.19678,16.73647],[82.20723,16.74371],[82.21114,16.74822],[82.21768,16.75169],[82.22182,16.75035],[82.21979,16.74487],[82.21003,16.73127],[82.21097,16.72794]]]]}}],"state":"Puducherry","source":"geohacker/india (Datameet-derived), Census 2011 boundaries"}