{"type":"FeatureCollection","features":[{"type":"Feature","properties":{"ID_0":105,"ISO":"IND","NAME_0":"India","ID_1":30,"NAME_1":"Sikkim","ID_2":455,"NAME_2":"East","NL_NAME_2":null,"VARNAME_2":null,"TYPE_2":"District","ENGTYPE_2":"District","STATE":"Sikkim","DISTRICT":"East"},"geometry":{"type":"Polygon","coordinates":[[[88.80601,27.41424],[88.80712,27.4112],[88.80806,27.40864],[88.80933,27.40519],[88.8101,27.40476],[88.8101,27.4043],[88.81136,27.40318],[88.81176,27.40302],[88.81176,27.40256],[88.81745,27.40071],[88.81921,27.39932],[88.81926,27.39926],[88.81932,27.39918],[88.82084,27.39737],[88.8217,27.39572],[88.82238,27.39408],[88.82536,27.39144],[88.82536,27.39099],[88.82536,27.39056],[88.8312,27.38875],[88.83272,27.38651],[88.83317,27.38651],[88.8335,27.38651],[88.83349,27.38605],[88.83424,27.38584],[88.83444,27.38461],[88.83473,27.3829],[88.83552,27.38244],[88.83831,27.37883],[88.83983,27.37816],[88.84135,27.3777],[88.84235,27.37794],[88.84412,27.37908],[88.84451,27.37973],[88.84718,27.38086],[88.8483,27.38268],[88.84836,27.38277],[88.84895,27.3836],[88.85271,27.38633],[88.85654,27.38678],[88.85883,27.38587],[88.86163,27.38362],[88.86214,27.38251],[88.86314,27.38068],[88.86466,27.37977],[88.86722,27.36825],[88.86875,27.36736],[88.86942,27.36718],[88.87047,27.36689],[88.87915,27.36444],[88.87925,27.36437],[88.88099,27.36319],[88.88321,27.35766],[88.88506,27.34681],[88.88561,27.34551],[88.88861,27.33844],[88.88911,27.33822],[88.88986,27.3364],[88.89394,27.33394],[88.89395,27.33347],[88.896,27.33305],[88.89715,27.3334],[88.90054,27.33441],[88.90694,27.33067],[88.90787,27.33013],[88.90916,27.33042],[88.91195,27.33103],[88.91416,27.3302],[88.91536,27.32963],[88.92176,27.32661],[88.92237,27.32632],[88.92163,27.32555],[88.91874,27.32255],[88.91843,27.32222],[88.91486,27.31866],[88.91424,27.31795],[88.91351,27.31636],[88.91251,27.30934],[88.90946,27.30594],[88.90916,27.30172],[88.90913,27.3016],[88.9091,27.30051],[88.90989,27.29827],[88.91039,27.29804],[88.91054,27.29306],[88.90727,27.28354],[88.90652,27.28241],[88.90376,27.2788],[88.90197,27.27724],[88.89921,27.27497],[88.89793,27.27519],[88.89762,27.27515],[88.89716,27.2751],[88.89615,27.27495],[88.89446,27.27401],[88.89424,27.27389],[88.89287,27.27313],[88.88329,27.26905],[88.87988,27.2661],[88.87935,27.2661],[88.87723,27.26292],[88.87672,27.26088],[88.87318,27.25906],[88.87241,27.25884],[88.86382,27.26221],[88.85622,27.26129],[88.84709,27.26172],[88.84382,27.26083],[88.84306,27.26127],[88.8352,27.26307],[88.83089,27.26236],[88.83041,27.2626],[88.83041,27.26213],[88.82713,27.26056],[88.8241,27.2601],[88.82319,27.25874],[88.82256,27.25762],[88.82003,27.25646],[88.82004,27.256],[88.81997,27.25554],[88.81892,27.25499],[88.81221,27.25237],[88.81019,27.25217],[88.8011,27.24758],[88.80034,27.24624],[88.79961,27.23719],[88.79961,27.2347],[88.80012,27.23312],[88.80069,27.22068],[88.79923,27.21572],[88.79519,27.20847],[88.79192,27.2045],[88.79128,27.20427],[88.78964,27.2019],[88.78918,27.20008],[88.78891,27.1985],[88.7892,27.18992],[88.7882,27.18583],[88.78717,27.18425],[88.78468,27.18199],[88.77887,27.17995],[88.77684,27.17948],[88.77484,27.17971],[88.76993,27.1793],[88.76807,27.1789],[88.76598,27.17854],[88.76176,27.17588],[88.76138,27.17519],[88.76086,27.17519],[88.76089,27.17475],[88.76054,27.17447],[88.7589,27.17266],[88.75839,27.17197],[88.7583,27.16891],[88.75845,27.16801],[88.75895,27.16779],[88.7607,27.1581],[88.76048,27.15713],[88.75976,27.15502],[88.75385,27.15184],[88.75169,27.14821],[88.73718,27.13952],[88.73254,27.13735],[88.72454,27.13852],[88.7178,27.14397],[88.71497,27.15024],[88.71181,27.16515],[88.70197,27.17411],[88.6915,27.1787],[88.68441,27.18023],[88.68037,27.17951],[88.6735,27.17661],[88.66807,27.17199],[88.6596,27.16221],[88.65646,27.1624],[88.64249,27.16716],[88.63876,27.16772],[88.63328,27.17453],[88.61902,27.18785],[88.60679,27.18966],[88.60352,27.19115],[88.59811,27.19137],[88.59752,27.19271],[88.594,27.19118],[88.59148,27.19446],[88.58702,27.19053],[88.58509,27.19283],[88.56629,27.18786],[88.55899,27.18875],[88.54084,27.18371],[88.529,27.17776],[88.52075,27.17818],[88.49902,27.18513],[88.49207,27.19329],[88.48631,27.20233],[88.48748,27.21848],[88.48976,27.23053],[88.48594,27.23954],[88.476,27.24674],[88.47048,27.24743],[88.45985,27.25055],[88.45406,27.25597],[88.44209,27.26126],[88.43859,27.26653],[88.43667,27.27396],[88.43767,27.28123],[88.44334,27.29601],[88.44206,27.30092],[88.44691,27.30596],[88.44955,27.31538],[88.45678,27.31766],[88.46211,27.32192],[88.46903,27.32379],[88.47779,27.32879],[88.48134,27.33367],[88.48334,27.34253],[88.47678,27.35266],[88.47531,27.36048],[88.47607,27.36636],[88.481,27.3784],[88.48624,27.37871],[88.49629,27.38253],[88.5088,27.38955],[88.51418,27.39457],[88.51824,27.39715],[88.52398,27.39617],[88.5288,27.39666],[88.53886,27.39406],[88.5499,27.39239],[88.57705,27.39448],[88.58581,27.39632],[88.58879,27.39238],[88.5948,27.39076],[88.6109,27.38776],[88.6219,27.3873],[88.63264,27.38855],[88.63597,27.3909],[88.64416,27.39188],[88.65401,27.39109],[88.65859,27.39308],[88.67033,27.40014],[88.67436,27.40003],[88.68199,27.39811],[88.69003,27.39838],[88.69547,27.40177],[88.70741,27.41215],[88.7139,27.41669],[88.72665,27.4193],[88.74889,27.4147],[88.76247,27.41369],[88.76832,27.41637],[88.77744,27.42286],[88.78239,27.42177],[88.79247,27.41641],[88.80601,27.41424]]]}},{"type":"Feature","properties":{"ID_0":105,"ISO":"IND","NAME_0":"India","ID_1":30,"NAME_1":"Sikkim","ID_2":456,"NAME_2":"North Sikkim","NL_NAME_2":null,"VARNAME_2":"North District","TYPE_2":"District","ENGTYPE_2":"District","STATE":"Sikkim","DISTRICT":"North Sikkim"},"geometry":{"type":"Polygon","coordinates":[[[88.64526,28.09912],[88.65411,28.08984],[88.6611,28.07964],[88.66677,28.07408],[88.67281,28.07284],[88.67332,28.07307],[88.67364,28.07327],[88.67511,28.0742],[88.67712,28.07738],[88.6858,28.07898],[88.69522,28.07698],[88.69785,28.07737],[88.70389,28.07813],[88.71434,28.07569],[88.71944,28.07637],[88.72914,28.07528],[88.74035,28.07599],[88.74805,28.07407],[88.75108,28.07331],[88.75362,28.07194],[88.75364,28.0715],[88.75615,28.06971],[88.76804,28.06124],[88.76827,28.06063],[88.76881,28.06063],[88.76913,28.0604],[88.77075,28.05912],[88.77074,28.05866],[88.77077,28.0582],[88.77332,28.05686],[88.78229,28.05077],[88.78255,28.04962],[88.78281,28.04849],[88.78356,28.04803],[88.78432,28.0476],[88.78562,28.04424],[88.78664,28.04355],[88.78664,28.0431],[88.79472,28.03704],[88.79473,28.0366],[88.79498,28.03639],[88.7961,28.0359],[88.79749,28.03278],[88.79766,28.03247],[88.79943,28.03112],[88.79945,28.03069],[88.80227,28.02877],[88.80533,28.0267],[88.80533,28.02625],[88.8056,28.02609],[88.80787,28.02527],[88.8167,28.02098],[88.81926,28.01974],[88.82071,28.01898],[88.82535,28.01706],[88.82906,28.01516],[88.8329,28.01154],[88.83463,28.00041],[88.83565,27.99949],[88.83572,27.99912],[88.83625,27.9989],[88.83625,27.99821],[88.83678,27.99685],[88.83906,27.99506],[88.84088,27.991],[88.84029,27.9768],[88.83981,27.96523],[88.83996,27.96411],[88.84301,27.96161],[88.84407,27.95642],[88.83973,27.95279],[88.83645,27.94736],[88.83642,27.94492],[88.83625,27.932],[88.83955,27.93042],[88.84178,27.92983],[88.85353,27.92673],[88.85444,27.92649],[88.85895,27.92527],[88.86124,27.92346],[88.86481,27.91306],[88.86683,27.9091],[88.87023,27.90243],[88.87072,27.90244],[88.87074,27.90198],[88.87147,27.90182],[88.87725,27.89749],[88.87968,27.89568],[88.87966,27.89526],[88.88019,27.89524],[88.88046,27.89366],[88.8805,27.89321],[88.88101,27.89321],[88.88139,27.89253],[88.88136,27.88905],[88.88094,27.88638],[88.87997,27.88031],[88.88077,27.87014],[88.8809,27.86984],[88.88177,27.86787],[88.88457,27.86539],[88.88574,27.86134],[88.88564,27.85906],[88.8854,27.85892],[88.88297,27.85749],[88.88287,27.85703],[88.8821,27.85544],[88.88209,27.85531],[88.881,27.83896],[88.88039,27.8376],[88.87897,27.83714],[88.87782,27.83624],[88.87709,27.83397],[88.87666,27.83338],[88.87624,27.83263],[88.87528,27.83107],[88.87303,27.82739],[88.8683,27.82454],[88.86752,27.8246],[88.86554,27.82368],[88.86234,27.82175],[88.85574,27.81812],[88.85538,27.81789],[88.85426,27.81652],[88.85413,27.81495],[88.85464,27.81474],[88.85477,27.8136],[88.85527,27.81245],[88.85732,27.81134],[88.85745,27.80816],[88.85683,27.79888],[88.85233,27.77832],[88.85261,27.76835],[88.85432,27.76037],[88.85458,27.75933],[88.85593,27.75694],[88.85695,27.75602],[88.85753,27.75459],[88.85853,27.75369],[88.85953,27.75301],[88.86137,27.74894],[88.86238,27.739],[88.86108,27.73583],[88.85429,27.73017],[88.85373,27.72915],[88.85152,27.72405],[88.85052,27.7182],[88.85001,27.71753],[88.84128,27.71206],[88.83888,27.71116],[88.83862,27.71047],[88.83864,27.70822],[88.8394,27.70572],[88.83989,27.70551],[88.84041,27.70528],[88.84118,27.70281],[88.84553,27.70031],[88.84552,27.69443],[88.84417,27.68892],[88.8445,27.68594],[88.84501,27.68162],[88.84526,27.6807],[88.84546,27.68008],[88.84673,27.67558],[88.84661,27.66904],[88.84661,27.6689],[88.84563,27.66724],[88.84311,27.663],[88.83844,27.65871],[88.83679,27.65757],[88.83412,27.65332],[88.83224,27.65033],[88.82602,27.64547],[88.82233,27.64284],[88.82073,27.64229],[88.81982,27.64194],[88.81553,27.64267],[88.81375,27.64332],[88.8132,27.64352],[88.81068,27.64282],[88.80991,27.64192],[88.80714,27.63626],[88.8064,27.63219],[88.80824,27.61913],[88.8085,27.61433],[88.80798,27.61364],[88.80549,27.60325],[88.80196,27.59984],[88.80096,27.59961],[88.80099,27.59918],[88.80046,27.59917],[88.80046,27.59871],[88.7979,27.59646],[88.79741,27.59646],[88.79742,27.596],[88.79457,27.594],[88.79407,27.594],[88.79281,27.59199],[88.79178,27.59061],[88.78854,27.58807],[88.78727,27.58557],[88.78558,27.57628],[88.78481,27.57538],[88.78368,27.57448],[88.78228,27.57336],[88.76848,27.568],[88.76823,27.5679],[88.76823,27.56744],[88.76733,27.56677],[88.76707,27.56496],[88.76787,27.55997],[88.7684,27.55975],[88.76891,27.55952],[88.77312,27.54451],[88.7751,27.5376],[88.77554,27.53728],[88.77636,27.53672],[88.77914,27.53401],[88.77991,27.53265],[88.77988,27.53222],[88.78425,27.52952],[88.78602,27.52906],[88.78703,27.5293],[88.78806,27.52907],[88.78857,27.5286],[88.78895,27.52613],[88.78883,27.52501],[88.78769,27.52453],[88.78699,27.52084],[88.78667,27.51917],[88.78617,27.5151],[88.78613,27.51363],[88.78603,27.51149],[88.78517,27.50646],[88.78323,27.49648],[88.78333,27.49453],[88.78429,27.49373],[88.78501,27.49298],[88.78555,27.49242],[88.78543,27.48767],[88.78524,27.48725],[88.78474,27.48616],[88.78391,27.48433],[88.78316,27.4827],[88.78259,27.47958],[88.78232,27.47807],[88.78144,27.47319],[88.78144,27.47253],[88.78146,27.46776],[88.78217,27.46326],[88.78339,27.45555],[88.78429,27.45399],[88.78734,27.45242],[88.78737,27.4513],[88.7876,27.45017],[88.79243,27.44803],[88.79473,27.44701],[88.79459,27.44495],[88.79402,27.43661],[88.79491,27.43277],[88.79501,27.43265],[88.79653,27.43078],[88.80032,27.4287],[88.80317,27.42714],[88.80407,27.42533],[88.80408,27.42509],[88.80601,27.41424],[88.79247,27.41641],[88.78239,27.42177],[88.77744,27.42286],[88.76832,27.41637],[88.76247,27.41369],[88.74889,27.4147],[88.72665,27.4193],[88.7139,27.41669],[88.70741,27.41215],[88.69547,27.40177],[88.69003,27.39838],[88.68199,27.39811],[88.67436,27.40003],[88.67033,27.40014],[88.65859,27.39308],[88.65401,27.39109],[88.64416,27.39188],[88.63597,27.3909],[88.63264,27.38855],[88.6219,27.3873],[88.6109,27.38776],[88.5948,27.39076],[88.58879,27.39238],[88.58581,27.39632],[88.57705,27.39448],[88.5499,27.39239],[88.53886,27.39406],[88.5288,27.39666],[88.52398,27.39617],[88.51824,27.39715],[88.51418,27.39457],[88.5088,27.38955],[88.49629,27.38253],[88.48624,27.37871],[88.481,27.3784],[88.4735,27.38109],[88.46544,27.38559],[88.45892,27.38751],[88.44867,27.38859],[88.43845,27.39357],[88.43155,27.39993],[88.42751,27.40451],[88.4216,27.41324],[88.41445,27.41866],[88.41159,27.42358],[88.40939,27.4299],[88.40908,27.43936],[88.41089,27.44662],[88.40361,27.45846],[88.40193,27.46344],[88.40215,27.47032],[88.40041,27.47575],[88.39348,27.47907],[88.37036,27.49762],[88.35943,27.51042],[88.35593,27.51732],[88.35045,27.52139],[88.33733,27.52644],[88.32987,27.52773],[88.32353,27.52817],[88.31393,27.5272],[88.28568,27.51895],[88.27631,27.51301],[88.25797,27.52591],[88.24262,27.5316],[88.2361,27.53498],[88.23232,27.54056],[88.2266,27.55726],[88.21243,27.5738],[88.20422,27.5815],[88.15815,27.60028],[88.12139,27.61158],[88.11688,27.61404],[88.11792,27.62082],[88.12213,27.62703],[88.11992,27.62951],[88.1233,27.63917],[88.12329,27.63921],[88.12263,27.64527],[88.13382,27.65512],[88.13982,27.65722],[88.14027,27.65771],[88.14725,27.6654],[88.14822,27.67155],[88.14941,27.67882],[88.15033,27.68122],[88.15136,27.6838],[88.15745,27.69038],[88.15742,27.69042],[88.15099,27.70168],[88.15094,27.70167],[88.15092,27.70165],[88.15091,27.70166],[88.15071,27.70201],[88.15198,27.7079],[88.15812,27.71721],[88.15733,27.72912],[88.15733,27.72915],[88.16105,27.74062],[88.17232,27.74134],[88.17236,27.74134],[88.18121,27.74681],[88.17931,27.75812],[88.18341,27.76148],[88.18344,27.7615],[88.18601,27.76603],[88.18604,27.76607],[88.18524,27.76722],[88.18422,27.76882],[88.18423,27.76921],[88.18442,27.77452],[88.1879,27.777],[88.19073,27.78121],[88.19075,27.78124],[88.19794,27.78633],[88.19992,27.79053],[88.1965,27.796],[88.19252,27.79791],[88.18951,27.80122],[88.1879,27.81031],[88.18153,27.81554],[88.17999,27.81603],[88.17612,27.81732],[88.17572,27.82022],[88.19013,27.8251],[88.19722,27.83552],[88.19939,27.8361],[88.20393,27.83731],[88.20401,27.84241],[88.20069,27.84551],[88.20016,27.84797],[88.19891,27.85352],[88.19553,27.85453],[88.19548,27.85452],[88.19102,27.85372],[88.1879,27.85654],[88.18343,27.85646],[88.18094,27.85641],[88.17706,27.86097],[88.17522,27.86312],[88.17462,27.86337],[88.16975,27.86536],[88.16856,27.86655],[88.16689,27.86822],[88.15662,27.87045],[88.15658,27.87046],[88.15635,27.87072],[88.15131,27.87651],[88.14561,27.87811],[88.14191,27.87741],[88.13754,27.88149],[88.12998,27.88152],[88.1302,27.88192],[88.12993,27.88594],[88.12738,27.89129],[88.12628,27.89509],[88.12576,27.89532],[88.12523,27.89644],[88.12295,27.89759],[88.12246,27.89883],[88.12165,27.90027],[88.11959,27.90207],[88.1188,27.90251],[88.11751,27.9056],[88.11675,27.90602],[88.1166,27.90718],[88.11389,27.91219],[88.11366,27.91584],[88.11358,27.91761],[88.11681,27.92578],[88.12587,27.93443],[88.12887,27.9383],[88.12895,27.93985],[88.12881,27.94553],[88.1237,27.94798],[88.12366,27.95024],[88.12391,27.95092],[88.12998,27.95594],[88.13309,27.96161],[88.13474,27.96298],[88.13906,27.96348],[88.13982,27.96326],[88.14001,27.96318],[88.14677,27.96051],[88.1472,27.96034],[88.15369,27.95778],[88.16723,27.94827],[88.17362,27.94471],[88.17567,27.94427],[88.18276,27.94356],[88.18866,27.94368],[88.19293,27.94545],[88.19476,27.94621],[88.19555,27.94692],[88.19576,27.94711],[88.19714,27.9505],[88.19923,27.95797],[88.19971,27.96048],[88.20029,27.96148],[88.20259,27.96548],[88.20349,27.96615],[88.20348,27.96662],[88.20981,27.96778],[88.2113,27.96716],[88.21412,27.96599],[88.21527,27.96557],[88.21584,27.96536],[88.21664,27.96497],[88.21802,27.96446],[88.22157,27.96402],[88.22234,27.96426],[88.22313,27.96448],[88.22615,27.96722],[88.2297,27.96792],[88.23019,27.96777],[88.23047,27.96769],[88.23098,27.96722],[88.23277,27.96588],[88.23297,27.96492],[88.23518,27.95414],[88.23747,27.95259],[88.23772,27.95147],[88.23773,27.95055],[88.23825,27.95035],[88.23826,27.94989],[88.24389,27.94854],[88.24793,27.9501],[88.24818,27.9502],[88.24825,27.95028],[88.24844,27.95083],[88.25883,27.95632],[88.26086,27.95657],[88.26163,27.95634],[88.2652,27.95659],[88.27052,27.95831],[88.27103,27.95808],[88.27123,27.95817],[88.27154,27.95831],[88.27205,27.95844],[88.27483,27.96051],[88.27561,27.96124],[88.27671,27.96436],[88.27682,27.96548],[88.27949,27.96732],[88.28006,27.96761],[88.28038,27.96778],[88.28607,27.96846],[88.29008,27.96894],[88.29386,27.96807],[88.30479,27.96996],[88.30889,27.97268],[88.31005,27.97399],[88.31392,27.97836],[88.31619,27.97972],[88.32291,27.98132],[88.32392,27.9811],[88.3275,27.98192],[88.32915,27.9825],[88.33183,27.98475],[88.33243,27.9859],[88.33502,27.98702],[88.33776,27.98799],[88.34519,27.98948],[88.35021,27.98963],[88.35098,27.98985],[88.35421,27.98942],[88.36376,27.98814],[88.37475,27.98367],[88.38166,27.97987],[88.38166,27.97941],[88.3888,27.97784],[88.3898,27.97808],[88.39402,27.97973],[88.39606,27.9811],[88.40072,27.98334],[88.402,27.98359],[88.40429,27.98674],[88.40656,27.9879],[88.4088,27.99244],[88.40994,27.99357],[88.41173,27.99562],[88.41233,27.99698],[88.4235,28.00563],[88.42348,28.00607],[88.42476,28.00653],[88.42654,28.00812],[88.42707,28.00833],[88.43259,28.0104],[88.45094,28.01501],[88.45586,28.0172],[88.4616,28.01981],[88.46462,28.0232],[88.46918,28.03286],[88.47166,28.03681],[88.47798,28.04258],[88.48186,28.04501],[88.48312,28.04559],[88.48967,28.04808],[88.50114,28.04893],[88.50167,28.0487],[88.50166,28.04825],[88.50168,28.04779],[88.50293,28.04713],[88.507,28.04648],[88.51672,28.04402],[88.52084,28.04109],[88.5211,28.04018],[88.52108,28.03974],[88.52237,28.03905],[88.52236,28.03859],[88.52776,28.03682],[88.53155,28.03638],[88.53334,28.03662],[88.53802,28.03848],[88.53825,28.03857],[88.53895,28.03889],[88.54098,28.04048],[88.54274,28.04412],[88.54288,28.04968],[88.54293,28.05046],[88.54368,28.05252],[88.54505,28.05387],[88.55042,28.06112],[88.55177,28.06381],[88.55228,28.0654],[88.55247,28.07762],[88.55445,28.08483],[88.55828,28.08756],[88.56692,28.08898],[88.56775,28.08846],[88.57076,28.08651],[88.57484,28.08561],[88.57658,28.08628],[88.58551,28.09017],[88.58756,28.0913],[88.58908,28.09154],[88.59037,28.09132],[88.59517,28.09563],[88.59605,28.09693],[88.60279,28.09837],[88.60541,28.09966],[88.61345,28.10256],[88.61646,28.10368],[88.61358,28.10869],[88.61216,28.10993],[88.61156,28.11578],[88.61083,28.11874],[88.61047,28.11963],[88.60689,28.12281],[88.60673,28.12618],[88.60747,28.12755],[88.61182,28.12961],[88.62124,28.13097],[88.62524,28.12826],[88.62688,28.12715],[88.62688,28.12669],[88.62689,28.12626],[88.62895,28.12469],[88.6297,28.12447],[88.62971,28.12402],[88.63049,28.1238],[88.63174,28.1211],[88.63226,28.12086],[88.63277,28.12063],[88.63506,28.11306],[88.63639,28.10868],[88.63769,28.10437],[88.63936,28.10311],[88.64124,28.10172],[88.64526,28.09912]]]}},{"type":"Feature","properties":{"ID_0":105,"ISO":"IND","NAME_0":"India","ID_1":30,"NAME_1":"Sikkim","ID_2":457,"NAME_2":"South Sikkim","NL_NAME_2":null,"VARNAME_2":"South District","TYPE_2":"District","ENGTYPE_2":"District","STATE":"Sikkim","DISTRICT":"South Sikkim"},"geometry":{"type":"Polygon","coordinates":[[[88.481,27.3784],[88.47607,27.36636],[88.47531,27.36048],[88.47678,27.35266],[88.48334,27.34253],[88.48134,27.33367],[88.47779,27.32879],[88.46903,27.32379],[88.46211,27.32192],[88.45678,27.31766],[88.44955,27.31538],[88.44691,27.30596],[88.44206,27.30092],[88.44334,27.29601],[88.43767,27.28123],[88.43667,27.27396],[88.43859,27.26653],[88.44209,27.26126],[88.45406,27.25597],[88.45985,27.25055],[88.47048,27.24743],[88.476,27.24674],[88.48594,27.23954],[88.48976,27.23053],[88.48748,27.21848],[88.48631,27.20233],[88.49207,27.19329],[88.49902,27.18513],[88.52075,27.17818],[88.52048,27.17503],[88.52981,27.16579],[88.52673,27.16027],[88.53203,27.15433],[88.52993,27.15015],[88.52674,27.14977],[88.52171,27.15034],[88.51871,27.1478],[88.51596,27.14374],[88.51223,27.14103],[88.50751,27.13599],[88.50295,27.13405],[88.4989,27.13122],[88.49641,27.12815],[88.49561,27.12536],[88.49185,27.12487],[88.48669,27.12678],[88.48128,27.12285],[88.47378,27.1207],[88.46908,27.1173],[88.46672,27.11394],[88.4648,27.10479],[88.46018,27.09585],[88.4545,27.08965],[88.44628,27.0854],[88.43962,27.08417],[88.43195,27.08161],[88.42915,27.08362],[88.411,27.0907],[88.39766,27.09443],[88.38752,27.09841],[88.37065,27.09941],[88.36388,27.09842],[88.3523,27.10107],[88.34794,27.10332],[88.34516,27.1069],[88.3408,27.11067],[88.33174,27.10817],[88.32384,27.1049],[88.32008,27.10732],[88.32049,27.11664],[88.31882,27.11934],[88.31127,27.12535],[88.3045,27.1286],[88.29989,27.128],[88.29491,27.12477],[88.27814,27.13083],[88.27524,27.14258],[88.27666,27.14456],[88.27732,27.14886],[88.27974,27.15078],[88.28215,27.15111],[88.28557,27.15423],[88.28929,27.16331],[88.29157,27.16434],[88.29517,27.1691],[88.29597,27.1737],[88.29956,27.17648],[88.30464,27.17814],[88.30726,27.18173],[88.31477,27.18564],[88.32376,27.18762],[88.32579,27.18889],[88.32403,27.19193],[88.32953,27.19458],[88.32687,27.1988],[88.32693,27.20131],[88.32417,27.20453],[88.31813,27.22056],[88.31502,27.22328],[88.30549,27.22485],[88.30276,27.22615],[88.2983,27.23703],[88.3006,27.24618],[88.3007,27.25661],[88.29902,27.26101],[88.29158,27.26638],[88.28438,27.27324],[88.27896,27.27567],[88.27602,27.27832],[88.27337,27.28167],[88.2741,27.28644],[88.27528,27.2883],[88.2856,27.29499],[88.2909,27.29718],[88.30147,27.29959],[88.30442,27.30279],[88.30598,27.30575],[88.30562,27.31579],[88.30367,27.31883],[88.30016,27.32142],[88.29508,27.32344],[88.29175,27.32685],[88.29301,27.33104],[88.2953,27.33422],[88.29988,27.3377],[88.31458,27.34605],[88.31767,27.34941],[88.32287,27.365],[88.32555,27.36883],[88.33411,27.37215],[88.34425,27.37413],[88.35319,27.37837],[88.35229,27.38444],[88.35323,27.39004],[88.35248,27.39938],[88.34988,27.403],[88.3456,27.41208],[88.34285,27.41425],[88.33789,27.4112],[88.33382,27.40633],[88.32862,27.41057],[88.32635,27.41717],[88.32041,27.41763],[88.3112,27.41543],[88.30054,27.41696],[88.2952,27.41466],[88.29028,27.4105],[88.27891,27.40527],[88.27399,27.40589],[88.26959,27.41199],[88.2694,27.41969],[88.26128,27.46191],[88.26076,27.48991],[88.26302,27.49823],[88.26614,27.50369],[88.27106,27.50932],[88.27631,27.51301],[88.28568,27.51895],[88.31393,27.5272],[88.32353,27.52817],[88.32987,27.52773],[88.33733,27.52644],[88.35045,27.52139],[88.35593,27.51732],[88.35943,27.51042],[88.37036,27.49762],[88.39348,27.47907],[88.40041,27.47575],[88.40215,27.47032],[88.40193,27.46344],[88.40361,27.45846],[88.41089,27.44662],[88.40908,27.43936],[88.40939,27.4299],[88.41159,27.42358],[88.41445,27.41866],[88.4216,27.41324],[88.42751,27.40451],[88.43155,27.39993],[88.43845,27.39357],[88.44867,27.38859],[88.45892,27.38751],[88.46544,27.38559],[88.4735,27.38109],[88.481,27.3784]]]}},{"type":"Feature","properties":{"ID_0":105,"ISO":"IND","NAME_0":"India","ID_1":30,"NAME_1":"Sikkim","ID_2":458,"NAME_2":"West Sikkim","NL_NAME_2":null,"VARNAME_2":"West District","TYPE_2":"District","ENGTYPE_2":"District","STATE":"Sikkim","DISTRICT":"West Sikkim"},"geometry":{"type":"Polygon","coordinates":[[[88.27399,27.40589],[88.27891,27.40527],[88.29028,27.4105],[88.2952,27.41466],[88.30054,27.41696],[88.3112,27.41543],[88.32041,27.41763],[88.32635,27.41717],[88.32862,27.41057],[88.33382,27.40633],[88.33789,27.4112],[88.34285,27.41425],[88.3456,27.41208],[88.34988,27.403],[88.35248,27.39938],[88.35323,27.39004],[88.35229,27.38444],[88.35319,27.37837],[88.34425,27.37413],[88.33411,27.37215],[88.32555,27.36883],[88.32287,27.365],[88.31767,27.34941],[88.31458,27.34605],[88.29988,27.3377],[88.2953,27.33422],[88.29301,27.33104],[88.29175,27.32685],[88.29508,27.32344],[88.30016,27.32142],[88.30367,27.31883],[88.30562,27.31579],[88.30598,27.30575],[88.30442,27.30279],[88.30147,27.29959],[88.2909,27.29718],[88.2856,27.29499],[88.27528,27.2883],[88.2741,27.28644],[88.27337,27.28167],[88.27602,27.27832],[88.27896,27.27567],[88.28438,27.27324],[88.29158,27.26638],[88.29902,27.26101],[88.3007,27.25661],[88.3006,27.24618],[88.2983,27.23703],[88.30276,27.22615],[88.30549,27.22485],[88.31502,27.22328],[88.31813,27.22056],[88.32417,27.20453],[88.32693,27.20131],[88.32687,27.1988],[88.32953,27.19458],[88.32403,27.19193],[88.32579,27.18889],[88.32376,27.18762],[88.31477,27.18564],[88.30726,27.18173],[88.30464,27.17814],[88.29956,27.17648],[88.29597,27.1737],[88.29517,27.1691],[88.29157,27.16434],[88.28929,27.16331],[88.28557,27.15423],[88.28215,27.15111],[88.27974,27.15078],[88.27732,27.14886],[88.27666,27.14456],[88.27524,27.14258],[88.27814,27.13083],[88.27735,27.13119],[88.27089,27.13013],[88.26346,27.12737],[88.25155,27.12536],[88.24007,27.12037],[88.23251,27.11977],[88.22691,27.12139],[88.22151,27.12527],[88.21384,27.13512],[88.20987,27.1334],[88.19562,27.13623],[88.18851,27.13442],[88.18368,27.1352],[88.17899,27.13471],[88.17261,27.13032],[88.15844,27.11435],[88.15544,27.1121],[88.15231,27.11171],[88.14378,27.11707],[88.13663,27.11688],[88.12691,27.12308],[88.12329,27.12379],[88.09594,27.13551],[88.09267,27.13628],[88.08864,27.13875],[88.08585,27.14151],[88.08383,27.14502],[88.08299,27.14894],[88.08391,27.16107],[88.08326,27.16504],[88.0787,27.16792],[88.0731,27.17442],[88.07233,27.17934],[88.06927,27.18495],[88.06745,27.19027],[88.06883,27.19435],[88.07541,27.1988],[88.07495,27.20084],[88.06824,27.20473],[88.06434,27.20783],[88.06174,27.2113],[88.0582,27.21389],[88.04676,27.21611],[88.03293,27.22103],[88.02399,27.22066],[88.01697,27.21887],[88.02149,27.22473],[88.02163,27.22889],[88.02182,27.23552],[88.02186,27.23555],[88.02431,27.23742],[88.02435,27.23741],[88.02742,27.23692],[88.02746,27.23691],[88.02685,27.24172],[88.02684,27.24176],[88.03032,27.24911],[88.03342,27.24972],[88.03339,27.25158],[88.03322,27.26302],[88.03442,27.26562],[88.03291,27.27172],[88.03561,27.28142],[88.03429,27.286],[88.04071,27.29143],[88.04076,27.29144],[88.04651,27.29244],[88.04364,27.30113],[88.04411,27.30402],[88.04771,27.30986],[88.05112,27.31231],[88.05203,27.31845],[88.0552,27.32426],[88.05522,27.3243],[88.0627,27.32824],[88.06274,27.32826],[88.06612,27.33412],[88.06921,27.33558],[88.06886,27.33664],[88.06731,27.34101],[88.06564,27.3427],[88.06441,27.34392],[88.06244,27.34928],[88.06026,27.35534],[88.05282,27.35831],[88.04442,27.37072],[88.04762,27.37971],[88.04672,27.3843],[88.04732,27.38962],[88.04846,27.39548],[88.05109,27.40057],[88.05112,27.40062],[88.04943,27.40517],[88.04942,27.40522],[88.05219,27.40691],[88.05322,27.41261],[88.05942,27.41804],[88.05946,27.41805],[88.06076,27.41822],[88.06913,27.42461],[88.06972,27.42501],[88.08262,27.42641],[88.08289,27.42953],[88.08213,27.43058],[88.08212,27.43072],[88.08199,27.43077],[88.08127,27.43177],[88.07542,27.43361],[88.07526,27.43378],[88.07052,27.43851],[88.0741,27.44385],[88.07506,27.44519],[88.07502,27.44522],[88.06982,27.44932],[88.06897,27.45215],[88.06812,27.45274],[88.06971,27.45762],[88.063,27.46085],[88.06274,27.46129],[88.05932,27.46721],[88.05873,27.46762],[88.0538,27.47154],[88.05251,27.47189],[88.04662,27.47841],[88.04781,27.48134],[88.0466,27.48471],[88.0472,27.49262],[88.0472,27.49266],[88.04633,27.49577],[88.04922,27.50121],[88.05343,27.5041],[88.05742,27.50431],[88.06012,27.50921],[88.06412,27.51182],[88.06002,27.51672],[88.06402,27.52512],[88.06984,27.52609],[88.06782,27.52932],[88.06613,27.52991],[88.06242,27.53122],[88.06206,27.53272],[88.06166,27.53463],[88.06163,27.53479],[88.06348,27.53973],[88.06351,27.53975],[88.06772,27.54452],[88.07121,27.5461],[88.07182,27.55555],[88.07862,27.55839],[88.07864,27.55842],[88.08362,27.56462],[88.08202,27.5681],[88.07782,27.57182],[88.08714,27.589],[88.09541,27.59731],[88.10822,27.60232],[88.11632,27.61035],[88.11688,27.61404],[88.12139,27.61158],[88.15815,27.60028],[88.20422,27.5815],[88.21243,27.5738],[88.2266,27.55726],[88.23232,27.54056],[88.2361,27.53498],[88.24262,27.5316],[88.25797,27.52591],[88.27631,27.51301],[88.27106,27.50932],[88.26614,27.50369],[88.26302,27.49823],[88.26076,27.48991],[88.26128,27.46191],[88.2694,27.41969],[88.26959,27.41199],[88.27399,27.40589]]]}}],"state":"Sikkim","source":"geohacker/india (Datameet-derived), Census 2011 boundaries"}