{"type":"FeatureCollection","features":[{"type":"Feature","properties":{"ID_0":105,"ISO":"IND","NAME_0":"India","ID_1":32,"NAME_1":"Tripura","ID_2":489,"NAME_2":"Dhalai","NL_NAME_2":null,"VARNAME_2":null,"TYPE_2":"District","ENGTYPE_2":"District","STATE":"Tripura","DISTRICT":"Dhalai"},"geometry":{"type":"Polygon","coordinates":[[[91.79111,24.22096],[91.79667,24.22058],[91.79993,24.22079],[91.80321,24.22102],[91.80482,24.21963],[91.80775,24.21935],[91.80993,24.21645],[91.81105,24.21394],[91.81556,24.20895],[91.81808,24.20919],[91.82193,24.211],[91.82661,24.21312],[91.83062,24.21434],[91.83076,24.21453],[91.83291,24.21758],[91.83741,24.2197],[91.8377,24.22422],[91.83991,24.22723],[91.84396,24.22909],[91.84749,24.22832],[91.84447,24.22557],[91.84284,24.22225],[91.84258,24.22174],[91.84354,24.22073],[91.8466,24.22049],[91.8514,24.22151],[91.85258,24.21877],[91.85478,24.21641],[91.85686,24.21418],[91.85322,24.2145],[91.85087,24.2147],[91.84914,24.21397],[91.84772,24.20696],[91.84872,24.20701],[91.85043,24.20709],[91.84999,24.20228],[91.84965,24.20198],[91.84743,24.19997],[91.84668,24.19994],[91.84467,24.20369],[91.84138,24.20164],[91.84175,24.19772],[91.847,24.19396],[91.85066,24.18963],[91.85229,24.18835],[91.85456,24.18615],[91.85505,24.18228],[91.85796,24.18148],[91.86253,24.18159],[91.86546,24.17895],[91.86929,24.17662],[91.87198,24.17411],[91.87265,24.17121],[91.87318,24.16574],[91.87461,24.16189],[91.87531,24.15716],[91.87729,24.15421],[91.87823,24.15056],[91.87853,24.14785],[91.88155,24.14544],[91.88325,24.14204],[91.88825,24.13703],[91.89186,24.13786],[91.89302,24.13878],[91.89447,24.13994],[91.89566,24.14001],[91.89851,24.13899],[91.90052,24.13826],[91.90216,24.13793],[91.90211,24.13669],[91.91354,24.11917],[91.91418,24.11498],[91.9122,24.11127],[91.92346,24.10261],[91.9317,24.09688],[91.93851,24.09473],[91.94389,24.09294],[91.9507,24.09007],[91.95679,24.08577],[91.96503,24.07716],[91.9679,24.07394],[91.97041,24.0725],[91.97902,24.07322],[91.98511,24.07788],[91.99156,24.08254],[92.00159,24.08792],[92.00697,24.09329],[92.0188,24.09437],[92.04353,24.1001],[92.05966,24.10369],[92.074,24.10655],[92.07771,24.10643],[92.07329,24.10015],[92.07221,24.09439],[92.07414,24.07665],[92.0715,24.06483],[92.07096,24.05337],[92.07485,24.04386],[92.07554,24.03939],[92.07439,24.03661],[92.06822,24.0337],[92.07243,24.02865],[92.07755,24.0188],[92.08016,24.01869],[92.08257,24.01951],[92.08479,24.02162],[92.089,24.01726],[92.09161,24.01034],[92.09374,24.00261],[92.09213,23.99632],[92.08914,23.99207],[92.09181,23.98331],[92.09174,23.97416],[92.09741,23.969],[92.09989,23.96384],[92.09793,23.95523],[92.09536,23.94938],[92.09263,23.94633],[92.09227,23.94458],[92.09362,23.93763],[92.09631,23.93681],[92.10281,23.93715],[92.10649,23.93559],[92.10887,23.93339],[92.11876,23.93138],[92.12878,23.93428],[92.13035,23.93363],[92.13344,23.9305],[92.13368,23.92813],[92.13648,23.92265],[92.13815,23.91729],[92.14046,23.90083],[92.14375,23.89474],[92.14736,23.891],[92.14816,23.88539],[92.15586,23.86238],[92.15869,23.85076],[92.1583,23.83891],[92.1567,23.83662],[92.15758,23.82969],[92.15749,23.81909],[92.15901,23.81382],[92.15887,23.7986],[92.16023,23.79475],[92.16074,23.78707],[92.1602,23.78171],[92.16145,23.7746],[92.16313,23.77124],[92.16104,23.76843],[92.16134,23.76715],[92.16014,23.76604],[92.15978,23.76121],[92.16182,23.75651],[92.16326,23.75583],[92.16986,23.75564],[92.17368,23.75358],[92.17593,23.7508],[92.17617,23.74895],[92.1747,23.74433],[92.17392,23.74277],[92.1718,23.74246],[92.16759,23.74144],[92.16308,23.73965],[92.1587,23.73757],[92.15519,23.73574],[92.15046,23.73249],[92.15002,23.73177],[92.14988,23.73154],[92.14876,23.72813],[92.14611,23.72153],[92.14215,23.71521],[92.14018,23.71364],[92.13734,23.71138],[92.13515,23.70977],[92.1326,23.70684],[92.13052,23.7048],[92.12985,23.70394],[92.12545,23.69815],[92.12135,23.6935],[92.1211,23.69322],[92.11708,23.68969],[92.11453,23.68706],[92.11274,23.68481],[92.11018,23.6816],[92.10936,23.68015],[92.10853,23.67867],[92.10589,23.67647],[92.10466,23.67602],[92.10391,23.67609],[92.10306,23.67592],[92.10098,23.67656],[92.10009,23.67708],[92.09902,23.6777],[92.09624,23.67948],[92.09464,23.67922],[92.09194,23.6778],[92.09065,23.67712],[92.0881,23.67284],[92.08638,23.66816],[92.08624,23.66701],[92.08544,23.66437],[92.08532,23.66342],[92.08535,23.66054],[92.08701,23.65748],[92.08703,23.65387],[92.0848,23.65082],[92.08355,23.64976],[92.08257,23.64895],[92.08136,23.64808],[92.07718,23.64576],[92.07599,23.64511],[92.07323,23.64486],[92.07257,23.64472],[92.07067,23.64465],[92.06695,23.64583],[92.06157,23.64743],[92.06063,23.6478],[92.05976,23.64814],[92.05413,23.65006],[92.04881,23.65261],[92.04594,23.65431],[92.04316,23.65596],[92.03863,23.66028],[92.03553,23.66166],[92.03145,23.66079],[92.02825,23.65855],[92.02678,23.6574],[92.02362,23.65764],[92.02312,23.65796],[92.02201,23.65938],[92.02223,23.66314],[92.01859,23.66491],[92.01633,23.66718],[92.01441,23.66911],[92.00952,23.67602],[92.00689,23.68159],[92.00198,23.68861],[92.00057,23.69462],[91.99771,23.70104],[91.99659,23.70476],[91.99228,23.71323],[91.98941,23.71968],[91.9848,23.72643],[91.98362,23.72974],[91.98049,23.7313],[91.97721,23.73149],[91.97095,23.73018],[91.96618,23.72975],[91.96427,23.72914],[91.96211,23.7277],[91.95932,23.72341],[91.95661,23.71901],[91.95668,23.71786],[91.95723,23.71588],[91.95827,23.71311],[91.95835,23.71007],[91.95666,23.70795],[91.95657,23.70715],[91.95653,23.70676],[91.95744,23.70386],[91.95755,23.70342],[91.95757,23.70329],[91.95774,23.7016],[91.95753,23.70036],[91.95733,23.69912],[91.95582,23.69706],[91.95434,23.694],[91.95209,23.69132],[91.95161,23.69092],[91.94954,23.68925],[91.94885,23.68877],[91.94837,23.68842],[91.9452,23.68614],[91.94412,23.68525],[91.94257,23.68329],[91.94231,23.68181],[91.94242,23.6814],[91.94373,23.6766],[91.94688,23.66817],[91.94995,23.65811],[91.95185,23.64694],[91.95156,23.63925],[91.95096,23.63287],[91.95213,23.62866],[91.95491,23.62368],[91.95667,23.61792],[91.95658,23.61429],[91.95642,23.60803],[91.95468,23.59594],[91.95312,23.59144],[91.951,23.58846],[91.95099,23.58636],[91.95213,23.58601],[91.95351,23.58646],[91.95413,23.58647],[91.95567,23.58717],[91.95682,23.58735],[91.95901,23.58633],[91.96236,23.58131],[91.96387,23.57883],[91.96358,23.57501],[91.96215,23.57159],[91.96142,23.57043],[91.96113,23.56944],[91.96048,23.56703],[91.96054,23.56655],[91.9608,23.56591],[91.96133,23.565],[91.96215,23.56401],[91.96255,23.56372],[91.96254,23.56264],[91.96253,23.56228],[91.9628,23.56009],[91.96288,23.55899],[91.96354,23.55665],[91.96395,23.55596],[91.96421,23.55565],[91.9656,23.55401],[91.96497,23.55119],[91.9648,23.55042],[91.96446,23.54759],[91.96336,23.54555],[91.96273,23.54355],[91.96239,23.54193],[91.96131,23.54008],[91.96094,23.53763],[91.963,23.53612],[91.96521,23.53451],[91.96606,23.53289],[91.96649,23.53096],[91.96789,23.52894],[91.9654,23.52807],[91.96494,23.52761],[91.96411,23.5278],[91.96319,23.52762],[91.96132,23.52729],[91.96115,23.52726],[91.95986,23.52561],[91.95984,23.52539],[91.95981,23.52504],[91.95956,23.52232],[91.95965,23.52021],[91.96055,23.51808],[91.96133,23.5162],[91.96466,23.51583],[91.96579,23.51522],[91.96811,23.51379],[91.96865,23.51241],[91.96872,23.51077],[91.96859,23.5097],[91.96899,23.50896],[91.97032,23.50827],[91.97188,23.50699],[91.97307,23.50591],[91.97423,23.50436],[91.97393,23.50304],[91.97245,23.50179],[91.97205,23.50067],[91.97176,23.49935],[91.97224,23.49789],[91.9727,23.49686],[91.97516,23.49617],[91.97606,23.49596],[91.97603,23.49498],[91.97551,23.49406],[91.97363,23.49275],[91.97305,23.49244],[91.97275,23.49061],[91.97387,23.48836],[91.97457,23.48656],[91.97459,23.48557],[91.97517,23.48244],[91.97331,23.48077],[91.97192,23.48105],[91.97039,23.48149],[91.96968,23.48157],[91.96695,23.48193],[91.96375,23.48208],[91.96234,23.47826],[91.95738,23.47743],[91.9566,23.47674],[91.95534,23.47576],[91.95425,23.47467],[91.95291,23.47333],[91.95223,23.47248],[91.95183,23.47037],[91.9485,23.47034],[91.94384,23.47009],[91.94181,23.46911],[91.94249,23.46638],[91.94204,23.46401],[91.94151,23.46146],[91.94139,23.46083],[91.94289,23.45764],[91.94387,23.4559],[91.94437,23.45456],[91.94468,23.4539],[91.94588,23.45045],[91.94627,23.44943],[91.94695,23.44768],[91.94711,23.44627],[91.94719,23.44405],[91.9468,23.4434],[91.94652,23.44293],[91.94632,23.44173],[91.94492,23.43977],[91.94287,23.43835],[91.94178,23.43759],[91.93862,23.43982],[91.93654,23.44091],[91.93382,23.43996],[91.93054,23.43963],[91.92901,23.44035],[91.92615,23.44161],[91.92508,23.44232],[91.92242,23.44296],[91.92039,23.44236],[91.91892,23.4417],[91.9157,23.44123],[91.9123,23.44083],[91.91065,23.4406],[91.90745,23.44211],[91.90351,23.44145],[91.90243,23.43965],[91.90216,23.43899],[91.90161,23.43816],[91.90106,23.43711],[91.89973,23.4383],[91.88576,23.44646],[91.87643,23.44879],[91.86711,23.45345],[91.86478,23.45811],[91.86595,23.46218],[91.86945,23.46801],[91.87061,23.47442],[91.86945,23.4785],[91.86478,23.48199],[91.85721,23.48316],[91.85197,23.48665],[91.84847,23.49248],[91.84439,23.49772],[91.83799,23.50238],[91.83158,23.50821],[91.83099,23.51403],[91.83099,23.51986],[91.82633,23.52685],[91.82051,23.53559],[91.81293,23.54607],[91.80653,23.55364],[91.8042,23.56297],[91.8042,23.57403],[91.80013,23.58335],[91.79779,23.59151],[91.79197,23.60141],[91.78963,23.60666],[91.78963,23.61423],[91.78963,23.62588],[91.7908,23.64394],[91.79021,23.67073],[91.7907,23.68953],[91.78884,23.68751],[91.78314,23.68882],[91.77875,23.69148],[91.77717,23.70191],[91.77482,23.70464],[91.77289,23.7069],[91.7757,23.71061],[91.77281,23.71933],[91.78696,23.74292],[91.77979,23.7504],[91.77395,23.77156],[91.77388,23.7815],[91.77813,23.79144],[91.77519,23.80016],[91.78231,23.80511],[91.78229,23.8076],[91.77657,23.80762],[91.77512,23.81135],[91.76791,23.82007],[91.76647,23.82381],[91.77076,23.82132],[91.77506,23.82006],[91.77791,23.8213],[91.7822,23.82004],[91.78213,23.82999],[91.78352,23.83496],[91.78349,23.8387],[91.78203,23.84493],[91.78339,23.85238],[91.78325,23.87104],[91.7846,23.87974],[91.786,23.88348],[91.77882,23.88971],[91.78019,23.89717],[91.77731,23.91211],[91.76163,23.91959],[91.76029,23.92831],[91.7661,23.93327],[91.76337,23.93701],[91.76219,23.94323],[91.76246,23.9482],[91.76138,23.95319],[91.75723,23.95444],[91.75457,23.95694],[91.75522,23.96316],[91.75724,23.96814],[91.75785,23.97312],[91.75716,23.97935],[91.75495,23.98683],[91.75813,24.00022],[91.75964,24.01105],[91.75909,24.01687],[91.76034,24.02179],[91.76054,24.02748],[91.75773,24.03286],[91.75653,24.03822],[91.75812,24.04567],[91.75703,24.0561],[91.75547,24.0622],[91.7574,24.06589],[91.75643,24.06917],[91.75159,24.07372],[91.75734,24.08923],[91.75779,24.09562],[91.75574,24.11421],[91.76106,24.13922],[91.75581,24.14279],[91.7612,24.14158],[91.76159,24.14227],[91.76223,24.14343],[91.76053,24.15199],[91.75898,24.16347],[91.75744,24.17024],[91.75706,24.17531],[91.75507,24.18308],[91.75465,24.18964],[91.75278,24.19717],[91.75237,24.20419],[91.74914,24.21831],[91.74347,24.24713],[91.7495,24.24431],[91.78458,24.22442],[91.7886,24.22209],[91.79111,24.22096]]]}},{"type":"Feature","properties":{"ID_0":105,"ISO":"IND","NAME_0":"India","ID_1":32,"NAME_1":"Tripura","ID_2":490,"NAME_2":"North Tripura","NL_NAME_2":null,"VARNAME_2":null,"TYPE_2":"District","ENGTYPE_2":"District","STATE":"Tripura","DISTRICT":"North Tripura"},"geometry":{"type":"Polygon","coordinates":[[[92.1852,24.52287],[92.18896,24.52019],[92.19126,24.52098],[92.19273,24.52147],[92.19427,24.51973],[92.19705,24.51658],[92.19987,24.51526],[92.19984,24.51119],[92.20725,24.50663],[92.21161,24.50933],[92.21248,24.50898],[92.21715,24.5072],[92.22031,24.50627],[92.22113,24.50295],[92.22148,24.50151],[92.23087,24.49963],[92.23094,24.50223],[92.231,24.50409],[92.23427,24.50044],[92.23462,24.49934],[92.23502,24.49817],[92.23541,24.49679],[92.23635,24.49433],[92.2366,24.49282],[92.23942,24.48993],[92.23384,24.48471],[92.23029,24.48004],[92.2289,24.47198],[92.23117,24.46544],[92.23109,24.46038],[92.23231,24.45845],[92.2351,24.45641],[92.23594,24.45378],[92.23602,24.45022],[92.2392,24.44727],[92.2565,24.4363],[92.25748,24.43252],[92.25596,24.41898],[92.25934,24.41351],[92.26271,24.40982],[92.26324,24.4081],[92.26263,24.40482],[92.26421,24.39758],[92.26984,24.39485],[92.27043,24.39095],[92.27309,24.38845],[92.27269,24.3862],[92.26988,24.3822],[92.2725,24.37935],[92.27224,24.37757],[92.26826,24.37481],[92.26757,24.37325],[92.26813,24.36728],[92.26408,24.36216],[92.21285,24.24931],[92.24053,24.25061],[92.25958,24.25042],[92.28478,24.25204],[92.29183,24.25127],[92.29661,24.25173],[92.2971,24.24954],[92.2953,24.24801],[92.29407,24.24432],[92.29485,24.24071],[92.29682,24.23808],[92.29628,24.23606],[92.29631,24.23383],[92.29947,24.23162],[92.29917,24.22937],[92.29763,24.22723],[92.30193,24.2251],[92.30116,24.22451],[92.30088,24.22204],[92.30341,24.22162],[92.31375,24.2229],[92.3136,24.22113],[92.30967,24.21612],[92.30975,24.2148],[92.31274,24.21099],[92.31609,24.21322],[92.31899,24.209],[92.32461,24.20579],[92.32481,24.20471],[92.3202,24.2043],[92.32022,24.20258],[92.32515,24.19902],[92.32557,24.19754],[92.32471,24.19631],[92.32476,24.19476],[92.32945,24.19115],[92.32884,24.18913],[92.32961,24.18815],[92.32704,24.18611],[92.33041,24.18483],[92.3308,24.18207],[92.32999,24.18005],[92.32993,24.17465],[92.32856,24.16611],[92.32947,24.16452],[92.33185,24.16357],[92.33435,24.15083],[92.33684,24.14679],[92.33631,24.14436],[92.3353,24.14355],[92.33353,24.14433],[92.33228,24.14403],[92.33231,24.14046],[92.32925,24.13985],[92.32825,24.13862],[92.32816,24.13517],[92.32925,24.13162],[92.32878,24.12972],[92.33104,24.12797],[92.32825,24.12459],[92.32859,24.11591],[92.3317,24.11314],[92.33189,24.11176],[92.32932,24.11034],[92.33236,24.10681],[92.33231,24.10527],[92.32944,24.10287],[92.32971,24.10115],[92.32835,24.0986],[92.33155,24.09875],[92.33019,24.09598],[92.32792,24.09377],[92.32878,24.08912],[92.32812,24.08502],[92.32908,24.08216],[92.32808,24.08059],[92.32282,24.07748],[92.32288,24.07696],[92.32702,24.07644],[92.32733,24.0745],[92.32365,24.07329],[92.32288,24.07179],[92.32332,24.06961],[92.3213,24.06837],[92.31918,24.0695],[92.31818,24.06908],[92.3168,24.06676],[92.31909,24.06133],[92.32175,24.05872],[92.3186,24.0573],[92.32032,24.05117],[92.31905,24.05012],[92.31683,24.05135],[92.31527,24.04869],[92.31542,24.0449],[92.31754,24.03952],[92.3172,24.0375],[92.31413,24.03471],[92.31932,24.03128],[92.31927,24.03024],[92.3167,24.02797],[92.3191,24.02547],[92.31834,24.02259],[92.32172,24.01878],[92.32088,24.01791],[92.31886,24.0192],[92.31748,24.0189],[92.31716,24.01763],[92.32465,24.00653],[92.32746,24.00421],[92.32724,24.00192],[92.32906,23.98965],[92.3258,23.98747],[92.32772,23.98573],[92.32779,23.9847],[92.32552,23.98326],[92.32412,23.97946],[92.32275,23.97981],[92.32207,23.97525],[92.31964,23.97532],[92.31768,23.9721],[92.31499,23.97217],[92.31522,23.97095],[92.31263,23.97021],[92.31334,23.96097],[92.31145,23.96058],[92.31262,23.95745],[92.31123,23.94562],[92.31341,23.94329],[92.31271,23.94123],[92.3134,23.93453],[92.31808,23.93035],[92.32117,23.92611],[92.32792,23.924],[92.32968,23.92312],[92.33066,23.92145],[92.32939,23.91886],[92.33115,23.9118],[92.33049,23.90759],[92.32986,23.90552],[92.32774,23.90627],[92.32578,23.90443],[92.3236,23.90468],[92.32303,23.90416],[92.32157,23.8914],[92.32069,23.89124],[92.31991,23.88987],[92.31918,23.89073],[92.3185,23.89049],[92.31899,23.88917],[92.31828,23.88796],[92.31953,23.8861],[92.31933,23.88368],[92.31713,23.88409],[92.31626,23.88329],[92.31656,23.88167],[92.3175,23.88138],[92.31711,23.87918],[92.31903,23.87768],[92.32041,23.87801],[92.32214,23.87379],[92.32198,23.86981],[92.31853,23.86798],[92.31822,23.86705],[92.3202,23.86583],[92.31957,23.8652],[92.31554,23.86349],[92.30986,23.86264],[92.3073,23.86387],[92.30423,23.86382],[92.30064,23.86644],[92.29505,23.86548],[92.29514,23.87011],[92.29391,23.87132],[92.29197,23.87145],[92.2878,23.86696],[92.28778,23.86303],[92.28524,23.85733],[92.27657,23.85292],[92.27475,23.84906],[92.27414,23.84361],[92.27393,23.84166],[92.27589,23.83993],[92.27709,23.83658],[92.28207,23.8309],[92.28159,23.82616],[92.2836,23.8242],[92.28345,23.82344],[92.28571,23.82262],[92.28679,23.81678],[92.28584,23.81569],[92.28373,23.81627],[92.28077,23.81513],[92.27911,23.8167],[92.27666,23.81521],[92.26948,23.81778],[92.2594,23.81499],[92.26065,23.80708],[92.26234,23.80488],[92.26355,23.79974],[92.26374,23.79165],[92.2678,23.76997],[92.26803,23.76651],[92.26711,23.7619],[92.26827,23.7564],[92.26635,23.73873],[92.2685,23.72861],[92.26748,23.72856],[92.26516,23.7282],[92.262,23.7271],[92.25919,23.72696],[92.2566,23.72726],[92.2558,23.72727],[92.25181,23.72652],[92.2492,23.72513],[92.24745,23.7241],[92.24565,23.72015],[92.24316,23.71657],[92.24147,23.71363],[92.24115,23.7106],[92.24052,23.70842],[92.24079,23.70614],[92.24252,23.7043],[92.24274,23.70378],[92.24446,23.69992],[92.2449,23.69852],[92.24614,23.69592],[92.24622,23.69581],[92.24703,23.69469],[92.24691,23.69176],[92.24419,23.68999],[92.24236,23.68891],[92.24218,23.6865],[92.24194,23.68538],[92.24174,23.68457],[92.24022,23.68301],[92.2396,23.68248],[92.2395,23.68092],[92.23955,23.68028],[92.23904,23.67937],[92.23895,23.67921],[92.23864,23.67866],[92.23752,23.67678],[92.23747,23.67552],[92.23806,23.67236],[92.23814,23.67027],[92.23496,23.6675],[92.23256,23.66361],[92.22953,23.66044],[92.22844,23.65919],[92.22405,23.65732],[92.22025,23.65856],[92.21649,23.661],[92.21294,23.6642],[92.21299,23.66497],[92.21341,23.67083],[92.21529,23.67532],[92.21578,23.67837],[92.21572,23.67939],[92.21607,23.68065],[92.21609,23.68347],[92.21628,23.6867],[92.21679,23.69084],[92.21754,23.69144],[92.21819,23.69197],[92.21773,23.69519],[92.21477,23.69807],[92.21263,23.70045],[92.21158,23.70162],[92.20796,23.70418],[92.20403,23.70656],[92.20335,23.70697],[92.20092,23.70702],[92.19918,23.70706],[92.19707,23.70946],[92.1968,23.70964],[92.1939,23.71161],[92.19256,23.7115],[92.19102,23.71026],[92.19083,23.7101],[92.19005,23.71003],[92.18844,23.70988],[92.18802,23.71002],[92.18655,23.71052],[92.18443,23.71429],[92.18337,23.71816],[92.18007,23.72142],[92.17939,23.72614],[92.17887,23.7324],[92.17956,23.73434],[92.17994,23.73873],[92.181,23.74155],[92.18033,23.7425],[92.17945,23.74318],[92.17792,23.74346],[92.17636,23.74313],[92.17392,23.74277],[92.1747,23.74433],[92.17617,23.74895],[92.17593,23.7508],[92.17368,23.75358],[92.16986,23.75564],[92.16326,23.75583],[92.16182,23.75651],[92.15978,23.76121],[92.16014,23.76604],[92.16134,23.76715],[92.16104,23.76843],[92.16313,23.77124],[92.16145,23.7746],[92.1602,23.78171],[92.16074,23.78707],[92.16023,23.79475],[92.15887,23.7986],[92.15901,23.81382],[92.15749,23.81909],[92.15758,23.82969],[92.1567,23.83662],[92.1583,23.83891],[92.15869,23.85076],[92.15586,23.86238],[92.14816,23.88539],[92.14736,23.891],[92.14375,23.89474],[92.14046,23.90083],[92.13815,23.91729],[92.13648,23.92265],[92.13368,23.92813],[92.13344,23.9305],[92.13035,23.93363],[92.12878,23.93428],[92.11876,23.93138],[92.10887,23.93339],[92.10649,23.93559],[92.10281,23.93715],[92.09631,23.93681],[92.09362,23.93763],[92.09227,23.94458],[92.09263,23.94633],[92.09536,23.94938],[92.09793,23.95523],[92.09989,23.96384],[92.09741,23.969],[92.09174,23.97416],[92.09181,23.98331],[92.08914,23.99207],[92.09213,23.99632],[92.09374,24.00261],[92.09161,24.01034],[92.089,24.01726],[92.08479,24.02162],[92.08257,24.01951],[92.08016,24.01869],[92.07755,24.0188],[92.07243,24.02865],[92.06822,24.0337],[92.07439,24.03661],[92.07554,24.03939],[92.07485,24.04386],[92.07096,24.05337],[92.0715,24.06483],[92.07414,24.07665],[92.07221,24.09439],[92.07329,24.10015],[92.07771,24.10643],[92.074,24.10655],[92.05966,24.10369],[92.04353,24.1001],[92.0188,24.09437],[92.00697,24.09329],[92.00159,24.08792],[91.99156,24.08254],[91.98511,24.07788],[91.97902,24.07322],[91.97041,24.0725],[91.9679,24.07394],[91.96503,24.07716],[91.95679,24.08577],[91.9507,24.09007],[91.94389,24.09294],[91.93851,24.09473],[91.9317,24.09688],[91.92346,24.10261],[91.9122,24.11127],[91.91418,24.11498],[91.91354,24.11917],[91.90211,24.13669],[91.90216,24.13793],[91.90263,24.13784],[91.90601,24.14024],[91.90987,24.14227],[91.91128,24.14537],[91.91132,24.14755],[91.9099,24.15019],[91.91168,24.15322],[91.9127,24.15496],[91.9125,24.15812],[91.91428,24.16012],[91.91473,24.16372],[91.91485,24.1674],[91.91302,24.16957],[91.91193,24.17169],[91.9221,24.20378],[91.92777,24.22273],[91.93221,24.23949],[91.93714,24.2537],[91.94186,24.26758],[91.94109,24.27065],[91.9345,24.29117],[91.92921,24.3078],[91.92493,24.32083],[91.92043,24.33575],[91.92608,24.33725],[91.9267,24.33766],[91.93057,24.34022],[91.93598,24.34197],[91.94033,24.34353],[91.94157,24.34539],[91.9421,24.34616],[91.94366,24.3485],[91.94828,24.35045],[91.95258,24.35366],[91.95711,24.35625],[91.95759,24.35593],[91.96614,24.35032],[91.97108,24.34875],[91.97173,24.348],[91.97404,24.34536],[91.9754,24.34146],[91.97498,24.34123],[91.97083,24.339],[91.97452,24.33156],[91.9791,24.33179],[91.98284,24.33112],[91.98608,24.32605],[91.99121,24.32338],[91.99543,24.32126],[91.99767,24.32353],[91.99627,24.32789],[91.99612,24.32941],[91.99586,24.33204],[91.9995,24.33447],[91.99831,24.33929],[91.99289,24.34346],[91.98909,24.34648],[91.98623,24.35061],[91.98355,24.35462],[91.97997,24.35798],[91.98153,24.36021],[91.98494,24.36077],[91.9818,24.36439],[91.97937,24.36707],[91.97806,24.37074],[91.97356,24.37115],[91.97186,24.37449],[91.96963,24.37877],[91.96658,24.37923],[91.96458,24.38184],[91.9669,24.38438],[91.9702,24.38631],[91.9704,24.38643],[91.97409,24.38864],[91.9771,24.38615],[91.97824,24.3852],[91.97844,24.38054],[91.98164,24.37927],[91.98407,24.37659],[91.98637,24.3761],[91.98534,24.38171],[91.98587,24.38436],[91.9861,24.38546],[91.98979,24.38894],[91.99366,24.38738],[91.99409,24.38721],[91.99857,24.39111],[92.00005,24.39203],[92.00092,24.39067],[92.00384,24.38884],[92.00668,24.38677],[92.00668,24.38303],[92.01013,24.38198],[92.01292,24.38365],[92.01787,24.38472],[92.02167,24.38302],[92.02502,24.38002],[92.02832,24.37948],[92.03201,24.38041],[92.03434,24.37947],[92.03509,24.37959],[92.03732,24.37993],[92.04095,24.37853],[92.04112,24.37841],[92.04458,24.37596],[92.04857,24.37683],[92.0563,24.37601],[92.06419,24.37575],[92.07189,24.37533],[92.07521,24.37585],[92.07619,24.37601],[92.0804,24.37585],[92.08273,24.37664],[92.08371,24.37697],[92.08509,24.37584],[92.08575,24.37529],[92.08904,24.37342],[92.09367,24.37428],[92.09655,24.37548],[92.09993,24.3785],[92.10004,24.37861],[92.10309,24.3828],[92.10532,24.38351],[92.10821,24.38213],[92.11193,24.38272],[92.11597,24.3844],[92.11921,24.38381],[92.12372,24.3873],[92.12383,24.39045],[92.12167,24.39232],[92.123,24.39502],[92.12542,24.39707],[92.12793,24.39919],[92.12963,24.40285],[92.13184,24.40419],[92.13269,24.40611],[92.13581,24.40817],[92.13755,24.41022],[92.13571,24.41334],[92.1357,24.41552],[92.13697,24.41882],[92.13752,24.42027],[92.13913,24.42445],[92.14046,24.42461],[92.14278,24.42488],[92.14796,24.42421],[92.15216,24.42518],[92.15573,24.42642],[92.156,24.42637],[92.1598,24.42487],[92.16377,24.42172],[92.16687,24.42211],[92.16758,24.42307],[92.17005,24.42646],[92.17167,24.42908],[92.1728,24.43089],[92.17044,24.43265],[92.16952,24.43352],[92.16602,24.43679],[92.16314,24.4392],[92.16282,24.44381],[92.16521,24.44563],[92.16681,24.44686],[92.16452,24.45212],[92.16445,24.45551],[92.16283,24.45621],[92.16064,24.45716],[92.15977,24.4596],[92.15779,24.46038],[92.15765,24.46077],[92.15781,24.46278],[92.15967,24.46592],[92.15994,24.46611],[92.16352,24.46864],[92.16096,24.47138],[92.15971,24.47283],[92.1597,24.4731],[92.15936,24.47466],[92.15944,24.47696],[92.15878,24.47735],[92.15513,24.47954],[92.15383,24.48356],[92.15307,24.48812],[92.1562,24.48914],[92.1563,24.48972],[92.15704,24.4941],[92.15643,24.49822],[92.15528,24.49881],[92.1524,24.50027],[92.1541,24.5042],[92.1544,24.50489],[92.15606,24.50764],[92.16058,24.50774],[92.16146,24.5123],[92.15913,24.51325],[92.15606,24.5159],[92.15542,24.51821],[92.15511,24.51932],[92.15588,24.52423],[92.15783,24.52485],[92.16132,24.52597],[92.16335,24.52813],[92.16418,24.52901],[92.16652,24.52938],[92.16971,24.53142],[92.17336,24.53397],[92.17758,24.53064],[92.17954,24.52855],[92.17917,24.52658],[92.17858,24.52348],[92.1815,24.52302],[92.1852,24.52287]]]}},{"type":"Feature","properties":{"ID_0":105,"ISO":"IND","NAME_0":"India","ID_1":32,"NAME_1":"Tripura","ID_2":491,"NAME_2":"South Tripura","NL_NAME_2":null,"VARNAME_2":null,"TYPE_2":"District","ENGTYPE_2":"District","STATE":"Tripura","DISTRICT":"South Tripura"},"geometry":{"type":"Polygon","coordinates":[[[91.71289,23.76261],[91.71434,23.75514],[91.7172,23.75389],[91.72008,23.74517],[91.73009,23.73892],[91.73151,23.73892],[91.73724,23.73391],[91.73727,23.72895],[91.73869,23.72521],[91.74155,23.72396],[91.74157,23.71774],[91.73874,23.71029],[91.73019,23.70285],[91.72734,23.69665],[91.72878,23.69417],[91.73306,23.6929],[91.73735,23.68915],[91.74023,23.68292],[91.74594,23.67793],[91.74738,23.67046],[91.75165,23.67418],[91.75451,23.67789],[91.75879,23.68037],[91.76019,23.68285],[91.76298,23.68332],[91.77448,23.68529],[91.77875,23.69148],[91.78314,23.68882],[91.78884,23.68751],[91.7907,23.68953],[91.79021,23.67073],[91.7908,23.64394],[91.78963,23.62588],[91.78963,23.61423],[91.78963,23.60666],[91.79197,23.60141],[91.79779,23.59151],[91.80013,23.58335],[91.8042,23.57403],[91.8042,23.56297],[91.80653,23.55364],[91.81293,23.54607],[91.82051,23.53559],[91.82633,23.52685],[91.83099,23.51986],[91.83099,23.51403],[91.83158,23.50821],[91.83799,23.50238],[91.84439,23.49772],[91.84847,23.49248],[91.85197,23.48665],[91.85721,23.48316],[91.86478,23.48199],[91.86945,23.4785],[91.87061,23.47442],[91.86945,23.46801],[91.86595,23.46218],[91.86478,23.45811],[91.86711,23.45345],[91.87643,23.44879],[91.88576,23.44646],[91.89973,23.4383],[91.90106,23.43711],[91.90043,23.43591],[91.89779,23.4349],[91.89664,23.43563],[91.89498,23.43585],[91.89402,23.43576],[91.89271,23.43529],[91.8918,23.43332],[91.89163,23.43295],[91.89057,23.4307],[91.88998,23.42993],[91.88705,23.42682],[91.88226,23.4233],[91.8821,23.42328],[91.88027,23.4231],[91.87893,23.4213],[91.8773,23.41917],[91.87558,23.4179],[91.87239,23.41475],[91.86682,23.41176],[91.86527,23.41007],[91.86317,23.40857],[91.86028,23.40708],[91.85615,23.40525],[91.85502,23.40477],[91.85046,23.40277],[91.84736,23.40023],[91.84393,23.39652],[91.8421,23.39385],[91.84321,23.39233],[91.84417,23.39087],[91.84275,23.38889],[91.84024,23.3865],[91.83813,23.38449],[91.83821,23.3827],[91.83955,23.38196],[91.84126,23.38079],[91.84397,23.38037],[91.8419,23.37783],[91.84054,23.37615],[91.8374,23.37226],[91.83436,23.36887],[91.83194,23.36617],[91.83065,23.36517],[91.82697,23.36221],[91.82373,23.35722],[91.82145,23.35109],[91.81848,23.34803],[91.81835,23.34789],[91.81669,23.34595],[91.81449,23.34442],[91.81343,23.34361],[91.81054,23.34155],[91.80822,23.33866],[91.80516,23.33264],[91.80252,23.32878],[91.79874,23.32235],[91.79597,23.31747],[91.79531,23.31637],[91.79162,23.31054],[91.79203,23.31237],[91.79026,23.3091],[91.78988,23.30802],[91.78933,23.30637],[91.78839,23.30419],[91.7881,23.30351],[91.78677,23.30063],[91.7863,23.29962],[91.78534,23.29863],[91.78525,23.29854],[91.78305,23.29402],[91.78232,23.29191],[91.78177,23.29075],[91.78106,23.28849],[91.78021,23.28779],[91.7798,23.28708],[91.77941,23.28677],[91.77818,23.28513],[91.77687,23.28247],[91.77615,23.28007],[91.77576,23.27948],[91.77485,23.27806],[91.77481,23.27603],[91.77482,23.27289],[91.77278,23.27009],[91.77348,23.26816],[91.77247,23.26574],[91.77091,23.26376],[91.77165,23.26122],[91.77294,23.25635],[91.77325,23.25389],[91.77277,23.25136],[91.77321,23.24932],[91.77508,23.24587],[91.77732,23.24291],[91.77852,23.24084],[91.78301,23.23765],[91.78725,23.23345],[91.79201,23.22945],[91.79217,23.22931],[91.79202,23.2291],[91.79187,23.22887],[91.79159,23.22871],[91.79094,23.22667],[91.79059,23.22457],[91.78989,23.22297],[91.78954,23.22166],[91.78754,23.22036],[91.78868,23.21882],[91.78798,23.21855],[91.78741,23.21765],[91.78739,23.21728],[91.78781,23.21585],[91.78843,23.21448],[91.78692,23.21122],[91.78556,23.20784],[91.78644,23.20768],[91.78782,23.20807],[91.78943,23.20899],[91.79137,23.21044],[91.79211,23.20968],[91.79274,23.20904],[91.79285,23.20848],[91.79299,23.2078],[91.79347,23.20564],[91.7939,23.20137],[91.79497,23.20014],[91.79615,23.19946],[91.79687,23.19856],[91.79715,23.19791],[91.79941,23.19668],[91.80012,23.19256],[91.79994,23.19205],[91.7993,23.19022],[91.79897,23.18922],[91.79872,23.18697],[91.80019,23.1854],[91.80063,23.18344],[91.80156,23.18179],[91.80037,23.18039],[91.79969,23.17957],[91.79976,23.17853],[91.80106,23.17648],[91.80247,23.1737],[91.80407,23.17178],[91.80582,23.17029],[91.80704,23.16899],[91.80735,23.16667],[91.80735,23.16456],[91.80685,23.16349],[91.80669,23.16242],[91.80576,23.16004],[91.80571,23.15861],[91.80658,23.15787],[91.80712,23.15757],[91.80791,23.15686],[91.80913,23.15684],[91.8114,23.15482],[91.81174,23.15451],[91.81341,23.15089],[91.81338,23.14998],[91.81409,23.14732],[91.81435,23.14193],[91.81452,23.13872],[91.81271,23.13277],[91.81208,23.13069],[91.81367,23.1297],[91.8138,23.12961],[91.81501,23.12938],[91.81556,23.12938],[91.81675,23.12897],[91.81669,23.12829],[91.81782,23.12768],[91.81732,23.12611],[91.81632,23.12481],[91.81616,23.12363],[91.81505,23.12273],[91.81354,23.12148],[91.81386,23.11858],[91.81572,23.11882],[91.81601,23.11912],[91.81743,23.1206],[91.81818,23.1217],[91.81875,23.12222],[91.81995,23.12303],[91.82086,23.12266],[91.82086,23.1224],[91.82086,23.12222],[91.82089,23.12089],[91.82069,23.11833],[91.81948,23.11593],[91.81887,23.11468],[91.81843,23.11376],[91.81797,23.11226],[91.81852,23.11184],[91.81986,23.11179],[91.82117,23.11174],[91.82263,23.11165],[91.82293,23.11067],[91.82313,23.11015],[91.8232,23.1089],[91.82455,23.10733],[91.82504,23.10673],[91.82455,23.10564],[91.82399,23.10446],[91.82308,23.10379],[91.82266,23.10349],[91.8223,23.10276],[91.8229,23.10206],[91.82308,23.1015],[91.82331,23.10082],[91.82426,23.10034],[91.82516,23.09989],[91.82693,23.10015],[91.8295,23.10068],[91.83166,23.10006],[91.83264,23.09875],[91.83449,23.09658],[91.83543,23.09543],[91.8355,23.09391],[91.83452,23.09188],[91.83382,23.09133],[91.83221,23.08956],[91.83062,23.08933],[91.8299,23.08922],[91.82823,23.08541],[91.82758,23.08493],[91.82573,23.08391],[91.82481,23.08462],[91.82408,23.08606],[91.82289,23.08629],[91.82213,23.08534],[91.82134,23.08288],[91.82298,23.08142],[91.82467,23.08032],[91.82474,23.07835],[91.82338,23.07566],[91.81978,23.07459],[91.81654,23.07377],[91.81618,23.0706],[91.81532,23.07078],[91.81513,23.06985],[91.8129,23.07109],[91.81256,23.07129],[91.80957,23.06955],[91.80891,23.06904],[91.80695,23.06755],[91.80589,23.06745],[91.80511,23.06701],[91.79979,23.06568],[91.79622,23.0657],[91.79537,23.06571],[91.79528,23.06582],[91.79457,23.06664],[91.79368,23.06768],[91.79405,23.0693],[91.79422,23.07003],[91.7939,23.07049],[91.7937,23.07079],[91.79304,23.071],[91.78779,23.07266],[91.78761,23.07249],[91.78666,23.07102],[91.78596,23.06959],[91.78588,23.07007],[91.78522,23.07069],[91.78444,23.07008],[91.78276,23.06927],[91.78252,23.06919],[91.78134,23.06881],[91.78036,23.06853],[91.77846,23.06666],[91.77797,23.06493],[91.77887,23.06277],[91.78023,23.06126],[91.7803,23.05968],[91.77998,23.05892],[91.77981,23.05849],[91.78043,23.05637],[91.78246,23.05327],[91.78296,23.05283],[91.78475,23.05121],[91.78675,23.04894],[91.78732,23.04576],[91.78741,23.04209],[91.78698,23.04028],[91.78703,23.03665],[91.78575,23.03347],[91.78504,23.03171],[91.78378,23.03155],[91.78326,23.03148],[91.78048,23.03112],[91.77756,23.03636],[91.77747,23.03792],[91.77729,23.04113],[91.77648,23.04418],[91.776,23.04482],[91.77542,23.04549],[91.77338,23.04406],[91.77278,23.04296],[91.77388,23.04085],[91.77435,23.03996],[91.77435,23.03976],[91.77434,23.03721],[91.77124,23.03678],[91.76631,23.02927],[91.76071,23.02525],[91.75844,23.02072],[91.75605,23.01562],[91.75112,23.01004],[91.74632,23.00662],[91.74571,23.00619],[91.74157,23.00511],[91.73924,23.00463],[91.73368,23.00134],[91.72894,22.99755],[91.72811,22.99689],[91.7274,22.99489],[91.72731,22.99456],[91.72707,22.99373],[91.72691,22.99263],[91.72614,22.98983],[91.72558,22.98932],[91.72404,22.98871],[91.72338,22.98973],[91.72128,22.98877],[91.72048,22.98822],[91.71952,22.98979],[91.71878,22.9915],[91.71722,22.99463],[91.71507,22.99691],[91.71087,22.99779],[91.71001,22.9982],[91.70523,23.00048],[91.70073,23.00085],[91.69834,23.00264],[91.6959,23.00077],[91.6937,22.99843],[91.69203,22.99693],[91.69149,22.99581],[91.691,22.99436],[91.69056,22.9933],[91.69152,22.992],[91.6885,22.98794],[91.68562,22.98786],[91.68171,22.99002],[91.68283,22.99454],[91.68266,22.99573],[91.682,22.99616],[91.6804,22.9959],[91.67966,22.99469],[91.68029,22.99353],[91.68028,22.99232],[91.67899,22.99129],[91.67799,22.99121],[91.67544,22.98789],[91.67103,22.98768],[91.66676,22.98781],[91.66584,22.99057],[91.66325,22.99056],[91.66224,22.99002],[91.66294,22.98941],[91.66055,22.98808],[91.65793,22.98682],[91.65704,22.98667],[91.65647,22.98821],[91.65621,22.98994],[91.65589,22.99037],[91.65541,22.99105],[91.65272,22.99186],[91.65214,22.99195],[91.65151,22.99069],[91.65146,22.9887],[91.65156,22.98764],[91.65163,22.98695],[91.65174,22.9865],[91.65442,22.98588],[91.65268,22.9831],[91.65013,22.97989],[91.64603,22.97885],[91.64579,22.97808],[91.64406,22.97635],[91.64208,22.97414],[91.64157,22.97325],[91.64072,22.97215],[91.63943,22.97068],[91.63726,22.96977],[91.6366,22.96756],[91.63449,22.96754],[91.6336,22.96642],[91.63438,22.96468],[91.6333,22.96296],[91.63123,22.96135],[91.62834,22.96119],[91.62742,22.96016],[91.62733,22.95941],[91.62792,22.95795],[91.62896,22.95687],[91.62757,22.95494],[91.62533,22.95251],[91.62426,22.95131],[91.62356,22.94804],[91.61893,22.94433],[91.61871,22.94415],[91.61854,22.94435],[91.61668,22.94649],[91.61899,22.94999],[91.61821,22.95276],[91.61629,22.95484],[91.61882,22.95672],[91.61887,22.95684],[91.61942,22.95789],[91.61961,22.95888],[91.61924,22.95977],[91.61786,22.96],[91.61585,22.95934],[91.61523,22.95898],[91.615,22.95885],[91.61131,22.95485],[91.60927,22.95604],[91.60874,22.95634],[91.6067,22.95604],[91.60485,22.95604],[91.60522,22.9578],[91.60663,22.95885],[91.60572,22.95993],[91.60665,22.9618],[91.60725,22.9633],[91.60843,22.96475],[91.60853,22.96479],[91.60998,22.96555],[91.61068,22.9659],[91.60974,22.96599],[91.6091,22.96605],[91.60869,22.96658],[91.60738,22.96834],[91.60744,22.96844],[91.60836,22.97004],[91.61093,22.97137],[91.612,22.97192],[91.61196,22.97335],[91.6106,22.97363],[91.60949,22.97334],[91.60768,22.97285],[91.60732,22.9736],[91.60696,22.97459],[91.60688,22.97468],[91.60652,22.97509],[91.60639,22.97494],[91.60385,22.9719],[91.60324,22.97157],[91.59964,22.96961],[91.5974,22.97028],[91.59711,22.97037],[91.59677,22.97047],[91.5974,22.97252],[91.59822,22.97516],[91.59752,22.97578],[91.5974,22.97574],[91.59553,22.97504],[91.59455,22.97351],[91.59347,22.97169],[91.59238,22.97036],[91.59033,22.96955],[91.58977,22.9683],[91.58742,22.96397],[91.58335,22.96322],[91.58331,22.96382],[91.58073,22.96596],[91.57572,22.96846],[91.56776,22.97229],[91.56591,22.97441],[91.56422,22.97541],[91.5628,22.97645],[91.56279,22.97863],[91.5628,22.97904],[91.56268,22.98299],[91.56287,22.98615],[91.56249,22.98871],[91.5626,22.98968],[91.55989,22.99212],[91.55913,22.9928],[91.55278,22.99254],[91.54889,22.99476],[91.54845,22.99552],[91.54775,22.99759],[91.54717,22.99876],[91.54684,22.99943],[91.54716,23.00106],[91.54731,23.00179],[91.54904,23.00625],[91.55085,23.00963],[91.55222,23.01297],[91.55328,23.01576],[91.54988,23.01538],[91.54549,23.01488],[91.5464,23.01736],[91.54408,23.01787],[91.5462,23.02095],[91.54629,23.02112],[91.54893,23.02571],[91.55175,23.02951],[91.55405,23.03222],[91.5543,23.03295],[91.5542,23.03378],[91.55031,23.03396],[91.54764,23.03409],[91.53851,23.03472],[91.53853,23.03571],[91.53573,23.03877],[91.53674,23.04083],[91.53701,23.04216],[91.53736,23.04386],[91.53925,23.04769],[91.5414,23.05042],[91.53803,23.05143],[91.53696,23.05175],[91.53226,23.05312],[91.53117,23.05326],[91.53,23.05343],[91.52858,23.05364],[91.52952,23.05552],[91.53094,23.05726],[91.53279,23.05805],[91.53292,23.05811],[91.53339,23.05827],[91.53384,23.0585],[91.53629,23.05974],[91.53745,23.05947],[91.53929,23.06206],[91.53854,23.06322],[91.53789,23.06529],[91.53636,23.06862],[91.53583,23.06919],[91.53453,23.07055],[91.53379,23.07454],[91.53372,23.0749],[91.53352,23.07523],[91.53304,23.07645],[91.53126,23.07933],[91.53109,23.08121],[91.53262,23.08375],[91.53411,23.08426],[91.53528,23.08705],[91.53383,23.08925],[91.53375,23.08953],[91.53381,23.08966],[91.53371,23.0897],[91.53319,23.09154],[91.53084,23.0914],[91.52855,23.09182],[91.52636,23.09225],[91.52516,23.09341],[91.52484,23.09514],[91.52584,23.0967],[91.52607,23.09707],[91.52649,23.10041],[91.52458,23.10074],[91.52243,23.10112],[91.52133,23.10237],[91.51902,23.10254],[91.51756,23.10316],[91.51613,23.10483],[91.51594,23.10505],[91.5155,23.10556],[91.51603,23.10779],[91.51713,23.11043],[91.51728,23.1106],[91.51913,23.11266],[91.52221,23.11238],[91.52352,23.11425],[91.52215,23.11685],[91.52109,23.11808],[91.52077,23.11973],[91.51486,23.12492],[91.51373,23.12537],[91.51175,23.12545],[91.51012,23.12624],[91.50971,23.12648],[91.50891,23.12721],[91.50954,23.12971],[91.5118,23.13201],[91.51425,23.13321],[91.51682,23.13544],[91.52172,23.1391],[91.52042,23.13921],[91.51569,23.13656],[91.5121,23.13731],[91.50904,23.13796],[91.50633,23.14122],[91.50397,23.14159],[91.50263,23.14327],[91.50277,23.14513],[91.505,23.1468],[91.50563,23.14753],[91.50616,23.14812],[91.50845,23.14933],[91.51029,23.15059],[91.50672,23.14989],[91.50531,23.14999],[91.50184,23.15027],[91.50146,23.15082],[91.4996,23.15051],[91.4983,23.15081],[91.4975,23.15309],[91.49743,23.15331],[91.4976,23.15591],[91.49828,23.15894],[91.50098,23.16102],[91.5031,23.16481],[91.50379,23.16579],[91.50134,23.16931],[91.49995,23.16928],[91.4983,23.16974],[91.49833,23.16998],[91.49839,23.17047],[91.49804,23.17218],[91.49826,23.17331],[91.49858,23.17395],[91.49914,23.17503],[91.50049,23.17633],[91.50264,23.17761],[91.50541,23.17881],[91.50739,23.17901],[91.50855,23.17951],[91.51093,23.18204],[91.50971,23.18277],[91.50818,23.18306],[91.5069,23.1835],[91.50631,23.1842],[91.50634,23.18569],[91.50636,23.18662],[91.50075,23.18691],[91.49562,23.18731],[91.49192,23.18765],[91.49055,23.187],[91.48871,23.18724],[91.48712,23.1876],[91.48386,23.18805],[91.4815,23.18587],[91.47891,23.18631],[91.47478,23.1884],[91.47424,23.18884],[91.4769,23.19394],[91.47704,23.19427],[91.47742,23.1948],[91.47868,23.19549],[91.47942,23.19545],[91.48047,23.19542],[91.4822,23.19552],[91.48418,23.19556],[91.48598,23.19578],[91.48889,23.19896],[91.48918,23.20001],[91.48952,23.20221],[91.48792,23.2051],[91.48815,23.20639],[91.48779,23.20821],[91.48684,23.2091],[91.48598,23.21224],[91.4858,23.2124],[91.48503,23.21313],[91.48396,23.21413],[91.48301,23.21495],[91.48244,23.21622],[91.47858,23.21598],[91.47372,23.21431],[91.46715,23.21245],[91.4656,23.21239],[91.46429,23.21221],[91.46381,23.21286],[91.46216,23.21306],[91.46178,23.21406],[91.45989,23.21469],[91.45932,23.21502],[91.45862,23.21542],[91.45789,23.21708],[91.45857,23.21876],[91.45932,23.2193],[91.45998,23.21978],[91.46187,23.22067],[91.46339,23.22169],[91.46458,23.22193],[91.46577,23.22256],[91.46752,23.22295],[91.471,23.22344],[91.4745,23.22431],[91.4748,23.22562],[91.47441,23.22677],[91.47348,23.2281],[91.47061,23.23249],[91.47046,23.23268],[91.46802,23.23498],[91.46674,23.23848],[91.46434,23.24021],[91.46206,23.24188],[91.4606,23.24239],[91.45826,23.24259],[91.4567,23.24201],[91.45575,23.24166],[91.45372,23.24197],[91.45168,23.24346],[91.45194,23.24537],[91.45202,23.2466],[91.45213,23.24842],[91.45416,23.24874],[91.45469,23.24883],[91.45699,23.25084],[91.45898,23.25263],[91.45927,23.25327],[91.45972,23.25471],[91.45779,23.2559],[91.45597,23.25613],[91.45205,23.25665],[91.44344,23.2581],[91.43661,23.25842],[91.43261,23.25838],[91.42918,23.25835],[91.42861,23.25835],[91.42634,23.25833],[91.42505,23.25701],[91.42368,23.25502],[91.42178,23.25724],[91.42201,23.25973],[91.42203,23.26306],[91.42227,23.26488],[91.42238,23.26577],[91.42316,23.27078],[91.42322,23.27111],[91.42448,23.27322],[91.42369,23.27584],[91.41901,23.28022],[91.41863,23.27674],[91.41771,23.26857],[91.41811,23.2543],[91.41499,23.25499],[91.41462,23.25434],[91.41222,23.25438],[91.41012,23.25598],[91.40927,23.25799],[91.40909,23.25947],[91.40779,23.26088],[91.40771,23.25398],[91.40771,23.25356],[91.40849,23.25277],[91.40909,23.25217],[91.41105,23.25021],[91.41316,23.24881],[91.41567,23.24488],[91.41486,23.24459],[91.40726,23.24283],[91.40304,23.23771],[91.40612,23.23182],[91.40647,23.23116],[91.40401,23.22616],[91.39582,23.22344],[91.39697,23.21862],[91.39701,23.21348],[91.39292,23.20864],[91.39304,23.20483],[91.39384,23.20414],[91.39388,23.20335],[91.39332,23.20173],[91.39317,23.20088],[91.39339,23.19341],[91.39049,23.18819],[91.38884,23.17946],[91.3903,23.1761],[91.39036,23.17511],[91.39294,23.16765],[91.39085,23.15762],[91.39089,23.15729],[91.39147,23.15258],[91.3932,23.15058],[91.39436,23.14998],[91.39584,23.14752],[91.39775,23.14156],[91.39813,23.14087],[91.40119,23.13519],[91.40311,23.12914],[91.40326,23.12522],[91.4035,23.11904],[91.40381,23.11798],[91.40504,23.1159],[91.40541,23.11529],[91.40667,23.11402],[91.40749,23.11318],[91.4089,23.11007],[91.41,23.10681],[91.40903,23.10446],[91.4093,23.10386],[91.40806,23.09512],[91.40801,23.09473],[91.40821,23.09469],[91.40944,23.0945],[91.41241,23.09478],[91.41298,23.09357],[91.41216,23.09167],[91.41285,23.09116],[91.41251,23.08657],[91.41226,23.08337],[91.41291,23.08277],[91.41487,23.08094],[91.41739,23.0803],[91.41847,23.08002],[91.41961,23.08026],[91.42165,23.08069],[91.42252,23.07924],[91.42126,23.07736],[91.42194,23.07634],[91.42065,23.07424],[91.42002,23.07322],[91.418,23.06914],[91.41805,23.06771],[91.41808,23.06661],[91.41815,23.06405],[91.41902,23.06325],[91.41989,23.06141],[91.422,23.05925],[91.41766,23.05561],[91.41116,23.0537],[91.40228,23.0518],[91.39594,23.05541],[91.38818,23.05832],[91.37768,23.06405],[91.37608,23.06873],[91.37363,23.07121],[91.3715,23.07413],[91.37001,23.07617],[91.3666,23.08187],[91.36623,23.08244],[91.36612,23.08264],[91.36346,23.0867],[91.35973,23.09058],[91.35671,23.09462],[91.35629,23.09519],[91.35362,23.10016],[91.35317,23.10135],[91.35313,23.10607],[91.35318,23.11098],[91.35266,23.11385],[91.35043,23.11614],[91.34746,23.11674],[91.3472,23.12001],[91.34814,23.12363],[91.34748,23.12748],[91.34515,23.12869],[91.34324,23.13132],[91.3418,23.13621],[91.34154,23.14119],[91.3401,23.1446],[91.33978,23.14769],[91.33934,23.15101],[91.33728,23.1544],[91.33457,23.15567],[91.33034,23.15767],[91.33039,23.16084],[91.33043,23.16366],[91.33112,23.16884],[91.33085,23.17165],[91.33015,23.18331],[91.32977,23.19001],[91.32999,23.19451],[91.32953,23.19715],[91.32984,23.21091],[91.33089,23.21579],[91.33052,23.21928],[91.32956,23.22371],[91.3288,23.22875],[91.32872,23.23498],[91.32555,23.24067],[91.32574,23.24591],[91.33029,23.24704],[91.33147,23.25043],[91.33231,23.25275],[91.32843,23.25308],[91.32738,23.25318],[91.32534,23.25375],[91.32375,23.2562],[91.3237,23.25656],[91.32339,23.25872],[91.32144,23.26334],[91.31858,23.26902],[91.31676,23.2739],[91.32153,23.27592],[91.32724,23.27468],[91.33293,23.27466],[91.33859,23.27591],[91.34853,23.28087],[91.35561,23.28708],[91.35561,23.28957],[91.36552,23.29579],[91.3712,23.29825],[91.37117,23.30198],[91.3782,23.31815],[91.38103,23.32188],[91.38673,23.32312],[91.3867,23.32684],[91.3881,23.33057],[91.39093,23.3343],[91.38949,23.34052],[91.38942,23.35172],[91.39368,23.35419],[91.39794,23.35419],[91.40647,23.3604],[91.40644,23.36288],[91.41069,23.36287],[91.41355,23.36536],[91.41497,23.36909],[91.42065,23.37156],[91.41917,23.37779],[91.41914,23.38525],[91.4106,23.38775],[91.4006,23.39273],[91.39347,23.39399],[91.38632,23.39773],[91.38346,23.40146],[91.38343,23.40771],[91.38342,23.41141],[91.38621,23.42136],[91.38618,23.42758],[91.38472,23.43131],[91.37901,23.43379],[91.37614,23.43876],[91.37613,23.4425],[91.37894,23.44748],[91.37889,23.45494],[91.38169,23.46612],[91.38737,23.46986],[91.39019,23.47607],[91.38161,23.48105],[91.38301,23.48602],[91.38292,23.49722],[91.38008,23.49971],[91.3772,23.50842],[91.37433,23.5109],[91.37716,23.51462],[91.38142,23.51836],[91.38853,23.51959],[91.39709,23.51957],[91.39993,23.52207],[91.39991,23.52455],[91.39847,23.52828],[91.39559,23.53202],[91.39842,23.537],[91.39697,23.54073],[91.39694,23.54942],[91.39406,23.55316],[91.39547,23.55565],[91.39831,23.5569],[91.39829,23.56311],[91.39684,23.56684],[91.39825,23.56933],[91.39821,23.5743],[91.39677,23.57804],[91.39677,23.58052],[91.4053,23.58425],[91.41667,23.59417],[91.42945,23.60286],[91.43227,23.60784],[91.43655,23.6128],[91.43652,23.61654],[91.43365,23.61778],[91.43937,23.6215],[91.44504,23.62645],[91.44786,23.63268],[91.4564,23.63765],[91.46204,23.65255],[91.46203,23.65504],[91.47198,23.66124],[91.47624,23.6662],[91.48193,23.66745],[91.48621,23.67241],[91.49189,23.67489],[91.50041,23.68358],[91.50465,23.69103],[91.50607,23.69973],[91.51321,23.69848],[91.51749,23.69599],[91.52321,23.69721],[91.52318,23.69969],[91.53461,23.7059],[91.53315,23.70839],[91.5331,23.71958],[91.53597,23.72206],[91.54167,23.7208],[91.55022,23.72203],[91.55592,23.72699],[91.56019,23.72947],[91.56446,23.7307],[91.57158,23.73939],[91.57441,23.74684],[91.57153,23.75059],[91.57009,23.7568],[91.57437,23.75554],[91.57864,23.75677],[91.58581,23.75304],[91.59579,23.75549],[91.59721,23.75922],[91.60292,23.75921],[91.61577,23.76167],[91.63005,23.76162],[91.6329,23.76286],[91.6372,23.7616],[91.64148,23.76284],[91.64436,23.76033],[91.64864,23.76033],[91.65292,23.75907],[91.66862,23.75902],[91.67578,23.75776],[91.68007,23.75526],[91.68435,23.75524],[91.68863,23.75398],[91.69292,23.7577],[91.69862,23.75644],[91.70291,23.75642],[91.70575,23.76139],[91.7086,23.76386],[91.71289,23.76261]]]}},{"type":"Feature","properties":{"ID_0":105,"ISO":"IND","NAME_0":"India","ID_1":32,"NAME_1":"Tripura","ID_2":492,"NAME_2":"West Tripura","NL_NAME_2":null,"VARNAME_2":null,"TYPE_2":"District","ENGTYPE_2":"District","STATE":"Tripura","DISTRICT":"West Tripura"},"geometry":{"type":"Polygon","coordinates":[[[91.68257,24.17714],[91.68423,24.17146],[91.68494,24.16937],[91.68837,24.16528],[91.69044,24.16274],[91.6924,24.15933],[91.69477,24.15907],[91.6993,24.16079],[91.70088,24.16162],[91.70277,24.16261],[91.70426,24.16102],[91.70568,24.15952],[91.70586,24.15693],[91.71007,24.15195],[91.71326,24.1508],[91.72065,24.14954],[91.72532,24.14764],[91.72713,24.14499],[91.73176,24.14241],[91.73685,24.14285],[91.73844,24.14342],[91.74033,24.14122],[91.74288,24.14067],[91.74754,24.14119],[91.75256,24.14294],[91.75532,24.14289],[91.75581,24.14279],[91.76106,24.13922],[91.75574,24.11421],[91.75779,24.09562],[91.75734,24.08923],[91.75159,24.07372],[91.75643,24.06917],[91.7574,24.06589],[91.75547,24.0622],[91.75703,24.0561],[91.75812,24.04567],[91.75653,24.03822],[91.75773,24.03286],[91.76054,24.02748],[91.76034,24.02179],[91.75909,24.01687],[91.75964,24.01105],[91.75813,24.00022],[91.75495,23.98683],[91.75716,23.97935],[91.75785,23.97312],[91.75724,23.96814],[91.75522,23.96316],[91.75457,23.95694],[91.75723,23.95444],[91.76138,23.95319],[91.76246,23.9482],[91.76219,23.94323],[91.76337,23.93701],[91.7661,23.93327],[91.76029,23.92831],[91.76163,23.91959],[91.77731,23.91211],[91.78019,23.89717],[91.77882,23.88971],[91.786,23.88348],[91.7846,23.87974],[91.78325,23.87104],[91.78339,23.85238],[91.78203,23.84493],[91.78349,23.8387],[91.78352,23.83496],[91.78213,23.82999],[91.7822,23.82004],[91.77791,23.8213],[91.77506,23.82006],[91.77076,23.82132],[91.76647,23.82381],[91.76791,23.82007],[91.77512,23.81135],[91.77657,23.80762],[91.78229,23.8076],[91.78231,23.80511],[91.77519,23.80016],[91.77813,23.79144],[91.77388,23.7815],[91.77395,23.77156],[91.77979,23.7504],[91.78696,23.74292],[91.77281,23.71933],[91.7757,23.71061],[91.77289,23.7069],[91.77482,23.70464],[91.77717,23.70191],[91.77875,23.69148],[91.77448,23.68529],[91.76298,23.68332],[91.76019,23.68285],[91.75879,23.68037],[91.75451,23.67789],[91.75165,23.67418],[91.74738,23.67046],[91.74594,23.67793],[91.74023,23.68292],[91.73735,23.68915],[91.73306,23.6929],[91.72878,23.69417],[91.72734,23.69665],[91.73019,23.70285],[91.73874,23.71029],[91.74157,23.71774],[91.74155,23.72396],[91.73869,23.72521],[91.73727,23.72895],[91.73724,23.73391],[91.73151,23.73892],[91.73009,23.73892],[91.72008,23.74517],[91.7172,23.75389],[91.71434,23.75514],[91.71289,23.76261],[91.7086,23.76386],[91.70575,23.76139],[91.70291,23.75642],[91.69862,23.75644],[91.69292,23.7577],[91.68863,23.75398],[91.68435,23.75524],[91.68007,23.75526],[91.67578,23.75776],[91.66862,23.75902],[91.65292,23.75907],[91.64864,23.76033],[91.64436,23.76033],[91.64148,23.76284],[91.6372,23.7616],[91.6329,23.76286],[91.63005,23.76162],[91.61577,23.76167],[91.60292,23.75921],[91.59721,23.75922],[91.59579,23.75549],[91.58581,23.75304],[91.57864,23.75677],[91.57437,23.75554],[91.57009,23.7568],[91.57153,23.75059],[91.57441,23.74684],[91.57158,23.73939],[91.56446,23.7307],[91.56019,23.72947],[91.55592,23.72699],[91.55022,23.72203],[91.54167,23.7208],[91.53597,23.72206],[91.5331,23.71958],[91.53315,23.70839],[91.53461,23.7059],[91.52318,23.69969],[91.52321,23.69721],[91.51749,23.69599],[91.51321,23.69848],[91.50607,23.69973],[91.50465,23.69103],[91.50041,23.68358],[91.49189,23.67489],[91.48621,23.67241],[91.48193,23.66745],[91.47624,23.6662],[91.47198,23.66124],[91.46203,23.65504],[91.46204,23.65255],[91.4564,23.63765],[91.44786,23.63268],[91.44504,23.62645],[91.43937,23.6215],[91.43365,23.61778],[91.43652,23.61654],[91.43655,23.6128],[91.43227,23.60784],[91.42945,23.60286],[91.41667,23.59417],[91.4053,23.58425],[91.39677,23.58052],[91.39677,23.57804],[91.39821,23.5743],[91.39825,23.56933],[91.39684,23.56684],[91.39829,23.56311],[91.39831,23.5569],[91.39547,23.55565],[91.39406,23.55316],[91.39694,23.54942],[91.39697,23.54073],[91.39842,23.537],[91.39559,23.53202],[91.39847,23.52828],[91.39991,23.52455],[91.39993,23.52207],[91.39709,23.51957],[91.38853,23.51959],[91.38142,23.51836],[91.37716,23.51462],[91.37433,23.5109],[91.3772,23.50842],[91.38008,23.49971],[91.38292,23.49722],[91.38301,23.48602],[91.38161,23.48105],[91.39019,23.47607],[91.38737,23.46986],[91.38169,23.46612],[91.37889,23.45494],[91.37894,23.44748],[91.37613,23.4425],[91.37614,23.43876],[91.37901,23.43379],[91.38472,23.43131],[91.38618,23.42758],[91.38621,23.42136],[91.38342,23.41141],[91.38343,23.40771],[91.38346,23.40146],[91.38632,23.39773],[91.39347,23.39399],[91.4006,23.39273],[91.4106,23.38775],[91.41914,23.38525],[91.41917,23.37779],[91.42065,23.37156],[91.41497,23.36909],[91.41355,23.36536],[91.41069,23.36287],[91.40644,23.36288],[91.40647,23.3604],[91.39794,23.35419],[91.39368,23.35419],[91.38942,23.35172],[91.38949,23.34052],[91.39093,23.3343],[91.3881,23.33057],[91.3867,23.32684],[91.38673,23.32312],[91.38103,23.32188],[91.3782,23.31815],[91.37117,23.30198],[91.3712,23.29825],[91.36552,23.29579],[91.35561,23.28957],[91.35561,23.28708],[91.34853,23.28087],[91.33859,23.27591],[91.33293,23.27466],[91.32724,23.27468],[91.32153,23.27592],[91.31676,23.2739],[91.31647,23.27468],[91.31643,23.27487],[91.31605,23.27669],[91.31867,23.27957],[91.31879,23.2797],[91.32256,23.2821],[91.31917,23.28339],[91.31536,23.28545],[91.31125,23.28574],[91.30821,23.28828],[91.30642,23.29056],[91.30732,23.29299],[91.30939,23.2967],[91.3125,23.29947],[91.31664,23.29963],[91.32018,23.2989],[91.32155,23.30217],[91.31987,23.30599],[91.31875,23.30962],[91.31592,23.31428],[91.31256,23.31524],[91.31196,23.31541],[91.30887,23.31476],[91.30447,23.31443],[91.30231,23.31572],[91.29908,23.31767],[91.29726,23.32098],[91.29812,23.32717],[91.29903,23.33006],[91.30109,23.33537],[91.30251,23.34115],[91.30637,23.34418],[91.31165,23.34483],[91.31496,23.34474],[91.31657,23.34777],[91.31771,23.35328],[91.32121,23.35455],[91.32536,23.35712],[91.32561,23.36231],[91.32128,23.36175],[91.31664,23.35994],[91.3162,23.35968],[91.31229,23.35738],[91.30927,23.35524],[91.30694,23.35473],[91.30416,23.35413],[91.29897,23.35203],[91.29667,23.35447],[91.29771,23.35647],[91.29828,23.35755],[91.29989,23.3623],[91.29641,23.36292],[91.29479,23.36331],[91.29324,23.36489],[91.29208,23.36607],[91.29206,23.36816],[91.29206,23.36932],[91.29172,23.37006],[91.29091,23.37181],[91.29399,23.37218],[91.29691,23.37284],[91.29829,23.37314],[91.29844,23.37571],[91.29811,23.37875],[91.29637,23.3783],[91.29488,23.37792],[91.29135,23.37689],[91.29049,23.37708],[91.2865,23.37799],[91.28501,23.38175],[91.28403,23.38437],[91.28384,23.38528],[91.28344,23.38645],[91.28335,23.38821],[91.28313,23.39197],[91.2825,23.39713],[91.28257,23.40249],[91.28254,23.40529],[91.28329,23.41041],[91.28212,23.41615],[91.28053,23.41883],[91.27719,23.42012],[91.27245,23.42397],[91.27103,23.42635],[91.27373,23.42982],[91.27355,23.43376],[91.27078,23.43692],[91.26741,23.4389],[91.26611,23.43966],[91.26349,23.44118],[91.26159,23.44404],[91.26089,23.44583],[91.25986,23.44848],[91.25903,23.45485],[91.2575,23.46455],[91.25592,23.46762],[91.25703,23.47067],[91.25642,23.47457],[91.2565,23.48205],[91.25378,23.48972],[91.25107,23.49128],[91.24501,23.49168],[91.23933,23.49382],[91.2374,23.49458],[91.23873,23.49553],[91.23901,23.49574],[91.23772,23.50006],[91.23902,23.50311],[91.23683,23.50322],[91.23473,23.50231],[91.23109,23.50042],[91.22825,23.49975],[91.22652,23.5006],[91.22446,23.50237],[91.22348,23.50491],[91.22469,23.50688],[91.22619,23.51049],[91.22712,23.51401],[91.22286,23.51391],[91.21796,23.51341],[91.21542,23.51239],[91.21096,23.51389],[91.20879,23.51618],[91.20688,23.51777],[91.20518,23.52056],[91.20511,23.52079],[91.20419,23.52423],[91.20654,23.52794],[91.20676,23.52828],[91.20858,23.53337],[91.20956,23.53484],[91.21136,23.53704],[91.21162,23.53809],[91.21187,23.54127],[91.21283,23.54205],[91.21484,23.54365],[91.21802,23.54836],[91.21754,23.54917],[91.21674,23.54931],[91.21547,23.54952],[91.21414,23.54881],[91.21331,23.54836],[91.2123,23.54782],[91.21075,23.54679],[91.20919,23.54689],[91.20832,23.54709],[91.20648,23.54816],[91.20573,23.54859],[91.20471,23.54814],[91.20402,23.54784],[91.20219,23.54743],[91.19945,23.54798],[91.19849,23.54908],[91.19871,23.55187],[91.19879,23.55411],[91.19885,23.55604],[91.19909,23.55911],[91.19856,23.56187],[91.19889,23.56569],[91.19481,23.57088],[91.19363,23.57474],[91.18589,23.58113],[91.18231,23.5846],[91.1796,23.58576],[91.17936,23.58799],[91.18058,23.59059],[91.18208,23.59374],[91.18021,23.59443],[91.1781,23.59381],[91.17749,23.59364],[91.17473,23.59354],[91.17303,23.59359],[91.16901,23.59513],[91.16717,23.59786],[91.16657,23.59874],[91.16582,23.60225],[91.16659,23.60457],[91.16634,23.60829],[91.16459,23.61205],[91.16439,23.6152],[91.16447,23.61936],[91.16316,23.623],[91.16259,23.62827],[91.16334,23.63168],[91.16473,23.63541],[91.16273,23.63923],[91.16274,23.6435],[91.16294,23.64412],[91.16441,23.64775],[91.16453,23.65466],[91.16436,23.65879],[91.16377,23.66176],[91.16218,23.66376],[91.16113,23.66509],[91.16036,23.66808],[91.16128,23.6706],[91.16332,23.66814],[91.1649,23.66534],[91.16812,23.66404],[91.17164,23.66235],[91.17218,23.66177],[91.17393,23.65988],[91.17616,23.65719],[91.18095,23.65635],[91.18153,23.65625],[91.18604,23.65612],[91.19062,23.65611],[91.19523,23.65528],[91.19536,23.6519],[91.1954,23.65112],[91.19531,23.64872],[91.1963,23.64824],[91.19889,23.64697],[91.20207,23.64819],[91.20419,23.64933],[91.20654,23.65103],[91.20691,23.65129],[91.20708,23.65142],[91.20837,23.65401],[91.2099,23.65659],[91.2077,23.65803],[91.20614,23.66023],[91.20602,23.66539],[91.20676,23.66819],[91.2071,23.66947],[91.20793,23.67179],[91.20832,23.67578],[91.20815,23.67978],[91.20844,23.68268],[91.20901,23.68444],[91.21006,23.68755],[91.20676,23.68804],[91.20513,23.69008],[91.20101,23.69243],[91.19724,23.69231],[91.19336,23.69081],[91.18774,23.69189],[91.18497,23.69145],[91.18073,23.69197],[91.17664,23.69202],[91.17229,23.69152],[91.16747,23.69159],[91.16325,23.69114],[91.15829,23.69122],[91.15614,23.69442],[91.15668,23.69909],[91.1559,23.70374],[91.15449,23.70983],[91.15479,23.71645],[91.15585,23.72344],[91.15818,23.72915],[91.15975,23.73459],[91.16043,23.73943],[91.16167,23.74266],[91.16394,23.74624],[91.16707,23.74851],[91.16844,23.74949],[91.17236,23.75206],[91.178,23.75156],[91.18295,23.75114],[91.18759,23.75113],[91.18929,23.75166],[91.19487,23.75316],[91.19552,23.75325],[91.2001,23.75312],[91.20547,23.75223],[91.21039,23.75162],[91.21091,23.75156],[91.2143,23.7501],[91.21497,23.74867],[91.21578,23.74697],[91.21709,23.74368],[91.21996,23.74119],[91.22306,23.73973],[91.22462,23.7401],[91.22594,23.74343],[91.22624,23.74483],[91.22681,23.7453],[91.22759,23.7496],[91.2294,23.75258],[91.22984,23.75594],[91.23035,23.75964],[91.23257,23.76369],[91.23409,23.76936],[91.2343,23.77353],[91.23438,23.77735],[91.23424,23.78233],[91.23399,23.78576],[91.23198,23.7893],[91.231,23.79173],[91.23206,23.79701],[91.23513,23.80212],[91.23738,23.8084],[91.23762,23.81153],[91.24053,23.81534],[91.24368,23.81965],[91.24473,23.82192],[91.24503,23.82229],[91.24646,23.82529],[91.24878,23.82836],[91.25177,23.83308],[91.25434,23.8362],[91.25761,23.83965],[91.2569,23.84452],[91.255,23.84955],[91.25209,23.85226],[91.24723,23.85839],[91.24529,23.86233],[91.24341,23.86599],[91.2423,23.8703],[91.24035,23.87367],[91.23952,23.87666],[91.23769,23.87991],[91.23609,23.88093],[91.23251,23.8832],[91.23243,23.8857],[91.23242,23.88605],[91.23233,23.8884],[91.23207,23.89355],[91.23223,23.89572],[91.23216,23.89949],[91.23411,23.90144],[91.23563,23.90206],[91.23827,23.90315],[91.2412,23.90404],[91.24435,23.906],[91.24886,23.90891],[91.24902,23.91016],[91.24945,23.91329],[91.24812,23.91652],[91.24683,23.91896],[91.24604,23.92161],[91.2443,23.92389],[91.2396,23.92613],[91.23888,23.92634],[91.23559,23.92736],[91.23522,23.9286],[91.23646,23.92965],[91.23947,23.92951],[91.24685,23.92838],[91.25184,23.92899],[91.25443,23.92754],[91.25713,23.9273],[91.26231,23.92646],[91.26724,23.92707],[91.27206,23.92698],[91.27264,23.92697],[91.27627,23.92624],[91.27798,23.92819],[91.27759,23.92974],[91.27587,23.93601],[91.27402,23.9403],[91.27225,23.94206],[91.27016,23.94327],[91.26687,23.94462],[91.26608,23.94864],[91.26783,23.95301],[91.26797,23.95325],[91.26833,23.95391],[91.26883,23.95558],[91.2694,23.95705],[91.26996,23.95838],[91.27057,23.95982],[91.27184,23.96361],[91.27327,23.96666],[91.2759,23.97001],[91.27876,23.97387],[91.27987,23.97681],[91.28156,23.98019],[91.28368,23.9831],[91.28558,23.9831],[91.28503,23.98044],[91.28501,23.9802],[91.28483,23.97838],[91.28448,23.97565],[91.28626,23.97103],[91.28949,23.96803],[91.29306,23.96947],[91.29419,23.97028],[91.29597,23.97154],[91.29966,23.97272],[91.30063,23.97502],[91.30045,23.97869],[91.30074,23.98336],[91.30193,23.98502],[91.30286,23.98633],[91.30405,23.98949],[91.30478,23.99381],[91.30557,23.9955],[91.30573,23.99633],[91.30587,23.99708],[91.30631,23.99787],[91.30641,23.99857],[91.31884,23.99372],[91.32342,23.99539],[91.32707,23.99458],[91.3299,23.99373],[91.33212,23.99273],[91.33475,23.99184],[91.3363,23.98995],[91.339,23.98612],[91.34435,23.98439],[91.34814,23.98511],[91.3513,23.9846],[91.35492,23.98453],[91.35771,23.98529],[91.36008,23.9863],[91.36058,23.98651],[91.36173,23.98587],[91.36191,23.98577],[91.36242,23.98548],[91.36276,23.98529],[91.36381,23.9847],[91.36413,23.98452],[91.36581,23.98357],[91.36975,23.98079],[91.37044,23.98028],[91.37302,23.97838],[91.37535,23.97743],[91.3782,23.97688],[91.37903,23.97869],[91.37788,23.9847],[91.37714,23.98765],[91.37688,23.99007],[91.37723,23.99487],[91.37433,23.99733],[91.37388,24.00097],[91.37433,24.00789],[91.37715,24.01215],[91.38099,24.01793],[91.38831,24.02478],[91.39083,24.02905],[91.39243,24.03386],[91.39425,24.04064],[91.39555,24.0457],[91.39651,24.05135],[91.39484,24.05594],[91.38824,24.0645],[91.38464,24.07041],[91.38098,24.07525],[91.37841,24.07776],[91.37708,24.08125],[91.37631,24.08908],[91.3766,24.09389],[91.37566,24.09932],[91.37522,24.10444],[91.37543,24.10753],[91.37802,24.1095],[91.38356,24.10896],[91.386,24.10877],[91.38631,24.10875],[91.38769,24.10923],[91.38943,24.10985],[91.39162,24.10987],[91.39484,24.10925],[91.3979,24.10903],[91.39986,24.1108],[91.4035,24.11089],[91.41032,24.11111],[91.41803,24.10981],[91.42193,24.10924],[91.42219,24.1092],[91.42532,24.10794],[91.42845,24.108],[91.43044,24.10758],[91.43084,24.10424],[91.43192,24.10202],[91.43476,24.10112],[91.43642,24.10186],[91.43874,24.10315],[91.44054,24.10304],[91.44207,24.10084],[91.44412,24.09797],[91.44551,24.09826],[91.44785,24.10002],[91.45019,24.10084],[91.4529,24.09978],[91.4552,24.09803],[91.45795,24.09805],[91.46126,24.0981],[91.46381,24.09761],[91.4646,24.09814],[91.46537,24.09864],[91.46729,24.09955],[91.47338,24.10002],[91.47551,24.10011],[91.47814,24.09826],[91.47921,24.09751],[91.47977,24.09718],[91.48152,24.09616],[91.48491,24.09644],[91.48737,24.09687],[91.49049,24.0978],[91.49242,24.09651],[91.4927,24.09438],[91.49344,24.09034],[91.49643,24.08868],[91.49888,24.08831],[91.50755,24.08701],[91.51292,24.08688],[91.51723,24.08661],[91.51909,24.08631],[91.52183,24.08455],[91.52499,24.08397],[91.53612,24.08121],[91.53697,24.08071],[91.53782,24.08023],[91.5405,24.07876],[91.54296,24.07637],[91.5452,24.07612],[91.54797,24.07802],[91.54812,24.07801],[91.55072,24.07787],[91.5531,24.07657],[91.5551,24.07644],[91.55714,24.07849],[91.55978,24.07891],[91.56352,24.07854],[91.56764,24.07834],[91.57127,24.07837],[91.57198,24.07865],[91.57369,24.07932],[91.5764,24.07979],[91.57872,24.07977],[91.58104,24.07853],[91.58461,24.07611],[91.58748,24.07695],[91.58842,24.07723],[91.59328,24.07929],[91.5962,24.08021],[91.59608,24.08291],[91.59675,24.08507],[91.59913,24.08647],[91.59927,24.08813],[91.59546,24.09068],[91.59427,24.09469],[91.59686,24.09637],[91.60021,24.09843],[91.60296,24.09827],[91.60585,24.09747],[91.60901,24.09602],[91.60954,24.09579],[91.61192,24.09461],[91.61406,24.09555],[91.6155,24.0962],[91.61811,24.09708],[91.62257,24.09737],[91.6257,24.0988],[91.62787,24.09958],[91.63023,24.10053],[91.63408,24.10257],[91.63824,24.10568],[91.64031,24.10836],[91.64149,24.11188],[91.64227,24.11632],[91.6416,24.12318],[91.6396,24.12962],[91.63927,24.13302],[91.6372,24.13683],[91.63595,24.13934],[91.64033,24.14699],[91.64316,24.15107],[91.64536,24.15369],[91.64632,24.15532],[91.64674,24.15777],[91.64668,24.15814],[91.64592,24.16274],[91.64508,24.16598],[91.64449,24.16939],[91.64609,24.17501],[91.64767,24.17799],[91.64989,24.17704],[91.6535,24.17548],[91.65648,24.17623],[91.65717,24.17867],[91.65764,24.18072],[91.65818,24.18294],[91.65867,24.18421],[91.65884,24.18464],[91.66023,24.18757],[91.65928,24.19122],[91.65882,24.1933],[91.65276,24.19611],[91.65355,24.19953],[91.65393,24.20221],[91.65259,24.20542],[91.65183,24.20791],[91.65004,24.21096],[91.64809,24.21437],[91.6547,24.22175],[91.65612,24.22497],[91.65906,24.22744],[91.66215,24.22852],[91.66453,24.22936],[91.66753,24.2304],[91.66875,24.2272],[91.66867,24.22157],[91.66909,24.21875],[91.66728,24.21508],[91.66859,24.21251],[91.66833,24.20977],[91.67073,24.20761],[91.67364,24.20422],[91.67403,24.2006],[91.67699,24.19865],[91.67736,24.19461],[91.6795,24.19224],[91.68011,24.18704],[91.68232,24.18215],[91.68257,24.17714]]]}}],"state":"Tripura","source":"geohacker/india (Datameet-derived), Census 2011 boundaries"}