{"type":"FeatureCollection","features":[{"type":"Feature","properties":{"SUBDISTRICT":"Rangat","STATE":"Andaman & Nicobar","shapeID":"7132399B98245081216214","source":"geoBoundaries gbOpen IND ADM3 (ODbL 1.0); source: Local Government Directory lgdirectory.gov.in via Pathways Data","DISTRICT":"Andaman Islands","ELEV_MEAN_M":60.1,"ELEV_MIN_M":-3.0,"ELEV_MAX_M":1041.0,"PCT_BELOW_5M":5.4,"PCT_BELOW_10M":12.7},"geometry":{"type":"MultiPolygon","coordinates":[[[[92.6939,12.5978],[92.7133,12.587],[92.7174,12.5638],[92.717,12.5449],[92.7026,12.5079],[92.7149,12.4894],[92.7086,12.4679],[92.7123,12.4449],[92.7053,12.4398],[92.7134,12.4334],[92.7085,12.3295],[92.717,12.3265],[92.7165,12.3122],[92.7334,12.2956],[92.7457,12.3199],[92.7536,12.372],[92.7697,12.379],[92.7699,12.3967],[92.7756,12.38],[92.7583,12.355],[92.7544,12.2946],[92.7661,12.302],[92.7758,12.3344],[92.7817,12.3244],[92.7965,12.3265],[92.7927,12.3147],[92.805,12.3154],[92.8049,12.3073],[92.816,12.3134],[92.8312,12.3095],[92.8409,12.2989],[92.8414,12.3077],[92.8575,12.3102],[92.8646,12.3204],[92.8516,12.3212],[92.8429,12.3343],[92.8631,12.3293],[92.8533,12.3406],[92.8657,12.3466],[92.8725,12.3321],[92.8983,12.3412],[92.8915,12.3496],[92.8798,12.3475],[92.8751,12.3577],[92.8596,12.3564],[92.8547,12.3503],[92.8503,12.3623],[92.8671,12.366],[92.852,12.379],[92.8315,12.3669],[92.83,12.3738],[92.8446,12.383],[92.8295,12.3851],[92.8241,12.3966],[92.8395,12.3959],[92.8391,12.4038],[92.8159,12.4038],[92.8083,12.3972],[92.8201,12.4183],[92.8111,12.4317],[92.801,12.4292],[92.7949,12.4356],[92.7995,12.4625],[92.7852,12.4544],[92.7777,12.4679],[92.7856,12.4733],[92.7936,12.4642],[92.7889,12.4861],[92.7997,12.4833],[92.7994,12.4698],[92.8106,12.459],[92.8069,12.4361],[92.8181,12.4334],[92.8223,12.4537],[92.8302,12.449],[92.8269,12.4364],[92.8326,12.4299],[92.8427,12.428],[92.8342,12.4395],[92.8369,12.4445],[92.8488,12.437],[92.851,12.4205],[92.8636,12.4296],[92.8668,12.4446],[92.8531,12.4538],[92.8468,12.4684],[92.8408,12.4609],[92.8298,12.465],[92.8421,12.474],[92.8403,12.4812],[92.8187,12.4805],[92.8333,12.4861],[92.8269,12.5033],[92.8609,12.5062],[92.8474,12.4868],[92.8525,12.4754],[92.882,12.4558],[92.8879,12.4598],[92.8876,12.4724],[92.8935,12.4698],[92.8994,12.4535],[92.9069,12.4538],[92.9107,12.4467],[92.8988,12.4353],[92.91,12.4353],[92.9061,12.4272],[92.9141,12.4268],[92.9182,12.4181],[92.9165,12.4021],[92.9264,12.4034],[92.9327,12.4196],[92.9267,12.4451],[92.9475,12.446],[92.9673,12.4703],[92.9618,12.4752],[92.9505,12.465],[92.9416,12.4653],[92.9547,12.4977],[92.9701,12.4848],[92.9728,12.4943],[92.9782,12.4943],[92.9738,12.5079],[92.9835,12.5448],[92.9667,12.5932],[92.9669,12.639],[92.7796,12.6442],[92.7465,12.6518],[92.7399,12.6415],[92.7426,12.6302],[92.732,12.6193],[92.7252,12.6362],[92.7153,12.6075],[92.6953,12.6008],[92.6939,12.5978]]],[[[92.6799,12.5255],[92.6899,12.5157],[92.6943,12.5319],[92.6825,12.5357],[92.6799,12.5255]]],[[[92.9256,12.3656],[92.943,12.3576],[92.9561,12.404],[92.9707,12.4176],[92.9665,12.4313],[92.9566,12.4158],[92.9461,12.4193],[92.9351,12.4005],[92.9381,12.3865],[92.928,12.3753],[92.9256,12.3656]]],[[[92.8706,12.4243],[92.8848,12.4094],[92.8932,12.4173],[92.8935,12.4272],[92.8709,12.4256],[92.8706,12.4243]]],[[[92.8716,12.378],[92.8768,12.3748],[92.8818,12.3818],[92.893,12.37],[92.8913,12.3805],[92.9002,12.3915],[92.8956,12.399],[92.8892,12.3882],[92.8765,12.398],[92.8724,12.3803],[92.8716,12.378]]],[[[92.917,12.3404],[92.9223,12.3326],[92.9286,12.3495],[92.9253,12.3532],[92.919,12.3476],[92.917,12.3404]]],[[[92.8694,12.3115],[92.8945,12.3188],[92.894,12.3235],[92.8755,12.3249],[92.8702,12.3124],[92.8694,12.3115]]],[[[92.749,12.0956],[92.7504,12.0812],[92.7555,12.08],[92.7777,12.0998],[92.774,12.0607],[92.8001,12.0811],[92.7977,12.0974],[92.8049,12.1042],[92.8198,12.1042],[92.8124,12.1299],[92.8234,12.1316],[92.8331,12.1513],[92.8281,12.1586],[92.8575,12.1639],[92.8598,12.1814],[92.8543,12.1866],[92.8597,12.2015],[92.8892,12.1885],[92.88,12.2068],[92.8788,12.2266],[92.8671,12.2389],[92.8695,12.2479],[92.8854,12.2497],[92.8896,12.2602],[92.8854,12.2773],[92.8764,12.2694],[92.8717,12.2773],[92.8747,12.295],[92.8658,12.2922],[92.8624,12.2675],[92.8451,12.2832],[92.8549,12.282],[92.8549,12.2866],[92.8439,12.2944],[92.8355,12.2869],[92.8383,12.2937],[92.8258,12.3066],[92.8118,12.3062],[92.8035,12.2947],[92.7826,12.3047],[92.801,12.2759],[92.7904,12.2619],[92.7796,12.2675],[92.7763,12.2574],[92.7638,12.2547],[92.7573,12.2647],[92.7575,12.2331],[92.7683,12.236],[92.7702,12.2314],[92.7754,12.2503],[92.7827,12.2421],[92.7779,12.1804],[92.7696,12.1567],[92.7739,12.1472],[92.7677,12.1473],[92.7498,12.0979],[92.749,12.0956]]],[[[92.911,12.2724],[92.9315,12.2658],[92.9292,12.2314],[92.9376,12.2304],[92.9392,12.2525],[92.9511,12.2681],[92.9443,12.3033],[92.9385,12.2811],[92.9246,12.2891],[92.9141,12.2851],[92.9131,12.2763],[92.911,12.2724]]],[[[92.711,12.2632],[92.719,12.2294],[92.7303,12.288],[92.7129,12.2935],[92.7117,12.2693],[92.711,12.2632]]],[[[92.7631,12.2763],[92.7718,12.2648],[92.7764,12.2793],[92.7693,12.2886],[92.7633,12.2775],[92.7631,12.2763]]],[[[92.8794,12.2333],[92.8875,12.2058],[92.8975,12.2275],[92.9167,12.2251],[92.9196,12.2198],[92.9225,12.2247],[92.9118,12.2512],[92.8969,12.2485],[92.8957,12.2347],[92.8885,12.244],[92.8811,12.2404],[92.8794,12.2333]]],[[[92.8699,12.2417],[92.8758,12.2344],[92.8771,12.2441],[92.8708,12.2454],[92.8699,12.2417]]],[[[92.9374,12.2129],[92.9508,12.1922],[92.9495,12.2223],[92.939,12.2171],[92.9374,12.2129]]]]}},{"type":"Feature","properties":{"SUBDISTRICT":"Little Andaman","STATE":"Andaman & Nicobar","shapeID":"7132399B66258016960131","source":"geoBoundaries gbOpen IND ADM3 (ODbL 1.0); source: Local Government Directory lgdirectory.gov.in via Pathways Data","DISTRICT":"Andaman Islands","ELEV_MEAN_M":55.7,"ELEV_MIN_M":-3.0,"ELEV_MAX_M":171.0,"PCT_BELOW_5M":7.2,"PCT_BELOW_10M":12.6},"geometry":{"type":"Polygon","coordinates":[[[92.3585,10.774],[92.3638,10.7647],[92.3643,10.6685],[92.3788,10.6634],[92.3897,10.6486],[92.4001,10.6138],[92.3892,10.5957],[92.3881,10.5781],[92.3593,10.5358],[92.3669,10.5274],[92.4121,10.5461],[92.4776,10.5082],[92.5103,10.5126],[92.5511,10.5747],[92.5228,10.5895],[92.5231,10.6121],[92.5378,10.6362],[92.5655,10.6512],[92.5579,10.6625],[92.5642,10.6748],[92.5793,10.6721],[92.5809,10.6763],[92.5828,10.7018],[92.5689,10.7433],[92.5752,10.783],[92.5491,10.8035],[92.5439,10.8619],[92.5064,10.8952],[92.446,10.8639],[92.4438,10.8362],[92.4354,10.8367],[92.4224,10.8211],[92.4129,10.8212],[92.3972,10.7866],[92.3787,10.779],[92.3655,10.7891],[92.36,10.7812],[92.3585,10.774]]]}},{"type":"Feature","properties":{"SUBDISTRICT":"Mayabunder","STATE":"Andaman & Nicobar","shapeID":"7132399B35613004094612","source":"geoBoundaries gbOpen IND ADM3 (ODbL 1.0); source: Local Government Directory lgdirectory.gov.in via Pathways Data","DISTRICT":"Andaman Islands","ELEV_MEAN_M":63.5,"ELEV_MIN_M":-3.0,"ELEV_MAX_M":1987.0,"PCT_BELOW_5M":5.0,"PCT_BELOW_10M":11.8},"geometry":{"type":"MultiPolygon","coordinates":[[[[92.6596,12.8587],[92.6749,12.8084],[92.6697,12.794],[92.6783,12.7863],[92.6822,12.8038],[92.6958,12.8199],[92.6939,12.825],[92.6855,12.82],[92.6855,12.8366],[92.7016,12.8373],[92.7264,12.8742],[92.719,12.8792],[92.7256,12.8814],[92.729,12.9017],[92.7295,12.9408],[92.7226,12.9474],[92.7287,12.9772],[92.7165,12.9915],[92.7045,12.995],[92.6758,12.9594],[92.6872,12.9487],[92.6761,12.9211],[92.679,12.9062],[92.6732,12.887],[92.6596,12.8587]]],[[[92.7792,12.9305],[92.7819,12.9213],[92.7805,12.9337],[92.7792,12.9305]]],[[[92.7273,12.8158],[92.7403,12.7338],[92.7549,12.7161],[92.7429,12.7012],[92.7531,12.6944],[92.7359,12.6872],[92.7454,12.6646],[92.756,12.6641],[92.7465,12.6518],[92.7796,12.6442],[92.9669,12.639],[92.972,12.7042],[92.9768,12.7114],[92.984,12.7062],[92.9867,12.7118],[92.9736,12.7236],[92.9762,12.7372],[92.9701,12.7532],[92.9617,12.7549],[92.9561,12.768],[92.9438,12.7715],[92.9607,12.804],[92.9546,12.8349],[92.9347,12.8837],[92.9119,12.8845],[92.9168,12.9002],[92.93,12.9108],[92.9165,12.9099],[92.9053,12.9217],[92.907,12.9015],[92.9003,12.8949],[92.8818,12.8933],[92.8832,12.9081],[92.8753,12.9029],[92.862,12.9105],[92.8151,12.8994],[92.8026,12.8887],[92.7997,12.8622],[92.7786,12.8607],[92.7846,12.8392],[92.7711,12.8597],[92.7534,12.8242],[92.7462,12.8332],[92.7466,12.8117],[92.7383,12.8341],[92.7318,12.8278],[92.7273,12.8158]]],[[[92.9386,12.9177],[92.9386,12.9172],[92.9387,12.9164],[92.9389,12.9159],[92.9388,12.915],[92.9388,12.9142],[92.9391,12.9132],[92.9393,12.9127],[92.9399,12.9126],[92.9407,12.9125],[92.9409,12.9132],[92.9412,12.9137],[92.9416,12.9145],[92.9418,12.9151],[92.942,12.9158],[92.9422,12.9164],[92.9426,12.9172],[92.9428,12.918],[92.9429,12.9188],[92.9427,12.9196],[92.9421,12.92],[92.9414,12.9203],[92.9403,12.9204],[92.9394,12.9196],[92.9389,12.9187],[92.9386,12.9177]]],[[[92.7826,12.9057],[92.7855,12.9009],[92.7969,12.9045],[92.7941,12.8911],[92.8069,12.8978],[92.7977,12.9149],[92.7835,12.9089],[92.7826,12.9057]]],[[[92.7568,12.8924],[92.7636,12.8946],[92.764,12.9096],[92.7579,12.8957],[92.7568,12.8924]]],[[[92.7145,12.837],[92.7223,12.8341],[92.7278,12.842],[92.7335,12.8663],[92.7205,12.8468],[92.7145,12.837]]],[[[92.7034,12.7966],[92.716,12.7756],[92.7161,12.7226],[92.7218,12.7167],[92.7257,12.7518],[92.7319,12.7436],[92.722,12.7793],[92.721,12.8267],[92.717,12.8297],[92.7087,12.8056],[92.7034,12.7966]]],[[[92.7265,12.782],[92.7319,12.7664],[92.7277,12.7849],[92.7265,12.782]]]]}},{"type":"Feature","properties":{"SUBDISTRICT":"Car Nicobar","STATE":"Andaman & Nicobar","shapeID":"7132399B62610993913268","source":"geoBoundaries gbOpen IND ADM3 (ODbL 1.0); source: Local Government Directory lgdirectory.gov.in via Pathways Data","DISTRICT":null,"ELEV_MEAN_M":30.5,"ELEV_MIN_M":-3.0,"ELEV_MAX_M":616.0,"PCT_BELOW_5M":6.6,"PCT_BELOW_10M":12.0},"geometry":{"type":"MultiPolygon","coordinates":[[[[92.7099,9.1855],[92.7142,9.1414],[92.7278,9.1193],[92.758,9.1232],[92.7737,9.1384],[92.7825,9.1266],[92.77,9.1282],[92.768,9.1213],[92.7964,9.1204],[92.8221,9.1389],[92.8242,9.1626],[92.8118,9.2036],[92.7668,9.2593],[92.7605,9.2171],[92.7382,9.2087],[92.7166,9.216],[92.7109,9.1963],[92.7099,9.1855]]],[[[92.8483,8.8252],[92.8519,8.8165],[92.8618,8.8369],[92.8485,8.8282],[92.8483,8.8252]]]]}},{"type":"Feature","properties":{"SUBDISTRICT":"Great Nicobar","STATE":"Andaman & Nicobar","shapeID":"7132399B5619937079095","source":"geoBoundaries gbOpen IND ADM3 (ODbL 1.0); source: Local Government Directory lgdirectory.gov.in via Pathways Data","DISTRICT":"Nicobar Islands","ELEV_MEAN_M":107.1,"ELEV_MIN_M":-3.0,"ELEV_MAX_M":805.0,"PCT_BELOW_5M":2.7,"PCT_BELOW_10M":4.7},"geometry":{"type":"MultiPolygon","coordinates":[[[[93.5309,7.5235],[93.5354,7.5115],[93.5407,7.514],[93.542,7.5206],[93.5323,7.5258],[93.5309,7.5235]]],[[[93.6248,7.4786],[93.6308,7.4764],[93.6249,7.4817],[93.6248,7.4786]]],[[[93.6388,7.4724],[93.6444,7.4709],[93.6389,7.4757],[93.6388,7.4724]]],[[[93.6147,7.3039],[93.6276,7.2854],[93.6238,7.2634],[93.6453,7.2408],[93.6641,7.2548],[93.6705,7.2797],[93.7339,7.3215],[93.7326,7.336],[93.746,7.3621],[93.7108,7.3892],[93.7051,7.426],[93.6946,7.4414],[93.697,7.4186],[93.691,7.401],[93.702,7.3899],[93.6826,7.3886],[93.6613,7.3675],[93.6551,7.3739],[93.6443,7.3675],[93.6236,7.3688],[93.6304,7.3221],[93.6295,7.3143],[93.6176,7.307],[93.6147,7.3039]]],[[[93.6757,7.4048],[93.6862,7.3986],[93.6775,7.4091],[93.6757,7.4048]]],[[[93.7547,7.3989],[93.7636,7.3937],[93.7573,7.4038],[93.7547,7.3989]]],[[[93.8357,7.2872],[93.8374,7.2834],[93.8384,7.2857],[93.8412,7.2875],[93.8412,7.2893],[93.8394,7.2895],[93.8366,7.2882],[93.8357,7.2872]]],[[[93.6536,7.12],[93.658,7.1109],[93.6718,7.1098],[93.6573,7.0934],[93.6671,7.0785],[93.6588,7.072],[93.6651,7.0654],[93.6604,7.0448],[93.6711,7.0319],[93.6598,7.0112],[93.6682,7.0069],[93.6788,7.0183],[93.6883,7.0176],[93.7013,6.9956],[93.7168,6.9904],[93.7122,6.9993],[93.7172,6.9991],[93.7231,6.9941],[93.7306,6.9647],[93.7477,6.9585],[93.755,6.9282],[93.7491,6.9224],[93.7569,6.9044],[93.773,6.9125],[93.7782,6.8901],[93.7998,6.8743],[93.7871,6.8705],[93.7854,6.8588],[93.7879,6.8511],[93.8052,6.8429],[93.7974,6.8258],[93.8136,6.8031],[93.8264,6.7986],[93.821,6.7969],[93.8204,6.7543],[93.8478,6.7474],[93.8624,6.7765],[93.8625,6.7979],[93.8911,6.7987],[93.8934,6.7908],[93.9003,6.7913],[93.9137,6.8025],[93.9191,6.8288],[93.9004,6.8466],[93.9004,6.8611],[93.9097,6.8739],[93.9074,6.8998],[93.924,6.9097],[93.9192,6.9188],[93.9282,6.9466],[93.95,6.9522],[93.9329,6.9686],[93.9341,6.9773],[93.92,6.9912],[93.9206,6.9981],[93.9367,7.0076],[93.9508,6.9897],[93.9547,6.9984],[93.9357,7.0221],[93.9251,7.0201],[93.913,7.0685],[93.897,7.0791],[93.8912,7.0949],[93.8923,7.1475],[93.8822,7.1724],[93.8795,7.2024],[93.8686,7.2158],[93.851,7.2133],[93.8429,7.2201],[93.8427,7.2369],[93.8348,7.2369],[93.8298,7.2304],[93.8043,7.2255],[93.8033,7.1959],[93.7978,7.2048],[93.7824,7.2077],[93.7682,7.2016],[93.7622,7.2069],[93.7502,7.201],[93.7573,7.1904],[93.7415,7.1931],[93.7329,7.1823],[93.6879,7.1853],[93.6723,7.1738],[93.678,7.1442],[93.657,7.1266],[93.6536,7.12]],[[93.8182,6.802],[93.8202,6.8084],[93.8266,6.8021],[93.8182,6.802]],[[93.8656,6.8022],[93.8801,6.8084],[93.8884,6.8024],[93.8656,6.8022]]],[[[93.7057,7.2258],[93.7113,7.2013],[93.7206,7.2031],[93.7148,7.218],[93.7057,7.2258]]]]}},{"type":"Feature","properties":{"SUBDISTRICT":"Port Blair","STATE":"Andaman & Nicobar","shapeID":"7132399B25111954143387","source":"geoBoundaries gbOpen IND ADM3 (ODbL 1.0); source: Local Government Directory lgdirectory.gov.in via Pathways Data","DISTRICT":null,"ELEV_MEAN_M":70.3,"ELEV_MIN_M":-3.0,"ELEV_MAX_M":2762.0,"PCT_BELOW_5M":6.9,"PCT_BELOW_10M":12.9},"geometry":{"type":"MultiPolygon","coordinates":[[[[92.659,11.5203],[92.6837,11.5027],[92.6951,11.5033],[92.6945,11.512],[92.7025,11.5064],[92.7099,11.5102],[92.7214,11.4793],[92.764,11.6181],[92.756,11.6396],[92.7647,11.6473],[92.7675,11.666],[92.761,11.6779],[92.7438,11.6732],[92.7445,11.6825],[92.7256,11.6764],[92.7116,11.6235],[92.691,11.6091],[92.6955,11.5924],[92.707,11.5961],[92.6941,11.5313],[92.6664,11.5197],[92.659,11.5203]]],[[[92.7687,11.6757],[92.7737,11.6698],[92.7773,11.6786],[92.7717,11.6791],[92.7687,11.6757]]],[[[92.5975,11.3639],[92.6151,11.3453],[92.65,11.3472],[92.6692,11.3563],[92.6781,11.3536],[92.6801,11.3606],[92.7041,11.374],[92.7013,11.3901],[92.6624,11.4038],[92.6835,11.4138],[92.6808,11.4227],[92.6877,11.4286],[92.6961,11.4248],[92.6976,11.4352],[92.688,11.4525],[92.6874,11.4719],[92.6472,11.5116],[92.633,11.4927],[92.6249,11.4622],[92.6359,11.4002],[92.6072,11.3984],[92.6069,11.3746],[92.5979,11.3683],[92.5975,11.3639]]],[[[92.5688,11.3834],[92.5736,11.387],[92.5689,11.3842],[92.5688,11.3834]]],[[[92.5564,11.3841],[92.5615,11.3863],[92.5565,11.3852],[92.5564,11.3841]]],[[[92.7263,11.3115],[92.7326,11.3128],[92.7304,11.3194],[92.7263,11.3115]]],[[[92.7022,11.2462],[92.7064,11.2431],[92.72,11.2728],[92.7183,11.2893],[92.7047,11.281],[92.7083,11.2611],[92.7022,11.2462]]],[[[92.6797,11.1812],[92.6905,11.1738],[92.6836,11.1852],[92.6797,11.1812]]],[[[92.739,11.1347],[92.739,11.1336],[92.7394,11.1321],[92.7404,11.1316],[92.7411,11.1324],[92.7417,11.1329],[92.7422,11.1334],[92.7427,11.1341],[92.7428,11.135],[92.7425,11.1361],[92.741,11.1367],[92.7398,11.1364],[92.739,11.1347]]],[[[92.6691,10.9785],[92.6734,10.9746],[92.6794,10.9812],[92.6706,10.9868],[92.6691,10.9785]]],[[[92.2173,10.9743],[92.2274,10.9692],[92.244,10.9779],[92.2346,10.984],[92.2191,10.9768],[92.2173,10.9743]]],[[[92.6153,10.9263],[92.6265,10.9246],[92.6168,10.9335],[92.6153,10.9263]]]]}}]}