{"type":"FeatureCollection","features":[{"type":"Feature","properties":{"SUBDISTRICT":"Chandigarh","STATE":"Chandigarh","shapeID":"7132399B90370901628616","source":"geoBoundaries gbOpen IND ADM3 (ODbL 1.0); source: Local Government Directory lgdirectory.gov.in via Pathways Data","DISTRICT":"Chandigarh"},"geometry":{"type":"Polygon","coordinates":[[[76.7038,30.7564],[76.7039,30.743],[76.7144,30.7416],[76.7293,30.7249],[76.7283,30.7096],[76.7386,30.7062],[76.7394,30.6922],[76.8075,30.6655],[76.8236,30.6811],[76.833,30.6819],[76.8343,30.6929],[76.8495,30.7104],[76.836,30.7362],[76.8415,30.76],[76.8064,30.7627],[76.8172,30.7752],[76.8094,30.782],[76.7942,30.7701],[76.7826,30.7732],[76.7906,30.7817],[76.7727,30.7953],[76.7515,30.7861],[76.736,30.767],[76.7122,30.7613],[76.7038,30.7564]]]}}]}