{"type":"FeatureCollection","features":[{"type":"Feature","properties":{"SUBDISTRICT":"Daman","STATE":"Dadra and Nagar Haveli and Daman and Diu","shapeID":"7132399B27416267019841","source":"geoBoundaries gbOpen IND ADM3 (ODbL 1.0); source: Local Government Directory lgdirectory.gov.in via Pathways Data","DISTRICT":null},"geometry":{"type":"Polygon","coordinates":[[[70.8676,20.712],[70.8715,20.7059],[70.8941,20.707],[70.8997,20.6991],[70.9132,20.6992],[70.9168,20.7077],[70.9277,20.7118],[70.954,20.7038],[70.9688,20.7077],[70.9759,20.702],[70.9942,20.7109],[70.998,20.7162],[70.9604,20.7373],[70.9389,20.7328],[70.9176,20.7416],[70.8797,20.7317],[70.8679,20.7123],[70.8676,20.712]]]}}]}