{"type": "FeatureCollection", "features": [{"type": "Feature", "properties": {"SUBDISTRICT": "Rajouri Garden", "STATE": "Delhi", "shapeID": "7132399B79483166602631", "source": "geoBoundaries gbOpen IND ADM3 (ODbL 1.0); source: Local Government Directory lgdirectory.gov.in via Pathways Data", "DISTRICT": "Delhi"}, "geometry": {"type": "Polygon", "coordinates": [[[77.0835, 28.6408], [77.0926, 28.6344], [77.0866, 28.629], [77.0948, 28.617], [77.1083, 28.6146], [77.126, 28.6364], [77.121, 28.6447], [77.1134, 28.6521], [77.0991, 28.6405], [77.089, 28.646], [77.0835, 28.6408]]]}}, {"type": "Feature", "properties": {"SUBDISTRICT": "Kotwali", "STATE": "Delhi", "shapeID": "7132399B31666933732900", "source": "geoBoundaries gbOpen IND ADM3 (ODbL 1.0); source: Local Government Directory lgdirectory.gov.in via Pathways Data", "DISTRICT": "Delhi"}, "geometry": {"type": "Polygon", "coordinates": [[[77.2086, 28.6567], [77.2114, 28.6438], [77.2411, 28.6258], [77.24, 28.6129], [77.2542, 28.6133], [77.2607, 28.5997], [77.2841, 28.61], [77.2699, 28.6318], [77.2716, 28.6467], [77.2576, 28.6602], [77.2408, 28.6634], [77.2349, 28.6709], [77.2136, 28.6673], [77.2092, 28.6588], [77.2086, 28.6567]]]}}, {"type": "Feature", "properties": {"SUBDISTRICT": "Seema Puri", "STATE": "Delhi", "shapeID": "7132399B76427253993716", "source": "geoBoundaries gbOpen IND ADM3 (ODbL 1.0); source: Local Government Directory lgdirectory.gov.in via Pathways Data", "DISTRICT": "Delhi"}, "geometry": {"type": "Polygon", "coordinates": [[[77.3031, 28.7043], [77.3039, 28.683], [77.3171, 28.6867], [77.316, 28.6941], [77.3223, 28.6949], [77.3283, 28.7116], [77.3058, 28.7076], [77.3031, 28.7043]]]}}, {"type": "Feature", "properties": {"SUBDISTRICT": "Shahdara", "STATE": "Delhi", "shapeID": "7132399B41248712520740", "source": "geoBoundaries gbOpen IND ADM3 (ODbL 1.0); source: Local Government Directory lgdirectory.gov.in via Pathways Data", "DISTRICT": "Delhi"}, "geometry": {"type": "Polygon", "coordinates": [[[77.2714, 28.6736], [77.2828, 28.6705], [77.2833, 28.6817], [77.2928, 28.6766], [77.3, 28.6877], [77.2882, 28.6974], [77.2827, 28.6892], [77.2745, 28.6956], [77.2729, 28.6804], [77.2714, 28.6736]]]}}, {"type": "Feature", "properties": {"SUBDISTRICT": "Vivek Vihar", "STATE": "Delhi", "shapeID": "7132399B26569764301384", "source": "geoBoundaries gbOpen IND ADM3 (ODbL 1.0); source: Local Government Directory lgdirectory.gov.in via Pathways Data", "DISTRICT": "Delhi"}, "geometry": {"type": "Polygon", "coordinates": [[[77.2541, 28.6664], [77.2716, 28.6467], [77.2699, 28.6318], [77.2841, 28.61], [77.2833, 28.6158], [77.2931, 28.6194], [77.2953, 28.6027], [77.3224, 28.6163], [77.3169, 28.6285], [77.3285, 28.6331], [77.3213, 28.6392], [77.3281, 28.6739], [77.3373, 28.6797], [77.33, 28.6982], [77.3337, 28.7104], [77.3262, 28.7095], [77.3171, 28.6867], [77.3039, 28.683], [77.3034, 28.6907], [77.2928, 28.6766], [77.2833, 28.6817], [77.2828, 28.6705], [77.2566, 28.6702], [77.2541, 28.6664]]]}}, {"type": "Feature", "properties": {"SUBDISTRICT": "Gandhi Nagar", "STATE": "Delhi", "shapeID": "7132399B7098432082239", "source": "geoBoundaries gbOpen IND ADM3 (ODbL 1.0); source: Local Government Directory lgdirectory.gov.in via Pathways Data", "DISTRICT": "Delhi"}, "geometry": {"type": "Polygon", "coordinates": [[[77.2513, 28.597], [77.2702, 28.5825], [77.289, 28.5955], [77.282, 28.6067], [77.2848, 28.6139], [77.2557, 28.5982], [77.2513, 28.597]]]}}, {"type": "Feature", "properties": {"SUBDISTRICT": "Punjabi Bagh", "STATE": "Delhi", "shapeID": "7132399B77907528818240", "source": "geoBoundaries gbOpen IND ADM3 (ODbL 1.0); source: Local Government Directory lgdirectory.gov.in via Pathways Data", "DISTRICT": "Delhi"}, "geometry": {"type": "Polygon", "coordinates": [[[76.9558, 28.6783], [76.9655, 28.6625], [76.9901, 28.6508], [77.0177, 28.6237], [77.0253, 28.6408], [77.0399, 28.6503], [77.0516, 28.6503], [77.0596, 28.639], [77.0805, 28.6556], [77.0992, 28.6614], [77.1142, 28.658], [77.1414, 28.6676], [77.1242, 28.6874], [77.1187, 28.6816], [77.0936, 28.6895], [77.0687, 28.6834], [77.0428, 28.6875], [77.0264, 28.6977], [77.0155, 28.6978], [76.9983, 28.6808], [76.9726, 28.7033], [76.9645, 28.7002], [76.9564, 28.6795], [76.9558, 28.6783]]]}}, {"type": "Feature", "properties": {"SUBDISTRICT": "Chanakya Puri", "STATE": "Delhi", "shapeID": "7132399B99286521414100", "source": "geoBoundaries gbOpen IND ADM3 (ODbL 1.0); source: Local Government Directory lgdirectory.gov.in via Pathways Data", "DISTRICT": "Delhi"}, "geometry": {"type": "Polygon", "coordinates": [[[77.1682, 28.5966], [77.1755, 28.587], [77.201, 28.581], [77.1992, 28.5895], [77.2397, 28.5931], [77.2399, 28.6093], [77.2551, 28.6097], [77.24, 28.6129], [77.2411, 28.6258], [77.2192, 28.642], [77.2137, 28.6364], [77.1976, 28.6457], [77.179, 28.6255], [77.1717, 28.6019], [77.1682, 28.5966]]]}}, {"type": "Feature", "properties": {"SUBDISTRICT": "Model Town", "STATE": "Delhi", "shapeID": "7132399B67629467490473", "source": "geoBoundaries gbOpen IND ADM3 (ODbL 1.0); source: Local Government Directory lgdirectory.gov.in via Pathways Data", "DISTRICT": "Delhi"}, "geometry": {"type": "Polygon", "coordinates": [[[77.1546, 28.746], [77.1613, 28.7266], [77.1578, 28.7195], [77.1652, 28.7139], [77.1624, 28.7071], [77.1897, 28.6911], [77.2056, 28.6923], [77.2209, 28.7159], [77.2141, 28.7243], [77.2005, 28.7292], [77.1924, 28.7252], [77.1942, 28.7307], [77.179, 28.7322], [77.1831, 28.7372], [77.1709, 28.7407], [77.1844, 28.7539], [77.1813, 28.7599], [77.1628, 28.7635], [77.1621, 28.7483], [77.1555, 28.7465], [77.1546, 28.746]]]}}, {"type": "Feature", "properties": {"SUBDISTRICT": "Mayur Vihar", "STATE": "Delhi", "shapeID": "7132399B60528361631165", "source": "geoBoundaries gbOpen IND ADM3 (ODbL 1.0); source: Local Government Directory lgdirectory.gov.in via Pathways Data", "DISTRICT": null}, "geometry": {"type": "Polygon", "coordinates": [[[77.2908, 28.5774], [77.3038, 28.5613], [77.3036, 28.5743], [77.3172, 28.5914], [77.3463, 28.6034], [77.3472, 28.6164], [77.3406, 28.6259], [77.3285, 28.6331], [77.3173, 28.6287], [77.3224, 28.6163], [77.2956, 28.6028], [77.2942, 28.5948], [77.3037, 28.5881], [77.2918, 28.5789], [77.2908, 28.5774]]]}}, {"type": "Feature", "properties": {"SUBDISTRICT": "Patel Nagar", "STATE": "Delhi", "shapeID": "7132399B921144202524", "source": "geoBoundaries gbOpen IND ADM3 (ODbL 1.0); source: Local Government Directory lgdirectory.gov.in via Pathways Data", "DISTRICT": "Delhi"}, "geometry": {"type": "Polygon", "coordinates": [[[77.0215, 28.6243], [77.0301, 28.6253], [77.0365, 28.6031], [77.0555, 28.5959], [77.0612, 28.6003], [77.0522, 28.6071], [77.0565, 28.6104], [77.0527, 28.6177], [77.0653, 28.6233], [77.0839, 28.6147], [77.0948, 28.617], [77.0866, 28.629], [77.0926, 28.6344], [77.0835, 28.6408], [77.089, 28.646], [77.0991, 28.6405], [77.1134, 28.6521], [77.126, 28.6364], [77.155, 28.6402], [77.1654, 28.6279], [77.176, 28.6302], [77.179, 28.6255], [77.1969, 28.6441], [77.1753, 28.6417], [77.1561, 28.6629], [77.1559, 28.6727], [77.1142, 28.658], [77.0992, 28.6614], [77.0805, 28.6556], [77.0596, 28.639], [77.0516, 28.6503], [77.0399, 28.6503], [77.0253, 28.6408], [77.0218, 28.6276], [77.0215, 28.6243]]]}}, {"type": "Feature", "properties": {"SUBDISTRICT": "Vasant Vihar", "STATE": "Delhi", "shapeID": "7132399B56421203728232", "source": "geoBoundaries gbOpen IND ADM3 (ODbL 1.0); source: Local Government Directory lgdirectory.gov.in via Pathways Data", "DISTRICT": "Delhi"}, "geometry": {"type": "Polygon", "coordinates": [[[77.0699, 28.5462], [77.0884, 28.5383], [77.0775, 28.5153], [77.1174, 28.4885], [77.1112, 28.4711], [77.1208, 28.4695], [77.1714, 28.4951], [77.1474, 28.5051], [77.1194, 28.4933], [77.126, 28.5049], [77.1188, 28.5105], [77.1206, 28.5158], [77.1409, 28.5382], [77.1574, 28.5298], [77.1852, 28.5503], [77.1899, 28.5604], [77.1992, 28.5659], [77.2038, 28.5598], [77.2115, 28.5802], [77.1793, 28.5816], [77.1635, 28.5888], [77.1562, 28.5744], [77.1634, 28.5728], [77.1622, 28.5584], [77.1511, 28.5641], [77.1426, 28.5531], [77.1168, 28.5576], [77.1103, 28.5534], [77.0912, 28.5631], [77.07, 28.548], [77.0699, 28.5462]]]}}, {"type": "Feature", "properties": {"SUBDISTRICT": "Kalkaji", "STATE": "Delhi", "shapeID": "7132399B83413688422431", "source": "geoBoundaries gbOpen IND ADM3 (ODbL 1.0); source: Local Government Directory lgdirectory.gov.in via Pathways Data", "DISTRICT": "Delhi"}, "geometry": {"type": "Polygon", "coordinates": [[[77.2233, 28.5562], [77.2337, 28.5321], [77.2449, 28.5253], [77.2423, 28.4927], [77.2491, 28.4764], [77.2699, 28.483], [77.2786, 28.5013], [77.2936, 28.497], [77.3086, 28.5017], [77.3029, 28.5175], [77.2939, 28.5256], [77.2825, 28.5243], [77.2702, 28.5392], [77.2803, 28.5539], [77.2722, 28.5639], [77.2667, 28.5675], [77.2485, 28.5522], [77.2457, 28.5592], [77.224, 28.5576], [77.2233, 28.5562]]]}}, {"type": "Feature", "properties": {"SUBDISTRICT": "Najafgarh", "STATE": "Delhi", "shapeID": "7132399B36698820051377", "source": "geoBoundaries gbOpen IND ADM3 (ODbL 1.0); source: Local Government Directory lgdirectory.gov.in via Pathways Data", "DISTRICT": "Delhi"}, "geometry": {"type": "Polygon", "coordinates": [[[76.8425, 28.5774], [76.8472, 28.5519], [76.8842, 28.5246], [76.8941, 28.5268], [76.8928, 28.5375], [76.9138, 28.5333], [76.9086, 28.5605], [76.9372, 28.5692], [76.9295, 28.5765], [76.934, 28.5856], [76.9552, 28.5838], [76.9649, 28.5769], [76.9852, 28.5965], [77.0211, 28.5962], [77.0097, 28.6051], [77.0175, 28.6109], [76.9958, 28.631], [77.005, 28.635], [76.9571, 28.672], [76.9396, 28.6693], [76.9273, 28.6521], [76.9437, 28.6325], [76.9357, 28.6241], [76.9201, 28.6327], [76.9034, 28.6276], [76.8877, 28.6325], [76.8644, 28.5872], [76.8446, 28.5863], [76.8427, 28.5784], [76.8425, 28.5774]]]}}, {"type": "Feature", "properties": {"SUBDISTRICT": "Hauz Khas", "STATE": "Delhi", "shapeID": "7132399B8308156936447", "source": "geoBoundaries gbOpen IND ADM3 (ODbL 1.0); source: Local Government Directory lgdirectory.gov.in via Pathways Data", "DISTRICT": "Delhi"}, "geometry": {"type": "Polygon", "coordinates": [[[77.1802, 28.5467], [77.2004, 28.5476], [77.1866, 28.5335], [77.2027, 28.5281], [77.2014, 28.5194], [77.2074, 28.5182], [77.1978, 28.5102], [77.2126, 28.5038], [77.2096, 28.4781], [77.2379, 28.465], [77.2491, 28.4764], [77.2423, 28.4927], [77.2449, 28.5253], [77.2337, 28.5321], [77.229, 28.5513], [77.2149, 28.5633], [77.2089, 28.5583], [77.1992, 28.5659], [77.1831, 28.549], [77.1802, 28.5467]]]}}, {"type": "Feature", "properties": {"SUBDISTRICT": "Defence Colony", "STATE": "Delhi", "shapeID": "7132399B54403339513296", "source": "geoBoundaries gbOpen IND ADM3 (ODbL 1.0); source: Local Government Directory lgdirectory.gov.in via Pathways Data", "DISTRICT": "Delhi"}, "geometry": {"type": "Polygon", "coordinates": [[[77.1988, 28.5885], [77.201, 28.5816], [77.2115, 28.5802], [77.205, 28.5612], [77.2089, 28.5583], [77.2149, 28.5633], [77.2233, 28.5562], [77.2457, 28.5592], [77.2485, 28.5522], [77.2667, 28.5675], [77.2722, 28.5639], [77.2803, 28.5539], [77.272, 28.5373], [77.2791, 28.5344], [77.2759, 28.5432], [77.3005, 28.5408], [77.2862, 28.5303], [77.2896, 28.5226], [77.3229, 28.537], [77.2965, 28.574], [77.2566, 28.5904], [77.2513, 28.597], [77.2607, 28.5997], [77.2551, 28.6097], [77.2399, 28.6093], [77.2397, 28.5931], [77.1992, 28.5895], [77.1988, 28.5885]]]}}, {"type": "Feature", "properties": {"SUBDISTRICT": "Narela", "STATE": "Delhi", "shapeID": "7132399B91704180473431", "source": "geoBoundaries gbOpen IND ADM3 (ODbL 1.0); source: Local Government Directory lgdirectory.gov.in via Pathways Data", "DISTRICT": "Delhi"}, "geometry": {"type": "Polygon", "coordinates": [[[76.9659, 28.8149], [76.9788, 28.7954], [77.0161, 28.7803], [77.0187, 28.7579], [77.0311, 28.754], [77.0514, 28.7681], [77.0589, 28.7572], [77.0573, 28.7457], [77.0712, 28.7457], [77.0845, 28.7313], [77.099, 28.7425], [77.0934, 28.7485], [77.0984, 28.7696], [77.1039, 28.7676], [77.1016, 28.7595], [77.1217, 28.7522], [77.1041, 28.7679], [77.1279, 28.7891], [77.1123, 28.8137], [77.1359, 28.8331], [77.1204, 28.8379], [77.1162, 28.846], [77.1246, 28.8607], [77.0936, 28.8694], [77.0861, 28.8793], [77.0759, 28.8678], [77.06, 28.868], [77.0417, 28.8316], [76.9936, 28.834], [76.9838, 28.8207], [76.9709, 28.8266], [76.9665, 28.8178], [76.9659, 28.8149]]]}}, {"type": "Feature", "properties": {"SUBDISTRICT": "Saraswati Vihar", "STATE": "Delhi", "shapeID": "7132399B47966460917350", "source": "geoBoundaries gbOpen IND ADM3 (ODbL 1.0); source: Local Government Directory lgdirectory.gov.in via Pathways Data", "DISTRICT": "Delhi"}, "geometry": {"type": "Polygon", "coordinates": [[[77.0974, 28.689], [77.1187, 28.6816], [77.1274, 28.6858], [77.1245, 28.6826], [77.1361, 28.6788], [77.1414, 28.6676], [77.1559, 28.6727], [77.1561, 28.6629], [77.1652, 28.6575], [77.184, 28.6776], [77.1772, 28.6897], [77.185, 28.6852], [77.1897, 28.6911], [77.1624, 28.7071], [77.1584, 28.7307], [77.1421, 28.7264], [77.1335, 28.7052], [77.1256, 28.704], [77.1211, 28.7128], [77.1046, 28.7056], [77.0999, 28.6931], [77.0974, 28.689]]]}}, {"type": "Feature", "properties": {"SUBDISTRICT": "Civil Lines", "STATE": "Delhi", "shapeID": "7132399B52831242342236", "source": "geoBoundaries gbOpen IND ADM3 (ODbL 1.0); source: Local Government Directory lgdirectory.gov.in via Pathways Data", "DISTRICT": "Delhi"}, "geometry": {"type": "Polygon", "coordinates": [[[77.1652, 28.6575], [77.1774, 28.6447], [77.1899, 28.6594], [77.2098, 28.6502], [77.2136, 28.6673], [77.2349, 28.6709], [77.2391, 28.6803], [77.2344, 28.7029], [77.2412, 28.7243], [77.2286, 28.7273], [77.2258, 28.7509], [77.2201, 28.7521], [77.2181, 28.7688], [77.2066, 28.7789], [77.2106, 28.7864], [77.1907, 28.7726], [77.1743, 28.7734], [77.1847, 28.7557], [77.1709, 28.7407], [77.1831, 28.7372], [77.179, 28.7322], [77.1942, 28.7307], [77.1924, 28.7252], [77.2005, 28.7292], [77.2141, 28.7243], [77.2209, 28.7159], [77.2056, 28.6923], [77.1897, 28.6911], [77.185, 28.6852], [77.1772, 28.6897], [77.184, 28.6776], [77.1766, 28.6722], [77.1652, 28.6575]]]}}, {"type": "Feature", "properties": {"SUBDISTRICT": "Seelam Pur", "STATE": "Delhi", "shapeID": "7132399B3411190247591", "source": "geoBoundaries gbOpen IND ADM3 (ODbL 1.0); source: Local Government Directory lgdirectory.gov.in via Pathways Data", "DISTRICT": "Delhi"}, "geometry": {"type": "Polygon", "coordinates": [[[77.2343, 28.6918], [77.2391, 28.6803], [77.2349, 28.6709], [77.2408, 28.6634], [77.2576, 28.6602], [77.2566, 28.6702], [77.2714, 28.6736], [77.2787, 28.6974], [77.2694, 28.7071], [77.2733, 28.7146], [77.2557, 28.709], [77.2555, 28.7016], [77.2358, 28.7066], [77.235, 28.6934], [77.2343, 28.6918]]]}}, {"type": "Feature", "properties": {"SUBDISTRICT": "Preet Vihar", "STATE": "Delhi", "shapeID": "7132399B14866638222551", "source": "geoBoundaries gbOpen IND ADM3 (ODbL 1.0); source: Local Government Directory lgdirectory.gov.in via Pathways Data", "DISTRICT": "Delhi"}, "geometry": {"type": "Polygon", "coordinates": [[[77.2702, 28.5825], [77.2908, 28.5774], [77.3037, 28.5881], [77.2929, 28.5973], [77.2926, 28.6196], [77.2833, 28.6158], [77.289, 28.5955], [77.2731, 28.586], [77.2702, 28.5825]]]}}, {"type": "Feature", "properties": {"SUBDISTRICT": "Delhi Cantonment", "STATE": "Delhi", "shapeID": "7132399B26804271309069", "source": "geoBoundaries gbOpen IND ADM3 (ODbL 1.0); source: Local Government Directory lgdirectory.gov.in via Pathways Data", "DISTRICT": "Delhi"}, "geometry": {"type": "Polygon", "coordinates": [[[77.0504, 28.5587], [77.07, 28.548], [77.0912, 28.5631], [77.1103, 28.5534], [77.1168, 28.5576], [77.1426, 28.5531], [77.1511, 28.5641], [77.1645, 28.5608], [77.1593, 28.566], [77.1634, 28.5728], [77.1562, 28.5744], [77.1635, 28.5888], [77.1834, 28.5836], [77.1682, 28.5966], [77.1811, 28.6237], [77.1436, 28.6425], [77.1281, 28.6384], [77.1023, 28.6118], [77.098, 28.6011], [77.1022, 28.5968], [77.0805, 28.5711], [77.0693, 28.5774], [77.0566, 28.5676], [77.0504, 28.5587]]]}}, {"type": "Feature", "properties": {"SUBDISTRICT": "Alipur", "STATE": "Delhi", "shapeID": "7132399B85719344731300", "source": "geoBoundaries gbOpen IND ADM3 (ODbL 1.0); source: Local Government Directory lgdirectory.gov.in via Pathways Data", "DISTRICT": "Delhi"}, "geometry": {"type": "Polygon", "coordinates": [[[77.0934, 28.7485], [77.1167, 28.7318], [77.1256, 28.704], [77.1335, 28.7052], [77.1421, 28.7264], [77.1602, 28.7327], [77.1546, 28.746], [77.1621, 28.7483], [77.1628, 28.7635], [77.1768, 28.7632], [77.1743, 28.7734], [77.1907, 28.7726], [77.2069, 28.7843], [77.2049, 28.81], [77.2239, 28.8082], [77.2276, 28.83], [77.2218, 28.8496], [77.21, 28.8596], [77.1749, 28.8554], [77.1495, 28.8364], [77.1388, 28.8601], [77.1246, 28.8607], [77.1162, 28.846], [77.1204, 28.8379], [77.1359, 28.8331], [77.12, 28.8248], [77.1121, 28.8119], [77.1279, 28.7891], [77.1041, 28.7679], [77.1217, 28.7522], [77.1016, 28.7595], [77.0996, 28.7699], [77.0938, 28.7516], [77.0934, 28.7485]]]}}, {"type": "Feature", "properties": {"SUBDISTRICT": "Rohini", "STATE": "Delhi", "shapeID": "7132399B38909788095823", "source": "geoBoundaries gbOpen IND ADM3 (ODbL 1.0); source: Local Government Directory lgdirectory.gov.in via Pathways Data", "DISTRICT": "Delhi"}, "geometry": {"type": "Polygon", "coordinates": [[[77.0052, 28.7123], [77.0136, 28.696], [77.0264, 28.6977], [77.0428, 28.6875], [77.072, 28.6833], [77.0974, 28.689], [77.1046, 28.7056], [77.1224, 28.7133], [77.1167, 28.7318], [77.099, 28.7425], [77.0845, 28.7313], [77.0712, 28.7457], [77.0604, 28.7465], [77.058, 28.722], [77.0138, 28.7252], [77.0082, 28.7181], [77.0052, 28.7123]]]}}, {"type": "Feature", "properties": {"SUBDISTRICT": "Dwarka", "STATE": "Delhi", "shapeID": "7132399B96078031896903", "source": "geoBoundaries gbOpen IND ADM3 (ODbL 1.0); source: Local Government Directory lgdirectory.gov.in via Pathways Data", "DISTRICT": "Delhi"}, "geometry": {"type": "Polygon", "coordinates": [[[76.9958, 28.631], [77.0175, 28.6109], [77.0096, 28.606], [77.0207, 28.6], [77.0173, 28.592], [77.0433, 28.5775], [77.019, 28.5494], [77.0483, 28.5564], [77.0693, 28.5774], [77.0805, 28.5711], [77.1022, 28.5968], [77.098, 28.6011], [77.1023, 28.6118], [77.0653, 28.6233], [77.0517, 28.6163], [77.0565, 28.6104], [77.0522, 28.6071], [77.0612, 28.6003], [77.0555, 28.5959], [77.0365, 28.6031], [77.0301, 28.6253], [77.0141, 28.6243], [77.0065, 28.6347], [76.9974, 28.6324], [76.9958, 28.631]]]}}, {"type": "Feature", "properties": {"SUBDISTRICT": "Kapeshera", "STATE": "Delhi", "shapeID": "7132399B6806265883243", "source": "geoBoundaries gbOpen IND ADM3 (ODbL 1.0); source: Local Government Directory lgdirectory.gov.in via Pathways Data", "DISTRICT": "Delhi"}, "geometry": {"type": "Polygon", "coordinates": [[[76.8833, 28.5093], [76.8889, 28.5039], [76.907, 28.5126], [76.9322, 28.5141], [76.9542, 28.5084], [76.9781, 28.5224], [77.0152, 28.5092], [77.021, 28.5189], [77.0056, 28.5317], [77.0158, 28.5375], [77.0584, 28.5099], [77.0666, 28.5086], [77.0847, 28.5226], [77.0884, 28.5383], [77.0699, 28.5434], [77.0504, 28.5587], [77.019, 28.5494], [77.0433, 28.5775], [77.0258, 28.584], [77.0256, 28.591], [77.0173, 28.592], [77.0211, 28.5962], [77.0005, 28.598], [76.98, 28.5935], [76.9649, 28.5769], [76.9552, 28.5838], [76.934, 28.5856], [76.9295, 28.5765], [76.9372, 28.5692], [76.9086, 28.5605], [76.9138, 28.5333], [76.8928, 28.5375], [76.8941, 28.5268], [76.8842, 28.5246], [76.889, 28.5189], [76.8833, 28.5093]]]}}, {"type": "Feature", "properties": {"SUBDISTRICT": "Mehrauli", "STATE": "Delhi", "shapeID": "7132399B38015290776987", "source": "geoBoundaries gbOpen IND ADM3 (ODbL 1.0); source: Local Government Directory lgdirectory.gov.in via Pathways Data", "DISTRICT": "Delhi"}, "geometry": {"type": "Polygon", "coordinates": [[[77.1112, 28.4711], [77.1279, 28.4371], [77.1521, 28.4303], [77.1754, 28.4031], [77.2049, 28.4071], [77.1811, 28.4354], [77.1897, 28.4626], [77.1685, 28.4776], [77.1752, 28.4884], [77.1741, 28.5045], [77.189, 28.5247], [77.182, 28.531], [77.1983, 28.5484], [77.1769, 28.5462], [77.1574, 28.5298], [77.1395, 28.5369], [77.1185, 28.5131], [77.126, 28.5049], [77.1194, 28.4933], [77.1566, 28.5053], [77.171, 28.4939], [77.1159, 28.4709], [77.1112, 28.4711]]]}}, {"type": "Feature", "properties": {"SUBDISTRICT": "Saket", "STATE": "Delhi", "shapeID": "7132399B1702903600735", "source": "geoBoundaries gbOpen IND ADM3 (ODbL 1.0); source: Local Government Directory lgdirectory.gov.in via Pathways Data", "DISTRICT": "Delhi"}, "geometry": {"type": "Polygon", "coordinates": [[[77.1685, 28.4776], [77.1897, 28.4626], [77.1811, 28.4354], [77.1962, 28.4145], [77.2049, 28.4071], [77.2324, 28.4135], [77.2503, 28.4234], [77.253, 28.442], [77.2362, 28.4548], [77.2379, 28.465], [77.2096, 28.4781], [77.2126, 28.5038], [77.1978, 28.5102], [77.2015, 28.5161], [77.2086, 28.5144], [77.2014, 28.5194], [77.2027, 28.5281], [77.1827, 28.5322], [77.189, 28.5247], [77.1741, 28.5045], [77.1752, 28.4884], [77.1686, 28.4776], [77.1685, 28.4776]]]}}, {"type": "Feature", "properties": {"SUBDISTRICT": "Sarita Vihar", "STATE": "Delhi", "shapeID": "7132399B48945131257373", "source": "geoBoundaries gbOpen IND ADM3 (ODbL 1.0); source: Local Government Directory lgdirectory.gov.in via Pathways Data", "DISTRICT": "Delhi"}, "geometry": {"type": "MultiPolygon", "coordinates": [[[[77.2699, 28.483], [77.2879, 28.4927], [77.3167, 28.4852], [77.3476, 28.5035], [77.3229, 28.537], [77.2939, 28.5256], [77.3054, 28.5149], [77.3086, 28.5017], [77.2936, 28.497], [77.2786, 28.5013], [77.2702, 28.4884], [77.2699, 28.483]]], [[[77.2753, 28.5418], [77.2825, 28.5243], [77.3011, 28.5387], [77.2759, 28.5432], [77.2753, 28.5418]]]]}}, {"type": "Feature", "properties": {"SUBDISTRICT": "Yamuna Vihar", "STATE": "Delhi", "shapeID": "7132399B85415315674850", "source": "geoBoundaries gbOpen IND ADM3 (ODbL 1.0); source: Local Government Directory lgdirectory.gov.in via Pathways Data", "DISTRICT": "Delhi"}, "geometry": {"type": "Polygon", "coordinates": [[[77.2691, 28.7084], [77.2719, 28.7015], [77.2787, 28.7023], [77.2783, 28.6904], [77.2839, 28.6893], [77.2853, 28.6976], [77.3032, 28.6897], [77.3031, 28.7043], [77.2944, 28.7106], [77.2913, 28.7059], [77.2726, 28.7135], [77.2694, 28.709], [77.2691, 28.7084]]]}}, {"type": "Feature", "properties": {"SUBDISTRICT": "Karawal Nagar", "STATE": "Delhi", "shapeID": "7132399B35613475184062", "source": "geoBoundaries gbOpen IND ADM3 (ODbL 1.0); source: Local Government Directory lgdirectory.gov.in via Pathways Data", "DISTRICT": "Delhi"}, "geometry": {"type": "Polygon", "coordinates": [[[77.2063, 28.7797], [77.2181, 28.7688], [77.2201, 28.7521], [77.2258, 28.7509], [77.2286, 28.7273], [77.2401, 28.7281], [77.2358, 28.7066], [77.2555, 28.7016], [77.2549, 28.7081], [77.2633, 28.7076], [77.2656, 28.7147], [77.2913, 28.7059], [77.2944, 28.7106], [77.2871, 28.729], [77.2664, 28.7345], [77.2634, 28.7474], [77.2482, 28.7538], [77.2273, 28.7763], [77.2349, 28.7823], [77.2106, 28.7864], [77.2065, 28.7808], [77.2063, 28.7797]]]}}, {"type": "Feature", "properties": {"SUBDISTRICT": "Kanjhawala", "STATE": "Delhi", "shapeID": "7132399B3309272879411", "source": "geoBoundaries gbOpen IND ADM3 (ODbL 1.0); source: Local Government Directory lgdirectory.gov.in via Pathways Data", "DISTRICT": "Delhi"}, "geometry": {"type": "Polygon", "coordinates": [[[76.9474, 28.804], [76.9566, 28.7689], [76.9482, 28.7545], [76.9603, 28.7415], [76.9512, 28.7119], [76.9645, 28.7002], [76.9812, 28.7004], [77.0023, 28.6808], [77.0136, 28.696], [77.0052, 28.7123], [77.0125, 28.725], [77.0496, 28.7195], [77.0615, 28.7264], [77.0589, 28.7572], [77.0514, 28.7681], [77.0311, 28.754], [77.0187, 28.7579], [77.015, 28.7813], [76.9788, 28.7954], [76.9659, 28.8149], [76.9524, 28.8156], [76.9474, 28.804]]]}}, {"type": "Feature", "properties": {"SUBDISTRICT": "Karol Bagh", "STATE": "Delhi", "shapeID": "7132399B69977553802111", "source": "geoBoundaries gbOpen IND ADM3 (ODbL 1.0); source: Local Government Directory lgdirectory.gov.in via Pathways Data", "DISTRICT": "Delhi"}, "geometry": {"type": "Polygon", "coordinates": [[[77.1753, 28.6417], [77.1976, 28.6457], [77.2137, 28.6364], [77.2192, 28.642], [77.2219, 28.6367], [77.222, 28.642], [77.1899, 28.6594], [77.1774, 28.6447], [77.1753, 28.6417]]]}}]}