{"type":"FeatureCollection","features":[{"type":"Feature","properties":{"SUBDISTRICT":"Pernem","STATE":"Goa","shapeID":"7132399B11482737357430","source":"geoBoundaries gbOpen IND ADM3 (ODbL 1.0); source: Local Government Directory lgdirectory.gov.in via Pathways Data","DISTRICT":"North Goa","ELEV_MEAN_M":45.7,"ELEV_MIN_M":-3.0,"ELEV_MAX_M":189.0,"PCT_BELOW_5M":9.9,"PCT_BELOW_10M":19.2},"geometry":{"type":"Polygon","coordinates":[[[73.6759,15.7262],[73.6887,15.7206],[73.7224,15.6301],[73.7323,15.618],[73.732,15.6075],[73.7426,15.6038],[73.7553,15.6162],[73.7479,15.6218],[73.7528,15.6295],[73.7758,15.6382],[73.7781,15.6493],[73.8136,15.6527],[73.8403,15.6467],[73.8406,15.6627],[73.861,15.6796],[73.8831,15.6831],[73.8929,15.7019],[73.9128,15.6896],[73.9332,15.7021],[73.9491,15.6989],[73.9507,15.7134],[73.9372,15.7436],[73.8739,15.7514],[73.8784,15.7724],[73.8665,15.785],[73.8674,15.7953],[73.8569,15.7996],[73.8483,15.7803],[73.83,15.763],[73.8243,15.7398],[73.8115,15.742],[73.7842,15.7258],[73.7491,15.7348],[73.7278,15.7193],[73.7119,15.728],[73.6963,15.7283],[73.6958,15.7217],[73.6765,15.7266],[73.6759,15.7262]]]}},{"type":"Feature","properties":{"SUBDISTRICT":"Bardez","STATE":"Goa","shapeID":"7132399B74265683060914","source":"geoBoundaries gbOpen IND ADM3 (ODbL 1.0); source: Local Government Directory lgdirectory.gov.in via Pathways Data","DISTRICT":"North Goa","ELEV_MEAN_M":27.0,"ELEV_MIN_M":-3.0,"ELEV_MAX_M":132.0,"PCT_BELOW_5M":21.1,"PCT_BELOW_10M":34.7},"geometry":{"type":"Polygon","coordinates":[[[73.7317,15.6067],[73.7317,15.5903],[73.741,15.5651],[73.7507,15.5562],[73.7702,15.4899],[73.7851,15.4925],[73.788,15.4989],[73.8095,15.4953],[73.8178,15.5109],[73.8261,15.5033],[73.8433,15.5033],[73.8486,15.5205],[73.8732,15.5312],[73.8699,15.5639],[73.8852,15.5689],[73.8952,15.5578],[73.8978,15.5674],[73.9055,15.5671],[73.9002,15.5762],[73.8932,15.5724],[73.8876,15.579],[73.8966,15.5968],[73.8872,15.6138],[73.907,15.6152],[73.9106,15.6362],[73.8954,15.6313],[73.8811,15.647],[73.9023,15.6549],[73.9032,15.67],[73.8936,15.6832],[73.861,15.6796],[73.8406,15.6627],[73.8403,15.6467],[73.8136,15.6527],[73.7781,15.6493],[73.7758,15.6382],[73.7493,15.6243],[73.7553,15.6162],[73.7514,15.6091],[73.7426,15.6038],[73.732,15.6075],[73.7317,15.6067]]]}},{"type":"Feature","properties":{"SUBDISTRICT":"Tiswadi","STATE":"Goa","shapeID":"7132399B602020822713","source":"geoBoundaries gbOpen IND ADM3 (ODbL 1.0); source: Local Government Directory lgdirectory.gov.in via Pathways Data","DISTRICT":"North Goa","ELEV_MEAN_M":17.4,"ELEV_MIN_M":-3.0,"ELEV_MAX_M":102.0,"PCT_BELOW_5M":46.9,"PCT_BELOW_10M":62.1},"geometry":{"type":"Polygon","coordinates":[[[73.7873,15.4631],[73.8029,15.4503],[73.8127,15.4558],[73.8412,15.4478],[73.8485,15.4516],[73.8595,15.4412],[73.8615,15.4284],[73.883,15.4325],[73.8958,15.4148],[73.9163,15.4119],[73.9275,15.433],[73.9449,15.4407],[73.9445,15.4558],[73.9562,15.4632],[73.9506,15.4812],[73.9526,15.4975],[73.961,15.5035],[73.9431,15.5249],[73.9523,15.5274],[73.9606,15.5399],[73.9499,15.5485],[73.9268,15.5372],[73.9062,15.5567],[73.9048,15.5654],[73.8978,15.5674],[73.8952,15.5578],[73.884,15.5692],[73.8686,15.5623],[73.8725,15.5297],[73.8486,15.5205],[73.8433,15.5033],[73.8187,15.5008],[73.8062,15.484],[73.8023,15.464],[73.7874,15.4632],[73.7873,15.4631]]]}},{"type":"Feature","properties":{"SUBDISTRICT":"Bicholim","STATE":"Goa","shapeID":"7132399B30636543190136","source":"geoBoundaries gbOpen IND ADM3 (ODbL 1.0); source: Local Government Directory lgdirectory.gov.in via Pathways Data","DISTRICT":"North Goa","ELEV_MEAN_M":40.4,"ELEV_MIN_M":-3.0,"ELEV_MAX_M":192.0,"PCT_BELOW_5M":8.7,"PCT_BELOW_10M":15.7},"geometry":{"type":"Polygon","coordinates":[[[73.8811,15.647],[73.8954,15.6313],[73.9106,15.6362],[73.907,15.6152],[73.8872,15.6138],[73.8966,15.5968],[73.8876,15.579],[73.8932,15.5724],[73.9011,15.5755],[73.9062,15.5567],[73.9205,15.5407],[73.9315,15.5373],[73.9532,15.5474],[73.9707,15.5262],[73.994,15.5137],[74.0004,15.5003],[74.0188,15.4955],[74.0226,15.4806],[74.0304,15.4782],[74.0265,15.4709],[74.0486,15.4441],[74.0499,15.458],[74.067,15.4586],[74.0666,15.4695],[74.0768,15.4612],[74.0949,15.4679],[74.0738,15.485],[74.069,15.5017],[74.038,15.5303],[74.0552,15.568],[74.0438,15.5723],[74.0193,15.5637],[73.9995,15.571],[73.9996,15.5841],[74.0171,15.5921],[74.0215,15.6049],[73.9945,15.6112],[73.968,15.6311],[73.9612,15.6465],[73.9677,15.6619],[73.9577,15.6971],[73.9332,15.7021],[73.9128,15.6896],[73.8999,15.7015],[73.8908,15.7006],[73.8832,15.6835],[73.9006,15.6771],[73.9023,15.6549],[73.8812,15.6482],[73.8811,15.647]]]}},{"type":"Feature","properties":{"SUBDISTRICT":"Quepem","STATE":"Goa","shapeID":"7132399B44553532975033","source":"geoBoundaries gbOpen IND ADM3 (ODbL 1.0); source: Local Government Directory lgdirectory.gov.in via Pathways Data","DISTRICT":"South Goa","ELEV_MEAN_M":123.5,"ELEV_MIN_M":-1.0,"ELEV_MAX_M":671.0,"PCT_BELOW_5M":1.4,"PCT_BELOW_10M":4.2},"geometry":{"type":"Polygon","coordinates":[[[73.9357,15.1323],[73.9389,15.1127],[73.9558,15.0879],[73.9767,15.0983],[74.0028,15.0994],[74.0004,15.0853],[74.014,15.0721],[74.0093,15.0647],[74.0135,15.0534],[74.0519,15.0483],[74.0745,15.0544],[74.0975,15.0435],[74.12,15.064],[74.1608,15.0671],[74.1695,15.0583],[74.1618,15.0485],[74.1833,15.0422],[74.1923,15.0593],[74.1904,15.0678],[74.1983,15.0718],[74.1698,15.0865],[74.177,15.1092],[74.1665,15.1223],[74.1569,15.1238],[74.1428,15.1156],[74.1295,15.123],[74.1022,15.1083],[74.1018,15.127],[74.0945,15.136],[74.0816,15.1374],[74.0766,15.1551],[74.0628,15.161],[74.0657,15.1764],[74.0922,15.1907],[74.1027,15.1916],[74.1234,15.1697],[74.1489,15.1681],[74.1734,15.1801],[74.1734,15.1923],[74.1599,15.1927],[74.126,15.2227],[74.1479,15.2398],[74.1334,15.2543],[74.1264,15.2501],[74.1182,15.2714],[74.1021,15.2677],[74.0831,15.2787],[74.0636,15.2682],[74.0575,15.2544],[74.0438,15.248],[74.0465,15.2309],[74.0633,15.2254],[74.0445,15.2162],[74.0452,15.1989],[74.0338,15.1922],[74.038,15.1756],[74.0233,15.1719],[74.0083,15.153],[73.9926,15.1552],[73.9581,15.1372],[73.9461,15.1415],[73.9361,15.1328],[73.9357,15.1323]]]}},{"type":"Feature","properties":{"SUBDISTRICT":"Sanguem","STATE":"Goa","shapeID":"7132399B26156031941875","source":"geoBoundaries gbOpen IND ADM3 (ODbL 1.0); source: Local Government Directory lgdirectory.gov.in via Pathways Data","DISTRICT":"South Goa","ELEV_MEAN_M":193.2,"ELEV_MIN_M":2.0,"ELEV_MAX_M":853.0,"PCT_BELOW_5M":0.0,"PCT_BELOW_10M":0.1},"geometry":{"type":"Polygon","coordinates":[[[74.0627,15.1622],[74.0766,15.1551],[74.0816,15.1374],[74.0945,15.136],[74.1018,15.127],[74.1022,15.1083],[74.1295,15.123],[74.1428,15.1156],[74.1569,15.1238],[74.1665,15.1223],[74.177,15.1092],[74.1698,15.0865],[74.1983,15.0718],[74.1904,15.0678],[74.1923,15.0593],[74.1793,15.0404],[74.2194,15.0428],[74.2317,15.0337],[74.2418,15.0013],[74.2527,15.0002],[74.2554,14.9934],[74.2644,14.9975],[74.2837,15.0242],[74.2829,15.0327],[74.2962,15.0425],[74.2891,15.0653],[74.2811,15.0719],[74.2776,15.0966],[74.2721,15.0985],[74.2869,15.1225],[74.2833,15.1457],[74.2953,15.1524],[74.3158,15.1866],[74.2959,15.2306],[74.2571,15.2443],[74.2528,15.2524],[74.2511,15.2601],[74.2616,15.2608],[74.2766,15.2837],[74.295,15.2867],[74.2812,15.3157],[74.2691,15.3065],[74.2297,15.3264],[74.2039,15.3104],[74.187,15.3125],[74.1752,15.3316],[74.1772,15.3432],[74.1686,15.3428],[74.1698,15.3144],[74.1437,15.3077],[74.1433,15.3004],[74.131,15.2913],[74.107,15.2962],[74.0993,15.2709],[74.1122,15.2671],[74.1182,15.2714],[74.1264,15.2501],[74.1334,15.2543],[74.1477,15.2408],[74.126,15.2227],[74.1599,15.1927],[74.1734,15.1923],[74.1719,15.1776],[74.1489,15.1681],[74.1234,15.1697],[74.1027,15.1916],[74.0922,15.1907],[74.0657,15.1764],[74.0649,15.1642],[74.0627,15.1622]]]}},{"type":"Feature","properties":{"SUBDISTRICT":"Canacona","STATE":"Goa","shapeID":"7132399B75872456530667","source":"geoBoundaries gbOpen IND ADM3 (ODbL 1.0); source: Local Government Directory lgdirectory.gov.in via Pathways Data","DISTRICT":"South Goa","ELEV_MEAN_M":137.7,"ELEV_MIN_M":-2.0,"ELEV_MAX_M":853.0,"PCT_BELOW_5M":1.7,"PCT_BELOW_10M":3.8},"geometry":{"type":"Polygon","coordinates":[[[73.912,15.0851],[73.9241,15.0859],[73.9662,15.0656],[73.9713,15.0514],[73.9829,15.0478],[73.9895,15.0333],[73.9849,15.0252],[73.9914,15.0172],[73.9968,15.0212],[74.0261,15.0061],[74.0494,14.9594],[74.043,14.9465],[74.0462,14.9161],[74.0656,14.9073],[74.0792,14.9092],[74.0888,14.8978],[74.1061,14.9138],[74.1252,14.9186],[74.1515,14.909],[74.1422,14.9394],[74.1483,14.9509],[74.1628,14.9533],[74.1805,14.9378],[74.1794,14.9274],[74.1882,14.9214],[74.2011,14.9413],[74.2185,14.9468],[74.2202,14.9555],[74.2447,14.9634],[74.2558,14.9602],[74.2677,14.9778],[74.2527,15.0002],[74.2391,15.0049],[74.2317,15.0337],[74.2209,15.042],[74.1671,15.0438],[74.1615,15.0491],[74.1695,15.0583],[74.1608,15.0671],[74.12,15.064],[74.0975,15.0435],[74.0745,15.0544],[74.0519,15.0483],[74.0135,15.0534],[74.0093,15.0647],[74.014,15.0721],[74.0004,15.0853],[74.0028,15.0994],[73.9767,15.0983],[73.9558,15.0879],[73.9376,15.1175],[73.9177,15.1075],[73.9259,15.0961],[73.9129,15.0854],[73.912,15.0851]]]}},{"type":"Feature","properties":{"SUBDISTRICT":"Satari","STATE":"Goa","shapeID":"7132399B56618394465299","source":"geoBoundaries gbOpen IND ADM3 (ODbL 1.0); source: Local Government Directory lgdirectory.gov.in via Pathways Data","DISTRICT":"North Goa","ELEV_MEAN_M":180.8,"ELEV_MIN_M":0.0,"ELEV_MAX_M":999.0,"PCT_BELOW_5M":0.0,"PCT_BELOW_10M":0.1},"geometry":{"type":"Polygon","coordinates":[[[73.9981,15.5759],[74.0033,15.5677],[74.0193,15.5637],[74.0438,15.5723],[74.0552,15.568],[74.038,15.5303],[74.069,15.5017],[74.0738,15.485],[74.0907,15.4758],[74.1049,15.4416],[74.1193,15.4334],[74.1642,15.4416],[74.1773,15.4369],[74.1967,15.4652],[74.2503,15.491],[74.2507,15.4991],[74.2755,15.5152],[74.2808,15.5283],[74.2634,15.5634],[74.2477,15.5681],[74.262,15.6118],[74.2559,15.6251],[74.2459,15.626],[74.2486,15.6564],[74.2383,15.6678],[74.2301,15.6641],[74.2248,15.6687],[74.2173,15.6611],[74.222,15.6552],[74.2064,15.6512],[74.2047,15.6632],[74.1894,15.6671],[74.1908,15.6811],[74.1832,15.6831],[74.1684,15.6723],[74.1664,15.6542],[74.1188,15.6525],[74.0731,15.6283],[74.0316,15.623],[74.0171,15.5921],[74.0049,15.5904],[73.9985,15.5789],[73.9981,15.5759]]]}},{"type":"Feature","properties":{"SUBDISTRICT":"Mormugao","STATE":"Goa","shapeID":"7132399B66506099412059","source":"geoBoundaries gbOpen IND ADM3 (ODbL 1.0); source: Local Government Directory lgdirectory.gov.in via Pathways Data","DISTRICT":"South Goa","ELEV_MEAN_M":36.4,"ELEV_MIN_M":-3.0,"ELEV_MAX_M":118.0,"PCT_BELOW_5M":14.2,"PCT_BELOW_10M":26.4},"geometry":{"type":"MultiPolygon","coordinates":[[[[73.7832,15.4115],[73.7906,15.3941],[73.8053,15.3925],[73.8079,15.3764],[73.8313,15.3702],[73.8408,15.3606],[73.8727,15.369],[73.8958,15.3256],[73.9062,15.3257],[73.9067,15.3342],[73.9137,15.3364],[73.911,15.3557],[73.9167,15.3682],[73.959,15.374],[73.9468,15.4037],[73.9052,15.4119],[73.9069,15.4045],[73.8925,15.409],[73.8724,15.3955],[73.8671,15.4018],[73.8447,15.3989],[73.8404,15.4096],[73.827,15.4028],[73.8166,15.4097],[73.8086,15.4002],[73.7943,15.4139],[73.784,15.412],[73.7832,15.4115]]],[[[73.8612,15.4052],[73.8613,15.4048],[73.8614,15.4047],[73.8614,15.4046],[73.8615,15.4045],[73.8616,15.4042],[73.8617,15.4041],[73.8618,15.404],[73.862,15.4039],[73.8621,15.4038],[73.8623,15.4037],[73.8624,15.4036],[73.8627,15.4036],[73.863,15.4036],[73.8632,15.4036],[73.8633,15.4036],[73.8634,15.4035],[73.8636,15.4035],[73.8636,15.4035],[73.8637,15.4035],[73.8637,15.4035],[73.8639,15.4034],[73.8639,15.4034],[73.864,15.4034],[73.8644,15.4034],[73.8645,15.4035],[73.8646,15.4036],[73.8647,15.4038],[73.8648,15.404],[73.8649,15.4043],[73.8648,15.405],[73.8648,15.405],[73.8649,15.4052],[73.8649,15.4055],[73.8651,15.406],[73.8652,15.4065],[73.8651,15.4067],[73.865,15.4069],[73.8648,15.4072],[73.8648,15.4073],[73.864,15.4076],[73.8635,15.4077],[73.8629,15.4078],[73.8625,15.4077],[73.862,15.4076],[73.8616,15.4071],[73.8615,15.4068],[73.8614,15.4066],[73.8614,15.4064],[73.8613,15.4062],[73.8613,15.4062],[73.8613,15.4061],[73.8612,15.4055],[73.8612,15.4052]]]]}},{"type":"Feature","properties":{"SUBDISTRICT":"Salcete","STATE":"Goa","shapeID":"7132399B21277031258978","source":"geoBoundaries gbOpen IND ADM3 (ODbL 1.0); source: Local Government Directory lgdirectory.gov.in via Pathways Data","DISTRICT":"South Goa","ELEV_MEAN_M":26.7,"ELEV_MIN_M":-2.7,"ELEV_MAX_M":329.0,"PCT_BELOW_5M":19.7,"PCT_BELOW_10M":39.3},"geometry":{"type":"Polygon","coordinates":[[[73.8958,15.3256],[73.9485,15.1419],[73.9581,15.1372],[73.9881,15.1539],[74.0083,15.153],[74.0233,15.1719],[74.038,15.1756],[74.0338,15.1922],[74.0452,15.1989],[74.0445,15.2162],[74.0633,15.2254],[74.0465,15.2309],[74.0438,15.248],[74.0575,15.2544],[74.0626,15.2673],[74.0731,15.2731],[74.0719,15.2906],[74.0642,15.2987],[74.046,15.2997],[74.0398,15.3074],[74.0255,15.3019],[74.0129,15.3047],[74.0063,15.348],[73.9564,15.3753],[73.9167,15.3682],[73.911,15.3557],[73.9137,15.3364],[73.9067,15.3342],[73.9062,15.3257],[73.8983,15.3263],[73.8958,15.3256]]]}},{"type":"Feature","properties":{"SUBDISTRICT":"Ponda","STATE":"Goa","shapeID":"7132399B43386327128961","source":"geoBoundaries gbOpen IND ADM3 (ODbL 1.0); source: Local Government Directory lgdirectory.gov.in via Pathways Data","DISTRICT":"North Goa","ELEV_MEAN_M":70.2,"ELEV_MIN_M":-3.0,"ELEV_MAX_M":402.0,"PCT_BELOW_5M":8.2,"PCT_BELOW_10M":12.7},"geometry":{"type":"Polygon","coordinates":[[[73.9163,15.4119],[73.9468,15.4037],[73.9608,15.3717],[73.9758,15.3692],[74.0063,15.348],[74.0129,15.3047],[74.0255,15.3019],[74.0398,15.3074],[74.046,15.2997],[74.0703,15.2951],[74.0756,15.2757],[74.0831,15.2787],[74.0916,15.27],[74.1027,15.2763],[74.1049,15.2862],[74.09,15.3005],[74.0836,15.3275],[74.1025,15.349],[74.1024,15.3696],[74.0879,15.3907],[74.0765,15.3947],[74.0736,15.4071],[74.0768,15.4172],[74.1019,15.4264],[74.1091,15.4211],[74.1193,15.4334],[74.1035,15.4432],[74.0949,15.4679],[74.0768,15.4612],[74.0672,15.4698],[74.067,15.4586],[74.0506,15.4587],[74.0525,15.4442],[74.0456,15.4454],[74.0261,15.4718],[74.0304,15.4782],[74.0226,15.4806],[74.0188,15.4955],[74.0004,15.5003],[73.994,15.5137],[73.9707,15.5262],[73.9606,15.5399],[73.9523,15.5274],[73.9431,15.5249],[73.961,15.5035],[73.9526,15.4975],[73.9506,15.4812],[73.9562,15.4632],[73.9445,15.4558],[73.9449,15.4407],[73.9275,15.433],[73.9194,15.4168],[73.9163,15.4119]]]}},{"type":"Feature","properties":{"SUBDISTRICT":"Dharbandora","STATE":"Goa","shapeID":"7132399B74331145062318","source":"geoBoundaries gbOpen IND ADM3 (ODbL 1.0); source: Local Government Directory lgdirectory.gov.in via Pathways Data","DISTRICT":"South Goa","ELEV_MEAN_M":168.0,"ELEV_MIN_M":0.0,"ELEV_MAX_M":878.0,"PCT_BELOW_5M":0.0,"PCT_BELOW_10M":0.1},"geometry":{"type":"Polygon","coordinates":[[[74.0736,15.4071],[74.0765,15.3947],[74.0879,15.3907],[74.1024,15.3696],[74.1025,15.349],[74.0836,15.3275],[74.09,15.3005],[74.1016,15.2912],[74.1086,15.2965],[74.131,15.2913],[74.1433,15.3004],[74.1437,15.3077],[74.1698,15.3144],[74.1677,15.3396],[74.1753,15.3438],[74.1752,15.3316],[74.187,15.3125],[74.2039,15.3104],[74.2297,15.3264],[74.2415,15.316],[74.2703,15.3062],[74.2804,15.3163],[74.295,15.2867],[74.3281,15.2853],[74.3356,15.2954],[74.3172,15.332],[74.3223,15.3458],[74.3164,15.3597],[74.3222,15.3697],[74.2763,15.391],[74.2782,15.4039],[74.2692,15.4263],[74.2761,15.4455],[74.2503,15.491],[74.1967,15.4652],[74.1773,15.4369],[74.1642,15.4416],[74.1259,15.4365],[74.1091,15.4211],[74.1019,15.4264],[74.0768,15.4172],[74.0739,15.409],[74.0736,15.4071]]]}}]}