{"type": "FeatureCollection", "features": [{"type": "Feature", "properties": {"SUBDISTRICT": "New Jammu & Kashmir", "STATE": "Ladakh", "shapeID": "7132399B17222111543741", "source": "geoBoundaries gbOpen IND ADM3 (ODbL 1.0); source: Local Government Directory lgdirectory.gov.in via Pathways Data", "DISTRICT": null}, "geometry": {"type": "Polygon", "coordinates": [[[72.5295, 35.9409], [72.5337, 35.9174], [72.5695, 35.9073], [72.6016, 35.8711], [72.6456, 35.8663], [72.6604, 35.8492], [72.6911, 35.8329], [72.7375, 35.8588], [72.7773, 35.844], [72.7981, 35.8558], [72.799, 35.8675], [72.8253, 35.8748], [72.8302, 35.8874], [72.8576, 35.8777], [72.9016, 35.8817], [72.9047, 35.8536], [72.9294, 35.8455], [72.9578, 35.8477], [72.9997, 35.8635], [73.0141, 35.8553], [73.0381, 35.8548], [73.056, 35.8637], [73.0778, 35.8862], [73.1004, 35.8782], [73.1277, 35.853], [73.1542, 35.8417], [73.1357, 35.7938], [73.1363, 35.7192], [73.2155, 35.6751], [73.2727, 35.6298], [73.3674, 35.6055], [73.4068, 35.564], [73.4817, 35.5773], [73.5067, 35.5654], [73.5321, 35.5711], [73.5579, 35.5557], [73.5711, 35.5548], [73.6355, 35.5718], [73.6727, 35.5512], [73.7208, 35.5535], [73.7351, 35.5366], [73.7849, 35.5257], [73.7951, 35.4602], [73.7547, 35.442], [73.7389, 35.4279], [73.7116, 35.3872], [73.7004, 35.3584], [73.6999, 35.3232], [73.7271, 35.2783], [73.7164, 35.226], [73.7317, 35.2173], [73.7775, 35.2439], [73.7964, 35.2455], [73.8468, 35.2296], [73.8652, 35.2108], [73.9173, 35.2122], [73.9592, 35.1744], [73.9998, 35.1844], [74.0091, 35.1661], [74.0391, 35.1475], [74.0804, 35.1547], [74.0957, 35.146], [74.11, 35.1522], [74.117, 35.1489], [74.1098, 35.1322], [74.1344, 35.108], [74.0933, 35.0965], [74.0664, 35.0485], [74.0977, 35.0342], [74.1082, 35.0195], [74.0605, 34.9936], [74.074, 34.94], [74.0658, 34.9301], [74.0439, 34.9219], [74.0381, 34.9033], [74.0422, 34.8945], [74.0303, 34.8776], [73.9744, 34.8653], [73.9644, 34.8417], [73.9357, 34.8335], [73.9182, 34.8145], [73.9013, 34.8218], [73.8754, 34.8184], [73.8674, 34.8115], [73.8497, 34.8177], [73.8212, 34.796], [73.7738, 34.7969], [73.7501, 34.7872], [73.7314, 34.7715], [73.7066, 34.7254], [73.6916, 34.7167], [73.6813, 34.6956], [73.6675, 34.6847], [73.6669, 34.6661], [73.6962, 34.6541], [73.6602, 34.6104], [73.6609, 34.589], [73.6509, 34.5683], [73.6395, 34.5662], [73.6184, 34.5861], [73.5574, 34.5934], [73.523, 34.5747], [73.5007, 34.5806], [73.4478, 34.5742], [73.4413, 34.5384], [73.4299, 34.5214], [73.4375, 34.5045], [73.4222, 34.4707], [73.4254, 34.4423], [73.4202, 34.4178], [73.4093, 34.3868], [73.3908, 34.3747], [73.4015, 34.3584], [73.4251, 34.3535], [73.4242, 34.3397], [73.4381, 34.3296], [73.4536, 34.2973], [73.4538, 34.2783], [73.4678, 34.296], [73.4786, 34.2906], [73.47, 34.2518], [73.4931, 34.2202], [73.489, 34.1448], [73.4953, 34.134], [73.4975, 34.0844], [73.5083, 34.0603], [73.5165, 34.0005], [73.5496, 33.9315], [73.579, 33.9108], [73.5899, 33.8843], [73.5857, 33.8646], [73.5729, 33.8458], [73.5584, 33.7836], [73.5664, 33.769], [73.5913, 33.7542], [73.5976, 33.7162], [73.5911, 33.6989], [73.5632, 33.6759], [73.5691, 33.6411], [73.5614, 33.6215], [73.5783, 33.6162], [73.5895, 33.6046], [73.6038, 33.6076], [73.6009, 33.5933], [73.621, 33.5742], [73.619, 33.544], [73.6331, 33.5335], [73.6073, 33.52], [73.6095, 33.5009], [73.6002, 33.5051], [73.5965, 33.5005], [73.6016, 33.4784], [73.6131, 33.4802], [73.6249, 33.4576], [73.5879, 33.4435], [73.5827, 33.4294], [73.5914, 33.4222], [73.5649, 33.3943], [73.5585, 33.3684], [73.5714, 33.3562], [73.5658, 33.3425], [73.5751, 33.3342], [73.5868, 33.341], [73.5908, 33.3369], [73.5821, 33.3265], [73.5898, 33.3053], [73.6041, 33.2953], [73.598, 33.2827], [73.6056, 33.2517], [73.6253, 33.2369], [73.6287, 33.2157], [73.6409, 33.2268], [73.6577, 33.2081], [73.6564, 33.1692], [73.6464, 33.162], [73.6376, 33.1423], [73.6261, 33.14], [73.6279, 33.0899], [73.6526, 33.0852], [73.6886, 33.0884], [73.7353, 33.0667], [73.7434, 33.0394], [73.7887, 32.9985], [73.7797, 32.9747], [73.7865, 32.9657], [73.8083, 32.9725], [73.8183, 33.0004], [73.8296, 33.0074], [73.8965, 33.0024], [73.9291, 32.985], [73.9583, 32.9869], [73.9685, 32.9692], [73.9973, 32.9602], [73.9883, 32.9357], [74.0143, 32.9298], [74.0486, 32.9324], [74.06, 32.9093], [74.1782, 32.883], [74.1873, 32.8732], [74.2025, 32.8707], [74.2174, 32.8453], [74.3018, 32.8233], [74.3092, 32.7925], [74.3192, 32.792], [74.3276, 32.7788], [74.3546, 32.7633], [74.3837, 32.7579], [74.3867, 32.7681], [74.3973, 32.7663], [74.4094, 32.7835], [74.4337, 32.7795], [74.4545, 32.7844], [74.461, 32.7732], [74.4724, 32.7723], [74.4301, 32.8447], [74.4285, 32.8836], [74.4139, 32.9039], [74.3477, 32.9082], [74.318, 32.9197], [74.3207, 32.9414], [74.3464, 32.9655], [74.3532, 32.9831], [74.3498, 33.0163], [74.3379, 33.0259], [74.255, 33.0488], [74.2053, 33.0433], [74.1763, 33.1072], [74.1117, 33.1644], [74.0828, 33.1807], [74.0262, 33.1886], [74.0143, 33.1982], [74.011, 33.2385], [74.0203, 33.2588], [74.0365, 33.2647], [74.0789, 33.2602], [74.103, 33.2705], [74.1708, 33.3467], [74.1851, 33.3835], [74.1793, 33.4257], [74.1871, 33.4555], [74.1782, 33.4817], [74.0957, 33.5704], [74.0539, 33.5651], [74.0284, 33.5747], [74.0, 33.6237], [73.9757, 33.6936], [73.9562, 33.7203], [73.9665, 33.7403], [74.0, 33.7526], [74.0283, 33.776], [74.049, 33.8088], [74.0657, 33.8201], [74.1433, 33.8301], [74.2197, 33.8672], [74.2456, 33.895], [74.2611, 33.9248], [74.2627, 33.9743], [74.2487, 34.0138], [74.2147, 34.0386], [74.1614, 34.0389], [74.1237, 34.0552], [74.087, 34.0378], [74.0061, 34.0224], [74.0, 34.0302], [73.8982, 34.0328], [73.8832, 34.0499], [73.8857, 34.0751], [73.9044, 34.0969], [73.9041, 34.1223], [73.9766, 34.2118], [73.982, 34.2391], [73.9762, 34.2648], [73.941, 34.3017], [73.9199, 34.3423], [73.8994, 34.3598], [73.8418, 34.3383], [73.8074, 34.3567], [73.7734, 34.3497], [73.7632, 34.3596], [73.7643, 34.3711], [73.777, 34.4163], [73.8548, 34.4734], [73.8987, 34.4958], [73.8867, 34.515], [73.8953, 34.5467], [73.9481, 34.5731], [73.9273, 34.6459], [73.9416, 34.6772], [73.9602, 34.6967], [74.0129, 34.7099], [74.0491, 34.685], [74.0931, 34.6945], [74.1418, 34.6912], [74.203, 34.7366], [74.2798, 34.7683], [74.3073, 34.8003], [74.3413, 34.7897], [74.3755, 34.8034], [74.474, 34.7906], [74.5066, 34.7755], [74.5802, 34.7701], [74.6388, 34.7335], [74.6713, 34.7007], [74.703, 34.6931], [74.8356, 34.6775], [74.9105, 34.6832], [75.0187, 34.6415], [75.1423, 34.6624], [75.2067, 34.6463], [75.2497, 34.6473], [75.2661, 34.6395], [75.2581, 34.6176], [75.2619, 34.6109], [75.3778, 34.5524], [75.5061, 34.5373], [75.6156, 34.5385], [75.7492, 34.5158], [75.793, 34.5339], [75.8433, 34.5746], [75.9186, 34.6048], [75.9322, 34.6244], [75.9463, 34.6312], [75.9918, 34.63], [76.0365, 34.6703], [76.0744, 34.6763], [76.1219, 34.6466], [76.1579, 34.6434], [76.2601, 34.6844], [76.3161, 34.7316], [76.3859, 34.736], [76.437, 34.7644], [76.4743, 34.7944], [76.5141, 34.7838], [76.5618, 34.7583], [76.6818, 34.7596], [76.7062, 34.8012], [76.7432, 34.8401], [76.7389, 34.9019], [76.7494, 34.9266], [76.7624, 34.933], [76.8111, 34.9355], [76.87, 34.9724], [76.9704, 34.9356], [76.9975, 34.9392], [77.0101, 34.9563], [77.011, 35.0276], [77.0181, 35.0385], [77.0269, 35.0408], [77.0368, 35.0324], [77.0684, 35.0241], [77.1568, 35.0547], [77.2808, 35.1383], [77.585, 35.3239], [77.8378, 35.502], [77.816, 35.5134], [77.7882, 35.4957], [77.7728, 35.4953], [77.7336, 35.5245], [77.7245, 35.5151], [77.723, 35.4755], [77.6867, 35.4777], [77.6724, 35.4706], [77.645, 35.4891], [77.6141, 35.4696], [77.582, 35.4751], [77.5688, 35.4851], [77.54, 35.4813], [77.5125, 35.4886], [77.4448, 35.4613], [77.4138, 35.4731], [77.3819, 35.4765], [77.3663, 35.4937], [77.3487, 35.4937], [77.3425, 35.5122], [77.3204, 35.534], [77.3454, 35.5468], [77.3839, 35.5492], [77.4089, 35.5282], [77.4353, 35.5174], [77.4518, 35.5266], [77.4724, 35.5211], [77.4866, 35.532], [77.4606, 35.5477], [77.4656, 35.5733], [77.4568, 35.5936], [77.4271, 35.6105], [77.4368, 35.6222], [77.4379, 35.6411], [77.431, 35.6546], [77.4221, 35.6616], [77.4016, 35.6625], [77.3865, 35.6898], [77.3708, 35.6952], [77.3584, 35.7177], [77.3276, 35.7191], [77.3152, 35.6991], [77.2855, 35.7111], [77.2776, 35.7204], [77.2678, 35.7091], [77.2282, 35.7125], [77.221, 35.7282], [77.1673, 35.7346], [77.1642, 35.7667], [77.1435, 35.7697], [77.1157, 35.7978], [77.0801, 35.7976], [77.0587, 35.7843], [77.0207, 35.7746], [76.9352, 35.7841], [76.8949, 35.7997], [76.8579, 35.8312], [76.8118, 35.8448], [76.7941, 35.8628], [76.779, 35.8987], [76.7228, 35.9534], [76.7543, 35.9827], [76.7697, 36.0094], [76.8078, 36.0187], [76.7988, 36.0384], [76.8019, 36.0479], [76.7196, 36.0832], [76.7037, 36.1289], [76.6648, 36.1581], [76.6444, 36.184], [76.6012, 36.1655], [76.563, 36.1731], [76.5449, 36.1928], [76.4817, 36.2114], [76.456, 36.2414], [76.4332, 36.2512], [76.45, 36.2694], [76.4366, 36.2884], [76.432, 36.3082], [76.4042, 36.3195], [76.3524, 36.3599], [76.3282, 36.3625], [76.2921, 36.3491], [76.2548, 36.3478], [76.1986, 36.3874], [76.1731, 36.3903], [76.0773, 36.4743], [76.0259, 36.486], [75.9648, 36.49], [75.9234, 36.5024], [75.8491, 36.5443], [75.8096, 36.553], [75.7694, 36.5733], [75.7483, 36.5884], [75.6752, 36.696], [75.6165, 36.7616], [75.514, 36.7921], [75.4742, 36.8108], [75.46, 36.8306], [75.444, 36.8872], [75.4378, 36.8915], [75.417, 36.8872], [75.4142, 36.8919], [75.4088, 36.9167], [75.4268, 36.939], [75.4259, 36.9557], [75.4135, 36.9675], [75.3763, 36.9604], [75.3547, 36.9778], [75.3455, 37.0006], [75.3449, 37.0514], [75.3329, 37.0553], [75.2792, 37.0469], [75.265, 37.0519], [75.209, 37.0368], [75.1734, 36.9861], [75.1511, 36.9671], [75.096, 36.9428], [75.0187, 36.9764], [75.0128, 36.966], [74.9911, 36.9628], [74.9413, 36.9347], [74.9222, 36.9061], [74.9109, 36.9124], [74.846, 36.9899], [74.8401, 37.0223], [74.7789, 37.0298], [74.7661, 37.0269], [74.7592, 37.0148], [74.75, 37.0117], [74.7282, 37.026], [74.7129, 37.0743], [74.6939, 37.0778], [74.6593, 37.0577], [74.5818, 37.0434], [74.5894, 37.0286], [74.5787, 36.9486], [74.5545, 36.9536], [74.5322, 36.9868], [74.4299, 36.99], [74.4162, 36.9731], [74.3683, 36.9589], [74.3239, 36.9227], [74.2614, 36.8866], [74.2178, 36.8989], [74.1691, 36.9025], [74.1568, 36.8887], [74.1427, 36.8401], [74.121, 36.8323], [74.0927, 36.8386], [74.0558, 36.8064], [74.026, 36.8263], [73.9943, 36.8266], [73.9714, 36.8401], [73.9378, 36.874], [73.9238, 36.878], [73.9134, 36.8713], [73.8788, 36.8944], [73.8491, 36.8999], [73.8358, 36.8869], [73.8181, 36.8857], [73.8097, 36.8965], [73.7933, 36.8937], [73.7677, 36.9047], [73.7454, 36.8964], [73.7112, 36.9128], [73.6936, 36.9136], [73.6814, 36.8856], [73.7191, 36.8572], [73.7239, 36.8344], [73.7442, 36.8334], [73.7782, 36.8153], [73.8063, 36.8154], [73.8151, 36.7984], [73.8294, 36.7893], [73.8636, 36.7882], [73.9001, 36.7497], [73.9064, 36.7315], [73.8972, 36.7163], [73.9016, 36.707], [73.8841, 36.6993], [73.8091, 36.7167], [73.7831, 36.7024], [73.7251, 36.71], [73.7006, 36.6849], [73.6549, 36.6961], [73.6332, 36.6901], [73.6075, 36.6985], [73.6002, 36.7203], [73.5439, 36.7094], [73.5299, 36.7207], [73.5115, 36.7154], [73.4825, 36.7339], [73.4634, 36.7317], [73.4416, 36.7451], [73.4, 36.7317], [73.3721, 36.7349], [73.3608, 36.7155], [73.3303, 36.7155], [73.3147, 36.7064], [73.2532, 36.7091], [73.2344, 36.6995], [73.215, 36.7], [73.1894, 36.7218], [73.1811, 36.712], [73.1455, 36.7], [73.1265, 36.6866], [73.1028, 36.6877], [73.0854, 36.6997], [73.085, 36.6823], [73.0944, 36.6671], [73.092, 36.6348], [73.1125, 36.6101], [73.0929, 36.5866], [73.0906, 36.5716], [73.0739, 36.5615], [73.0615, 36.5377], [72.996, 36.5149], [72.9994, 36.5074], [72.9904, 36.4805], [73.0039, 36.4761], [72.9921, 36.4581], [72.9628, 36.4675], [72.9435, 36.4585], [72.9223, 36.463], [72.9025, 36.4495], [72.8795, 36.4433], [72.8774, 36.4381], [72.8902, 36.4247], [72.8901, 36.3978], [72.8833, 36.3873], [72.8664, 36.3735], [72.8509, 36.3727], [72.8297, 36.3611], [72.8157, 36.3384], [72.7785, 36.3099], [72.7505, 36.3051], [72.7236, 36.2841], [72.6924, 36.2756], [72.6886, 36.2686], [72.694, 36.2501], [72.6819, 36.2628], [72.6635, 36.2642], [72.6367, 36.2765], [72.5952, 36.2622], [72.5854, 36.2305], [72.5605, 36.2124], [72.5603, 36.1966], [72.5515, 36.1812], [72.5738, 36.151], [72.5525, 36.1367], [72.5366, 36.1145], [72.5311, 36.0747], [72.55, 36.0567], [72.5862, 36.0504], [72.596, 36.0273], [72.5836, 36.0197], [72.5732, 35.9964], [72.5561, 35.9967], [72.5484, 35.9625], [72.5311, 35.9529], [72.5295, 35.9409]]]}}, {"type": "Feature", "properties": {"SUBDISTRICT": "Kargil", "STATE": "Ladakh", "shapeID": "7132399B55199133437618", "source": "geoBoundaries gbOpen IND ADM3 (ODbL 1.0); source: Local Government Directory lgdirectory.gov.in via Pathways Data", "DISTRICT": null}, "geometry": {"type": "Polygon", "coordinates": [[[75.793, 34.5339], [75.8216, 34.514], [75.8231, 34.4952], [75.8903, 34.4959], [75.9076, 34.4873], [75.9124, 34.4738], [75.9338, 34.4816], [75.9501, 34.5056], [75.9524, 34.5195], [76.0024, 34.5636], [75.993, 34.5826], [75.9943, 34.5952], [76.0039, 34.6003], [76.0187, 34.5967], [76.0293, 34.6112], [76.08, 34.6292], [76.0903, 34.6609], [76.0858, 34.6715], [76.055, 34.676], [76.0365, 34.6703], [75.9918, 34.63], [75.9463, 34.6312], [75.9322, 34.6244], [75.9186, 34.6048], [75.8433, 34.5746], [75.8105, 34.5482], [75.793, 34.5339]]]}}, {"type": "Feature", "properties": {"SUBDISTRICT": "Leh", "STATE": "Ladakh", "shapeID": "7132399B27478161261959", "source": "geoBoundaries gbOpen IND ADM3 (ODbL 1.0); source: Local Government Directory lgdirectory.gov.in via Pathways Data", "DISTRICT": null}, "geometry": {"type": "Polygon", "coordinates": [[[76.7579, 34.4076], [76.7579, 34.3918], [76.7764, 34.3733], [76.8345, 34.368], [76.8583, 34.3468], [76.8636, 34.3098], [76.861, 34.1459], [76.8451, 34.0031], [76.8266, 33.9238], [76.767, 33.8552], [76.7792, 33.8321], [76.8168, 33.7966], [76.8444, 33.8013], [76.8658, 33.7943], [76.89, 33.8076], [76.9194, 33.8139], [76.9337, 33.7872], [76.9586, 33.7844], [77.0713, 33.7119], [77.0754, 33.691], [77.0941, 33.676], [77.0964, 33.6503], [77.1179, 33.6224], [77.1167, 33.5873], [77.1275, 33.5758], [77.15, 33.5798], [77.1671, 33.6128], [77.2673, 33.5471], [77.2675, 33.5071], [77.2575, 33.4947], [77.2679, 33.472], [77.2662, 33.4219], [77.1957, 33.37], [77.1752, 33.3339], [77.1424, 33.3095], [77.138, 33.2265], [77.1505, 33.2165], [77.1516, 33.2021], [77.1212, 33.1539], [77.1015, 33.1402], [77.099, 33.1132], [77.0485, 33.0398], [77.0598, 32.9946], [77.0836, 32.9839], [77.0926, 32.9716], [77.1148, 32.9759], [77.1209, 32.9855], [77.1541, 32.9787], [77.153, 32.9591], [77.1638, 32.9546], [77.1664, 32.9395], [77.1638, 32.9121], [77.1751, 32.9113], [77.1915, 32.9292], [77.2066, 32.9081], [77.2459, 32.8935], [77.2424, 32.878], [77.2564, 32.8631], [77.2652, 32.8628], [77.2759, 32.8743], [77.2989, 32.8535], [77.3227, 32.8519], [77.3392, 32.8201], [77.3535, 32.8166], [77.374, 32.823], [77.3803, 32.8443], [77.3773, 32.8573], [77.4052, 32.8833], [77.415, 32.8847], [77.4278, 32.8759], [77.4434, 32.8814], [77.4539, 32.8636], [77.4729, 32.8594], [77.5023, 32.8842], [77.5121, 32.8791], [77.5374, 32.885], [77.5626, 32.9093], [77.5875, 32.9192], [77.6019, 32.9414], [77.6309, 32.939], [77.6713, 32.9569], [77.6833, 32.9836], [77.6976, 32.9753], [77.7131, 32.9753], [77.7217, 32.9636], [77.7306, 32.9693], [77.8081, 32.9027], [77.8105, 32.8954], [77.8049, 32.889], [77.7907, 32.8882], [77.7793, 32.8621], [77.8261, 32.8332], [77.843, 32.8371], [77.8655, 32.8256], [77.8791, 32.8133], [77.8868, 32.7975], [77.8848, 32.7874], [77.8987, 32.7725], [77.9173, 32.7724], [77.9329, 32.7631], [77.9296, 32.7335], [77.9362, 32.7278], [77.9271, 32.7184], [77.9209, 32.69], [77.9378, 32.6764], [77.9565, 32.6449], [77.9702, 32.6372], [77.9718, 32.6228], [78.0, 32.5832], [78.0533, 32.5886], [78.059, 32.602], [78.052, 32.6124], [78.0515, 32.6324], [78.0829, 32.621], [78.0966, 32.6495], [78.111, 32.6589], [78.1391, 32.639], [78.1537, 32.667], [78.1703, 32.6757], [78.1882, 32.6739], [78.2017, 32.6605], [78.2307, 32.6658], [78.251, 32.6803], [78.2544, 32.6913], [78.3136, 32.7094], [78.316, 32.7214], [78.3056, 32.7345], [78.3627, 32.7601], [78.3894, 32.7584], [78.3892, 32.7303], [78.3958, 32.7159], [78.381, 32.6685], [78.3887, 32.6346], [78.4066, 32.6197], [78.3494, 32.5813], [78.3142, 32.5739], [78.3167, 32.5257], [78.296, 32.5043], [78.3278, 32.4722], [78.4, 32.526], [78.428, 32.5318], [78.4366, 32.5616], [78.4598, 32.58], [78.4996, 32.5817], [78.5357, 32.6087], [78.5734, 32.6176], [78.5881, 32.6159], [78.6209, 32.5967], [78.639, 32.6097], [78.6623, 32.654], [78.7231, 32.6612], [78.7423, 32.6737], [78.7613, 32.6974], [78.7691, 32.6971], [78.7627, 32.6551], [78.7792, 32.6281], [78.7925, 32.6184], [78.7971, 32.5984], [78.7764, 32.5731], [78.7768, 32.5584], [78.8272, 32.4387], [78.8589, 32.4406], [78.9035, 32.3929], [78.9617, 32.3661], [78.9819, 32.3378], [78.9938, 32.3452], [79.0146, 32.3773], [79.0337, 32.3859], [79.071, 32.3907], [79.1151, 32.3842], [79.1257, 32.4136], [79.1443, 32.4227], [79.1466, 32.4429], [79.1313, 32.4661], [79.1374, 32.4769], [79.1951, 32.483], [79.2378, 32.5059], [79.2509, 32.5341], [79.2736, 32.5324], [79.2951, 32.5501], [79.3207, 32.5927], [79.3395, 32.592], [79.3945, 32.5723], [79.3994, 32.5371], [79.4068, 32.5297], [79.4481, 32.5325], [79.4698, 32.5763], [79.5157, 32.6081], [79.6272, 32.7393], [79.6032, 32.777], [79.5873, 32.774], [79.568, 32.7868], [79.5161, 32.8557], [79.4889, 32.8813], [79.464, 32.9201], [79.4223, 32.9615], [79.4093, 32.9701], [79.3856, 32.968], [79.3841, 32.9891], [79.3682, 32.9909], [79.332, 33.0121], [79.3938, 33.0362], [79.3935, 33.0541], [79.3774, 33.0847], [79.3934, 33.1245], [79.4467, 33.2058], [79.4549, 33.2585], [79.3701, 33.2827], [79.3157, 33.2732], [79.2406, 33.2978], [79.1663, 33.2901], [79.1108, 33.2919], [79.0619, 33.3098], [79.0178, 33.3355], [78.9934, 33.3308], [78.9687, 33.3755], [78.9213, 33.3987], [78.8233, 33.4835], [78.7632, 33.5631], [78.7068, 33.6695], [78.7093, 33.6796], [78.7752, 33.7462], [78.784, 33.7704], [78.7751, 33.8013], [78.7418, 33.8402], [78.7257, 33.8711], [78.7116, 33.9225], [78.7158, 33.9645], [78.7636, 34.0015], [78.7704, 34.0197], [78.7606, 34.0361], [78.7121, 34.0505], [78.7064, 34.0722], [78.7292, 34.0957], [78.8889, 34.1664], [78.9421, 34.2048], [78.975, 34.2429], [78.9934, 34.2887], [78.9901, 34.3178], [78.9815, 34.3329], [78.9225, 34.3754], [78.8249, 34.4141], [78.763, 34.4605], [78.7301, 34.4967], [78.6963, 34.5076], [78.6601, 34.5297], [78.6111, 34.5831], [78.5693, 34.6119], [78.5371, 34.6142], [78.4822, 34.6033], [78.4181, 34.6054], [78.3205, 34.4127], [78.2021, 34.3187], [78.1081, 34.2908], [77.6686, 34.2978], [77.4719, 34.3692], [77.2456, 34.491], [77.0976, 34.6076], [77.0541, 34.6651], [76.9984, 34.679], [76.9588, 34.6667], [76.9218, 34.6006], [76.9218, 34.5795], [76.9747, 34.5108], [76.9826, 34.487], [76.9879, 34.4605], [76.9826, 34.4129], [76.9614, 34.3944], [76.8795, 34.3918], [76.779, 34.4209], [76.7579, 34.4076]]]}}, {"type": "Feature", "properties": {"SUBDISTRICT": "Khalsi", "STATE": "Ladakh", "shapeID": "7132399B32200933051426", "source": "geoBoundaries gbOpen IND ADM3 (ODbL 1.0); source: Local Government Directory lgdirectory.gov.in via Pathways Data", "DISTRICT": null}, "geometry": {"type": "Polygon", "coordinates": [[[76.1996, 34.1653], [76.209, 34.1509], [76.2097, 34.1293], [76.2005, 34.1068], [76.2088, 34.0819], [76.205, 34.0717], [76.2202, 34.0566], [76.2624, 34.0461], [76.2764, 34.0638], [76.2975, 34.0797], [76.3044, 34.0788], [76.3651, 34.0274], [76.3975, 34.0361], [76.4658, 34.0114], [76.4875, 34.0198], [76.5033, 34.006], [76.5024, 33.9828], [76.5398, 33.9624], [76.5617, 33.9639], [76.5792, 33.9742], [76.5889, 33.9691], [76.6118, 33.9742], [76.6516, 33.9442], [76.6642, 33.9546], [76.6829, 33.9547], [76.7064, 33.9425], [76.7557, 33.8996], [76.767, 33.8552], [76.8266, 33.9238], [76.8451, 34.0031], [76.861, 34.1459], [76.8636, 34.3098], [76.8583, 34.3468], [76.8345, 34.368], [76.7764, 34.3733], [76.7579, 34.3918], [76.7579, 34.4076], [76.779, 34.4209], [76.8795, 34.3918], [76.9614, 34.3944], [76.9826, 34.4129], [76.9879, 34.4314], [76.9879, 34.4605], [76.9747, 34.5108], [76.9218, 34.5795], [76.9218, 34.6006], [76.9588, 34.6667], [76.9535, 34.7038], [76.9271, 34.7196], [76.8953, 34.7223], [76.8213, 34.6985], [76.7843, 34.6985], [76.7076, 34.717], [76.6759, 34.717], [76.5278, 34.6641], [76.5014, 34.6641], [76.4644, 34.6667], [76.4353, 34.6826], [76.3859, 34.736], [76.3399, 34.7343], [76.3015, 34.7244], [76.2751, 34.6936], [76.2122, 34.6654], [76.2188, 34.6327], [76.2134, 34.6246], [76.2275, 34.599], [76.2198, 34.5884], [76.2231, 34.5739], [76.2505, 34.555], [76.2631, 34.5376], [76.3072, 34.5162], [76.3416, 34.4854], [76.3319, 34.4668], [76.3309, 34.4244], [76.3131, 34.3931], [76.3165, 34.3485], [76.3067, 34.3231], [76.3266, 34.2559], [76.2977, 34.2407], [76.2683, 34.2434], [76.247, 34.2222], [76.2546, 34.209], [76.249, 34.1863], [76.2409, 34.1922], [76.2134, 34.18], [76.1996, 34.1653]]]}}, {"type": "Feature", "properties": {"SUBDISTRICT": "Sanku", "STATE": "Ladakh", "shapeID": "7132399B34833570132413", "source": "geoBoundaries gbOpen IND ADM3 (ODbL 1.0); source: Local Government Directory lgdirectory.gov.in via Pathways Data", "DISTRICT": null}, "geometry": {"type": "Polygon", "coordinates": [[[75.7212, 34.381], [75.7222, 34.3578], [75.74, 34.3179], [75.7681, 34.299], [75.7627, 34.2936], [75.7347, 34.2936], [75.7298, 34.2871], [75.732, 34.2731], [75.7473, 34.2623], [75.7581, 34.2429], [75.7581, 34.2278], [75.7311, 34.1825], [75.7367, 34.1414], [75.7683, 34.1295], [75.778, 34.1352], [75.7835, 34.1517], [75.8231, 34.1421], [75.8363, 34.1131], [75.8223, 34.0811], [75.8494, 34.0679], [75.8634, 34.0511], [75.9467, 33.9941], [75.9728, 33.8678], [76.0182, 33.8987], [76.0275, 33.9234], [76.0395, 33.9327], [76.0523, 33.9574], [76.0777, 33.9733], [76.1026, 34.0129], [76.1009, 34.0327], [76.1115, 34.0317], [76.1179, 34.0391], [76.1175, 34.0573], [76.147, 34.0793], [76.2076, 34.0859], [76.2005, 34.1068], [76.2097, 34.1293], [76.209, 34.1509], [76.1996, 34.1653], [76.2272, 34.188], [76.2409, 34.1922], [76.249, 34.1863], [76.2546, 34.209], [76.247, 34.2222], [75.9175, 34.3724], [75.8917, 34.3972], [75.8755, 34.4242], [75.8763, 34.4506], [75.9124, 34.4738], [75.9011, 34.4927], [75.7576, 34.4996], [75.7556, 34.4709], [75.768, 34.4657], [75.7712, 34.4566], [75.7548, 34.442], [75.7349, 34.4058], [75.7212, 34.381]]]}}, {"type": "Feature", "properties": {"SUBDISTRICT": "Zanskar", "STATE": "Ladakh", "shapeID": "7132399B19342016742915", "source": "geoBoundaries gbOpen IND ADM3 (ODbL 1.0); source: Local Government Directory lgdirectory.gov.in via Pathways Data", "DISTRICT": null}, "geometry": {"type": "Polygon", "coordinates": [[[75.9451, 33.8004], [75.9588, 33.77], [75.9732, 33.76], [75.9711, 33.7382], [75.9954, 33.7322], [76.0331, 33.7408], [76.0449, 33.7493], [76.0627, 33.7759], [76.0747, 33.7768], [76.0831, 33.7859], [76.0948, 33.8205], [76.1026, 33.8273], [76.1317, 33.8132], [76.1355, 33.7997], [76.1782, 33.7892], [76.1922, 33.7671], [76.2225, 33.7565], [76.2447, 33.7616], [76.2674, 33.757], [76.2956, 33.7436], [76.2978, 33.7209], [76.3094, 33.7189], [76.3167, 33.7026], [76.3418, 33.6895], [76.3566, 33.6481], [76.3848, 33.6118], [76.3692, 33.5344], [76.4292, 33.5325], [76.4675, 33.5515], [76.4825, 33.5273], [76.5086, 33.5109], [76.524, 33.5171], [76.5357, 33.5128], [76.5604, 33.4698], [76.5896, 33.4488], [76.5897, 33.4402], [76.5732, 33.4271], [76.56, 33.4267], [76.5259, 33.4104], [76.5259, 33.4028], [76.5122, 33.39], [76.5118, 33.3538], [76.5267, 33.331], [76.6059, 33.3275], [76.6438, 33.3014], [76.6466, 33.2857], [76.6785, 33.2491], [76.679, 33.2136], [76.6304, 33.1653], [76.6585, 33.164], [76.7146, 33.1807], [76.7477, 33.1786], [76.7779, 33.2238], [76.7804, 33.2387], [76.7734, 33.2487], [76.7816, 33.2535], [76.8035, 33.2528], [76.8244, 33.2353], [76.832, 33.2465], [76.8464, 33.2455], [76.8291, 33.2145], [76.8366, 33.2046], [76.8213, 33.1929], [76.8245, 33.1838], [76.816, 33.1723], [76.8274, 33.1475], [76.8471, 33.1366], [76.8459, 33.1306], [76.8552, 33.1253], [76.8519, 33.1194], [76.8623, 33.1112], [76.8866, 33.1191], [76.8951, 33.113], [76.9026, 33.0962], [76.9121, 33.0939], [76.9085, 33.0795], [76.9418, 33.0276], [76.9798, 33.0125], [77.0161, 32.988], [77.053, 32.9981], [77.0598, 32.9946], [77.0485, 33.0398], [77.099, 33.1132], [77.1015, 33.1402], [77.1212, 33.1539], [77.1516, 33.2021], [77.1505, 33.2165], [77.138, 33.2265], [77.1424, 33.3095], [77.1752, 33.3339], [77.1957, 33.37], [77.2662, 33.4219], [77.2679, 33.472], [77.2575, 33.4947], [77.2675, 33.5071], [77.2673, 33.5471], [77.1671, 33.6128], [77.15, 33.5798], [77.1275, 33.5758], [77.1167, 33.5873], [77.1179, 33.6224], [77.0964, 33.6503], [77.0941, 33.676], [77.0754, 33.691], [77.0713, 33.7119], [76.9586, 33.7844], [76.9337, 33.7872], [76.9194, 33.8139], [76.89, 33.8076], [76.8658, 33.7943], [76.8444, 33.8013], [76.8168, 33.7966], [76.7792, 33.8321], [76.7557, 33.8996], [76.7064, 33.9425], [76.6829, 33.9547], [76.6642, 33.9546], [76.6516, 33.9442], [76.6118, 33.9742], [76.5889, 33.9691], [76.5792, 33.9742], [76.5617, 33.9639], [76.5398, 33.9624], [76.5024, 33.9828], [76.5033, 34.006], [76.4875, 34.0198], [76.4658, 34.0114], [76.3975, 34.0361], [76.3651, 34.0274], [76.2975, 34.0797], [76.2624, 34.0461], [76.2518, 34.0452], [76.2089, 34.0629], [76.207, 34.0861], [76.161, 34.0824], [76.1333, 34.0717], [76.1146, 34.0535], [76.1149, 34.0339], [76.1009, 34.0327], [76.1026, 34.0129], [76.0777, 33.9733], [76.0523, 33.9574], [76.0395, 33.9327], [76.0275, 33.9234], [76.0182, 33.8987], [75.9728, 33.8678], [75.9722, 33.836], [75.9637, 33.8203], [75.9451, 33.8004]]]}}, {"type": "Feature", "properties": {"SUBDISTRICT": "Nubra", "STATE": "Ladakh", "shapeID": "7132399B24870697223415", "source": "geoBoundaries gbOpen IND ADM3 (ODbL 1.0); source: Local Government Directory lgdirectory.gov.in via Pathways Data", "DISTRICT": null}, "geometry": {"type": "Polygon", "coordinates": [[[76.3859, 34.736], [76.4353, 34.6826], [76.4644, 34.6667], [76.5014, 34.6641], [76.5278, 34.6641], [76.6759, 34.717], [76.7076, 34.717], [76.7843, 34.6985], [76.8213, 34.6985], [76.8953, 34.7223], [76.9271, 34.7196], [76.9535, 34.7038], [76.9588, 34.6667], [76.9984, 34.679], [77.0541, 34.6651], [77.0976, 34.6076], [77.2456, 34.491], [77.4719, 34.3692], [77.6686, 34.2978], [78.1081, 34.2908], [78.2021, 34.3187], [78.3205, 34.4127], [78.4181, 34.6054], [78.4093, 34.6135], [78.407, 34.6366], [78.3984, 34.6486], [78.3249, 34.656], [78.2844, 34.6674], [78.248, 34.6951], [78.2316, 34.7168], [78.2073, 34.7661], [78.1847, 34.8815], [78.1335, 34.9709], [78.0829, 35.0825], [78.0883, 35.0957], [78.1171, 35.1116], [78.1242, 35.1354], [78.0576, 35.1847], [78.0177, 35.2498], [78.002, 35.2946], [77.9903, 35.379], [77.9971, 35.3941], [78.0212, 35.4169], [78.1077, 35.4646], [78.1098, 35.4768], [78.0943, 35.4893], [78.02, 35.4903], [77.9648, 35.4808], [77.9843, 35.4646], [77.9825, 35.4559], [77.952, 35.4741], [77.928, 35.4405], [77.903, 35.4276], [77.8794, 35.4362], [77.8627, 35.4586], [77.8522, 35.4938], [77.8378, 35.502], [77.585, 35.3239], [77.2808, 35.1383], [77.1568, 35.0547], [77.0684, 35.0241], [77.0368, 35.0324], [77.0269, 35.0408], [77.0181, 35.0385], [77.011, 35.0276], [77.0101, 34.9563], [76.9975, 34.9392], [76.9704, 34.9356], [76.87, 34.9724], [76.8111, 34.9355], [76.7624, 34.933], [76.7494, 34.9266], [76.7389, 34.9019], [76.7432, 34.8401], [76.7062, 34.8012], [76.6818, 34.7596], [76.5618, 34.7583], [76.5141, 34.7838], [76.4743, 34.7944], [76.437, 34.7644], [76.4095, 34.7522], [76.3859, 34.736]]]}}, {"type": "Feature", "properties": {"SUBDISTRICT": "Drass", "STATE": "Ladakh", "shapeID": "7132399B27960702235577", "source": "geoBoundaries gbOpen IND ADM3 (ODbL 1.0); source: Local Government Directory lgdirectory.gov.in via Pathways Data", "DISTRICT": null}, "geometry": {"type": "Polygon", "coordinates": [[[75.1648, 34.5484], [75.198, 34.5227], [75.2017, 34.5104], [75.1828, 34.486], [75.186, 34.4441], [75.1988, 34.433], [75.1984, 34.4055], [75.2082, 34.3984], [75.2592, 34.3961], [75.269, 34.3738], [75.3022, 34.359], [75.3094, 34.3488], [75.3428, 34.3789], [75.3777, 34.3705], [75.3917, 34.3604], [75.4136, 34.3666], [75.4159, 34.3579], [75.4306, 34.3506], [75.4473, 34.3519], [75.4823, 34.3695], [75.5106, 34.3611], [75.5169, 34.3296], [75.5061, 34.3075], [75.5072, 34.2968], [75.5199, 34.2855], [75.5225, 34.2712], [75.5443, 34.2623], [75.5823, 34.2108], [75.6598, 34.1784], [75.6622, 34.1717], [75.647, 34.135], [75.6512, 34.1307], [75.7367, 34.1414], [75.7311, 34.1825], [75.7581, 34.2278], [75.7581, 34.2429], [75.7473, 34.2623], [75.732, 34.2731], [75.7298, 34.2871], [75.7347, 34.2936], [75.7627, 34.2936], [75.7681, 34.299], [75.74, 34.3179], [75.7222, 34.3578], [75.7212, 34.381], [75.7548, 34.442], [75.7712, 34.4566], [75.768, 34.4657], [75.7556, 34.4709], [75.7576, 34.4996], [75.8006, 34.4946], [75.8231, 34.4952], [75.8246, 34.4999], [75.8216, 34.514], [75.793, 34.5339], [75.7492, 34.5158], [75.7292, 34.5162], [75.6156, 34.5385], [75.5061, 34.5373], [75.3778, 34.5524], [75.2619, 34.6109], [75.2581, 34.6176], [75.2669, 34.6345], [75.2596, 34.6441], [75.2067, 34.6463], [75.1809, 34.6563], [75.1932, 34.6296], [75.1815, 34.6252], [75.1779, 34.6156], [75.1747, 34.596], [75.1824, 34.5768], [75.1671, 34.5582], [75.1648, 34.5484]]]}}, {"type": "Feature", "properties": {"SUBDISTRICT": "Shaker Chiktan", "STATE": "Ladakh", "shapeID": "7132399B30841491343881", "source": "geoBoundaries gbOpen IND ADM3 (ODbL 1.0); source: Local Government Directory lgdirectory.gov.in via Pathways Data", "DISTRICT": null}, "geometry": {"type": "Polygon", "coordinates": [[[75.8752, 34.4404], [75.8755, 34.4242], [75.8917, 34.3972], [75.9175, 34.3724], [76.247, 34.2222], [76.2683, 34.2434], [76.2977, 34.2407], [76.3266, 34.2559], [76.3067, 34.3231], [76.3165, 34.3485], [76.3131, 34.3931], [76.3309, 34.4244], [76.3319, 34.4668], [76.3416, 34.4854], [76.3072, 34.5162], [76.2631, 34.5376], [76.2505, 34.555], [76.2231, 34.5739], [76.2198, 34.5884], [76.2275, 34.599], [76.2134, 34.6246], [76.2188, 34.6327], [76.2122, 34.6654], [76.1579, 34.6434], [76.1391, 34.6425], [76.1219, 34.6466], [76.0858, 34.6715], [76.0903, 34.6609], [76.08, 34.6292], [76.0293, 34.6112], [76.0187, 34.5967], [76.0039, 34.6003], [75.9943, 34.5952], [75.9938, 34.5795], [76.0035, 34.5686], [75.995, 34.5534], [75.9524, 34.5195], [75.9368, 34.4841], [75.8763, 34.4506], [75.8752, 34.4404]]]}}, {"type": "Feature", "properties": {"SUBDISTRICT": "New Jammu & Kashmir", "STATE": "Ladakh", "shapeID": "7132399B4762075332386", "source": "geoBoundaries gbOpen IND ADM3 (ODbL 1.0); source: Local Government Directory lgdirectory.gov.in via Pathways Data", "DISTRICT": null}, "geometry": {"type": "Polygon", "coordinates": [[[77.931, 35.5173], [77.9649, 35.496], [77.9648, 35.4808], [78.0794, 35.4922], [78.104, 35.4845], [78.1098, 35.4768], [78.1077, 35.4646], [78.0973, 35.4556], [78.0212, 35.4169], [77.9971, 35.3941], [77.9903, 35.379], [77.9919, 35.3485], [78.002, 35.2946], [78.0428, 35.2023], [78.0576, 35.1847], [78.1242, 35.1354], [78.1171, 35.1116], [78.0883, 35.0957], [78.0829, 35.0825], [78.1335, 34.9709], [78.1847, 34.8815], [78.2073, 34.7661], [78.2211, 34.734], [78.248, 34.6951], [78.3003, 34.6619], [78.3984, 34.6486], [78.407, 34.6366], [78.4093, 34.6135], [78.4251, 34.6035], [78.4822, 34.6033], [78.5371, 34.6142], [78.5693, 34.6119], [78.621, 34.5743], [78.6601, 34.5297], [78.6963, 34.5076], [78.7301, 34.4967], [78.763, 34.4605], [78.8249, 34.4141], [78.9225, 34.3754], [78.9815, 34.3329], [78.9901, 34.3178], [78.9934, 34.2887], [78.975, 34.2429], [78.9421, 34.2048], [78.8712, 34.1572], [78.7292, 34.0957], [78.7064, 34.0722], [78.7121, 34.0505], [78.7606, 34.0361], [78.7704, 34.0197], [78.7636, 34.0015], [78.7158, 33.9645], [78.7116, 33.9225], [78.7257, 33.8711], [78.7418, 33.8402], [78.7751, 33.8013], [78.784, 33.7704], [78.7752, 33.7462], [78.7093, 33.6796], [78.711, 33.6549], [78.7632, 33.5631], [78.8233, 33.4835], [78.9213, 33.3987], [78.9529, 33.385], [78.95, 33.4084], [78.9403, 33.4123], [78.9333, 33.4328], [78.9315, 33.4739], [78.9428, 33.5093], [78.9278, 33.5598], [78.9152, 33.5743], [78.9167, 33.6323], [78.9899, 33.6112], [79.0478, 33.6277], [79.0995, 33.6137], [79.1071, 33.6169], [79.0905, 33.6571], [79.0912, 33.687], [79.054, 33.6781], [79.029, 33.6918], [79.0205, 33.7057], [79.0262, 33.7227], [79.0431, 33.7385], [79.043, 33.7497], [79.0685, 33.7564], [79.0603, 33.7803], [79.0473, 33.7661], [79.0341, 33.7837], [79.0245, 33.7752], [79.0168, 33.7787], [79.0125, 33.7869], [79.0192, 33.7988], [79.0065, 33.7976], [79.0008, 33.8033], [78.9617, 33.871], [78.9527, 33.9024], [78.9438, 33.9086], [78.9483, 33.9207], [78.937, 33.9272], [78.9212, 33.9573], [78.9051, 33.9719], [78.9378, 34.0205], [79.0224, 34.0509], [79.062, 34.0287], [79.1126, 34.0197], [79.1358, 34.0272], [79.1438, 34.0352], [79.1516, 34.0681], [79.1649, 34.0666], [79.1712, 34.0729], [79.1788, 34.0721], [79.1981, 34.0512], [79.2477, 34.0513], [79.2744, 34.0394], [79.306, 34.043], [79.3555, 34.0369], [79.3988, 34.0271], [79.4143, 34.0149], [79.4337, 34.023], [79.435, 34.037], [79.4142, 34.0558], [79.4203, 34.0781], [79.4326, 34.0927], [79.4612, 34.102], [79.4947, 34.1359], [79.4897, 34.1572], [79.5111, 34.2105], [79.5256, 34.2123], [79.5401, 34.2055], [79.5792, 34.2292], [79.5922, 34.2817], [79.5596, 34.3324], [79.5622, 34.3635], [79.554, 34.388], [79.5612, 34.41], [79.5419, 34.4101], [79.5281, 34.418], [79.5273, 34.4455], [79.5085, 34.4743], [79.5709, 34.4867], [79.5933, 34.5008], [79.6089, 34.492], [79.6524, 34.4884], [79.662, 34.4797], [79.673, 34.4836], [79.6958, 34.4778], [79.7799, 34.4815], [79.8124, 34.4969], [79.8152, 34.5202], [79.8103, 34.5313], [79.775, 34.552], [79.7585, 34.5547], [79.759, 34.566], [79.771, 34.5821], [79.793, 34.5896], [79.7738, 34.6256], [79.8031, 34.6425], [79.8165, 34.6434], [79.8248, 34.6611], [79.8607, 34.6888], [79.9003, 34.6913], [79.9446, 34.6811], [80.069, 34.7148], [80.0728, 34.7461], [80.067, 34.7906], [80.0732, 34.8284], [80.1237, 34.8934], [80.1709, 34.9889], [80.1859, 35.0632], [80.1779, 35.1369], [80.1835, 35.1667], [80.226, 35.22], [80.2357, 35.2766], [80.2709, 35.3442], [80.2835, 35.3879], [80.2811, 35.4409], [80.2976, 35.4608], [80.3235, 35.4653], [80.3286, 35.4726], [80.3113, 35.5542], [80.2915, 35.6074], [80.2373, 35.6419], [80.1081, 35.6809], [80.0882, 35.7252], [80.0582, 35.7499], [80.0382, 35.7998], [79.9992, 35.8377], [79.9722, 35.8407], [79.93, 35.8275], [79.8711, 35.783], [79.7375, 35.802], [79.712, 35.8195], [79.5599, 35.8618], [79.5184, 35.8835], [79.4221, 35.8965], [79.4031, 35.9188], [79.3847, 35.9943], [79.2418, 35.9868], [79.2155, 35.9788], [79.1898, 35.9472], [79.1881, 35.9274], [79.1978, 35.8986], [79.194, 35.8869], [79.157, 35.8503], [79.1325, 35.8362], [79.0216, 35.8487], [78.9605, 35.8926], [78.9399, 35.8796], [78.8238, 35.8558], [78.7902, 35.8593], [78.7688, 35.8697], [78.7188, 35.8683], [78.6914, 35.8563], [78.665, 35.8574], [78.6195, 35.8171], [78.5806, 35.8081], [78.5749, 35.7897], [78.5605, 35.7925], [78.5213, 35.7638], [78.5091, 35.7727], [78.4647, 35.7742], [78.4232, 35.7853], [78.3861, 35.7355], [78.3389, 35.7206], [78.2894, 35.7257], [78.2733, 35.722], [78.2675, 35.711], [78.2721, 35.6689], [78.2593, 35.6584], [78.2551, 35.6456], [78.1997, 35.6692], [78.1985, 35.6486], [78.1861, 35.624], [78.1622, 35.6294], [78.1665, 35.6132], [78.1516, 35.5782], [78.1567, 35.552], [78.1428, 35.5413], [78.1321, 35.5387], [78.0929, 35.5562], [78.0777, 35.5492], [78.0419, 35.5874], [77.991, 35.5818], [77.9651, 35.6039], [77.9525, 35.607], [77.966, 35.5876], [77.9668, 35.5716], [77.9325, 35.5217], [77.931, 35.5173]]]}}]}