{"type":"FeatureCollection","features":[{"type":"Feature","properties":{"SUBDISTRICT":"Kadmat","STATE":"Lakshadweep","shapeID":"7132399B17817162215257","source":"geoBoundaries gbOpen IND ADM3 (ODbL 1.0); source: Local Government Directory lgdirectory.gov.in via Pathways Data","DISTRICT":"Kavaratti","ELEV_MEAN_M":12.9,"ELEV_MIN_M":-2.0,"ELEV_MAX_M":201.0,"PCT_BELOW_5M":20.7,"PCT_BELOW_10M":54.0},"geometry":{"type":"Polygon","coordinates":[[[72.7613,11.1875],[72.7883,11.2503],[72.7826,11.2523],[72.7697,11.2171],[72.7613,11.1875]]]}}]}