{"type": "FeatureCollection", "features": [{"type": "Feature", "properties": {"SUBDISTRICT": "Tipaimukh", "STATE": "Manipur", "shapeID": "7132399B80445583535621", "source": "geoBoundaries gbOpen IND ADM3 (ODbL 1.0); source: Local Government Directory lgdirectory.gov.in via Pathways Data"}, "geometry": {"type": "Polygon", "coordinates": [[[92.9725, 24.1208], [92.9753, 24.1118], [92.9953, 24.1136], [93.0525, 24.0874], [93.0783, 24.0997], [93.101, 24.0707], [93.0996, 24.0417], [93.128, 24.0607], [93.1409, 24.0834], [93.1552, 24.0811], [93.2312, 24.2271], [93.263, 24.3074], [93.2416, 24.3613], [93.2285, 24.4436], [93.228, 24.4959], [93.209, 24.4901], [93.1875, 24.4676], [93.1476, 24.371], [93.0927, 24.2917], [93.0129, 24.2685], [93.0058, 24.2596], [93.017, 24.2332], [93.0255, 24.2294], [93.0184, 24.2257], [93.0212, 24.2069], [93.0155, 24.1969], [93.002, 24.1944], [93.0098, 24.1791], [93.0022, 24.1709], [93.0044, 24.1575], [92.9901, 24.1472], [92.9883, 24.1287], [92.9765, 24.1233], [92.9725, 24.1208]]]}}, {"type": "Feature", "properties": {"SUBDISTRICT": "Jiribam", "STATE": "Manipur", "shapeID": "7132399B31514811958412", "source": "geoBoundaries gbOpen IND ADM3 (ODbL 1.0); source: Local Government Directory lgdirectory.gov.in via Pathways Data"}, "geometry": {"type": "Polygon", "coordinates": [[[93.098, 24.7411], [93.1052, 24.7423], [93.1045, 24.7348], [93.1177, 24.7298], [93.1204, 24.7217], [93.1495, 24.7091], [93.178, 24.7739], [93.2163, 24.7821], [93.2265, 24.7926], [93.246, 24.8444], [93.2229, 24.8695], [93.2081, 24.853], [93.1966, 24.853], [93.2009, 24.8404], [93.1938, 24.8404], [93.2009, 24.8367], [93.1923, 24.8329], [93.1967, 24.8304], [93.1909, 24.8191], [93.1981, 24.8115], [93.1924, 24.8027], [93.1809, 24.8015], [93.1781, 24.7927], [93.1738, 24.8002], [93.1523, 24.7864], [93.1365, 24.8077], [93.1308, 24.8027], [93.1207, 24.8052], [93.1221, 24.8165], [93.1107, 24.8089], [93.1121, 24.7989], [93.1008, 24.775], [93.1051, 24.7662], [93.1009, 24.7461], [93.098, 24.7411]]]}}, {"type": "Feature", "properties": {"SUBDISTRICT": "Tamenglong North", "STATE": "Manipur", "shapeID": "7132399B97409303979340", "source": "geoBoundaries gbOpen IND ADM3 (ODbL 1.0); source: Local Government Directory lgdirectory.gov.in via Pathways Data"}, "geometry": {"type": "Polygon", "coordinates": [[[93.4826, 25.0927], [93.4858, 25.0832], [93.6405, 25.0215], [93.6661, 25.0468], [93.6944, 25.0462], [93.7247, 25.0355], [93.7344, 25.0254], [93.7388, 25.0074], [93.7219, 24.9716], [93.7019, 24.9525], [93.7137, 24.9356], [93.7321, 24.9261], [93.7777, 24.9507], [93.7911, 24.9836], [93.8073, 25.1181], [93.7811, 25.167], [93.782, 25.1779], [93.8078, 25.2113], [93.8299, 25.2253], [93.8302, 25.2342], [93.8507, 25.2415], [93.8658, 25.2587], [93.8884, 25.2624], [93.9089, 25.2868], [93.9365, 25.2851], [93.9431, 25.2997], [93.8984, 25.329], [93.9146, 25.3631], [93.9345, 25.3789], [93.9361, 25.391], [93.8894, 25.4132], [93.8458, 25.4503], [93.8106, 25.4698], [93.7805, 25.4202], [93.7461, 25.4013], [93.7392, 25.38], [93.7225, 25.3712], [93.7174, 25.3572], [93.6922, 25.3573], [93.6865, 25.3269], [93.6715, 25.3244], [93.6723, 25.3072], [93.6655, 25.304], [93.6067, 25.1858], [93.58, 25.1625], [93.5604, 25.1651], [93.5218, 25.1525], [93.5163, 25.1356], [93.4873, 25.1217], [93.49, 25.104], [93.4827, 25.0967], [93.4826, 25.0927]]]}}, {"type": "Feature", "properties": {"SUBDISTRICT": "Kangpokpi", "STATE": "Manipur", "shapeID": "7132399B84851103518495", "source": "geoBoundaries gbOpen IND ADM3 (ODbL 1.0); source: Local Government Directory lgdirectory.gov.in via Pathways Data"}, "geometry": {"type": "Polygon", "coordinates": [[[93.8984, 25.329], [93.9045, 25.321], [93.9416, 25.3049], [93.9359, 25.2846], [93.9695, 25.2802], [93.9893, 25.2676], [93.9791, 25.279], [93.9792, 25.2903], [94.0015, 25.3437], [93.998, 25.3599], [93.9752, 25.3807], [93.9376, 25.3879], [93.9146, 25.3631], [93.8985, 25.3316], [93.8984, 25.329]]]}}, {"type": "Feature", "properties": {"SUBDISTRICT": "Saitu-Gamphazol", "STATE": "Manipur", "shapeID": "7132399B38077432869970", "source": "geoBoundaries gbOpen IND ADM3 (ODbL 1.0); source: Local Government Directory lgdirectory.gov.in via Pathways Data"}, "geometry": {"type": "Polygon", "coordinates": [[[93.7252, 24.9142], [93.7473, 24.8732], [93.7395, 24.8315], [93.7551, 24.8289], [93.7804, 24.8446], [93.8061, 24.8438], [93.8113, 24.85], [93.8043, 24.8631], [93.8066, 24.8779], [93.8148, 24.8721], [93.8306, 24.888], [93.8245, 24.8939], [93.8316, 24.8971], [93.8289, 24.9091], [93.839, 24.9439], [93.8642, 24.9571], [93.8726, 24.9827], [93.8894, 25.0065], [93.907, 24.9998], [93.9047, 25.0101], [93.9255, 25.0404], [93.9358, 25.0417], [93.9454, 25.0548], [93.9452, 25.0707], [93.92, 25.0777], [93.8937, 25.0798], [93.852, 25.0699], [93.8049, 25.0754], [93.7911, 24.9836], [93.7777, 24.9507], [93.7262, 24.9176], [93.7252, 24.9142]]]}}, {"type": "Feature", "properties": {"SUBDISTRICT": "Island", "STATE": "Manipur", "shapeID": "7132399B43703357658556", "source": "geoBoundaries gbOpen IND ADM3 (ODbL 1.0); source: Local Government Directory lgdirectory.gov.in via Pathways Data"}, "geometry": {"type": "MultiPolygon", "coordinates": [[[[93.9853, 24.7426], [94.0107, 24.7474], [94.004, 24.7376], [94.0073, 24.7338], [94.0008, 24.7308], [94.0169, 24.7268], [94.0135, 24.7144], [94.0242, 24.7072], [94.0232, 24.7199], [94.0335, 24.7246], [94.0219, 24.739], [94.0347, 24.7357], [94.0351, 24.7497], [94.0428, 24.7444], [94.0436, 24.7539], [94.0514, 24.7522], [94.0545, 24.7584], [94.0563, 24.7511], [94.0637, 24.7528], [94.0631, 24.7645], [94.0708, 24.7567], [94.0639, 24.7753], [94.0727, 24.7701], [94.0813, 24.7765], [94.0758, 24.7838], [94.0837, 24.7789], [94.0802, 24.8017], [94.0877, 24.8069], [94.0815, 24.8111], [94.0889, 24.8178], [94.0801, 24.8189], [94.0842, 24.8267], [94.0747, 24.8273], [94.0861, 24.8321], [94.0779, 24.8414], [94.0869, 24.8503], [94.0679, 24.8493], [94.0703, 24.8357], [94.0616, 24.8182], [94.0695, 24.8044], [94.0684, 24.7908], [94.0617, 24.7966], [94.0635, 24.8046], [94.0552, 24.7989], [94.0582, 24.8056], [94.0491, 24.8047], [94.0438, 24.8143], [94.0413, 24.7856], [94.0385, 24.7959], [94.029, 24.7935], [94.0332, 24.8002], [94.0273, 24.808], [94.0335, 24.8147], [94.0261, 24.8144], [94.0262, 24.8297], [94.0356, 24.8277], [94.0393, 24.8336], [94.0309, 24.8526], [94.0329, 24.8451], [94.0176, 24.8395], [94.0133, 24.8144], [94.0043, 24.8088], [94.0106, 24.805], [94.0041, 24.8011], [94.0141, 24.7947], [94.0021, 24.787], [93.9943, 24.7939], [93.9967, 24.777], [94.0045, 24.7736], [94.0059, 24.7655], [93.9896, 24.7639], [93.9854, 24.7434], [93.9853, 24.7426]]], [[[94.0555, 24.7009], [94.0622, 24.6844], [94.0673, 24.6845], [94.0753, 24.6972], [94.072, 24.7057], [94.0832, 24.7091], [94.098, 24.7591], [94.0936, 24.7041], [94.1064, 24.6983], [94.117, 24.7135], [94.1237, 24.7134], [94.1184, 24.7193], [94.1272, 24.716], [94.1234, 24.7196], [94.128, 24.7203], [94.1321, 24.7571], [94.1173, 24.769], [94.1168, 24.7799], [94.1277, 24.7972], [94.1275, 24.7813], [94.1333, 24.7799], [94.1589, 24.8328], [94.1493, 24.7656], [94.14, 24.7595], [94.1442, 24.7374], [94.1506, 24.7347], [94.1572, 24.7073], [94.1836, 24.712], [94.1433, 24.6777], [94.137, 24.6675], [94.1385, 24.6547], [94.1296, 24.6576], [94.1285, 24.6528], [94.155, 24.6231], [94.219, 24.6176], [94.2011, 24.7065], [94.1769, 24.7552], [94.1701, 24.8598], [94.1767, 24.8747], [94.1671, 24.899], [94.1458, 24.9053], [94.153, 24.896], [94.133, 24.8815], [94.1406, 24.8698], [94.1178, 24.8607], [94.115, 24.8313], [94.0957, 24.8291], [94.1047, 24.8051], [94.1175, 24.8096], [94.1196, 24.7993], [94.1018, 24.7949], [94.1009, 24.7852], [94.0939, 24.7836], [94.0949, 24.7708], [94.0806, 24.7577], [94.0806, 24.7396], [94.0562, 24.7019], [94.0555, 24.7009]]]]}}, {"type": "Feature", "properties": {"SUBDISTRICT": "Churachandpur", "STATE": "Manipur", "shapeID": "7132399B85480027890060", "source": "geoBoundaries gbOpen IND ADM3 (ODbL 1.0); source: Local Government Directory lgdirectory.gov.in via Pathways Data"}, "geometry": {"type": "Polygon", "coordinates": [[[93.6301, 24.2724], [93.6583, 24.2697], [93.6784, 24.258], [93.6888, 24.2652], [93.7024, 24.2775], [93.7139, 24.315], [93.7265, 24.3252], [93.7276, 24.3407], [93.7201, 24.3501], [93.744, 24.3634], [93.7409, 24.3824], [93.7246, 24.4024], [93.6767, 24.4045], [93.6906, 24.3802], [93.721, 24.3763], [93.7265, 24.3658], [93.7106, 24.3629], [93.7112, 24.3352], [93.6878, 24.3254], [93.6761, 24.3062], [93.6681, 24.3137], [93.6609, 24.311], [93.654, 24.2937], [93.6312, 24.2751], [93.6301, 24.2724]]]}}, {"type": "Feature", "properties": {"SUBDISTRICT": "Nambol", "STATE": "Manipur", "shapeID": "7132399B72080551137752", "source": "geoBoundaries gbOpen IND ADM3 (ODbL 1.0); source: Local Government Directory lgdirectory.gov.in via Pathways Data"}, "geometry": {"type": "Polygon", "coordinates": [[[93.7566, 24.727], [93.7687, 24.7199], [93.7745, 24.7006], [93.7636, 24.6638], [93.7803, 24.6582], [93.783, 24.6477], [93.7986, 24.6496], [93.8062, 24.6699], [93.8316, 24.6766], [93.8426, 24.6618], [93.8691, 24.6573], [93.8813, 24.6604], [93.8878, 24.6705], [93.8918, 24.6974], [93.88, 24.6945], [93.8796, 24.7114], [93.8623, 24.7141], [93.8594, 24.7322], [93.838, 24.7217], [93.8333, 24.7117], [93.8142, 24.7242], [93.7567, 24.7272], [93.7566, 24.727]]]}}, {"type": "Feature", "properties": {"SUBDISTRICT": "Moirang", "STATE": "Manipur", "shapeID": "7132399B92210712381951", "source": "geoBoundaries gbOpen IND ADM3 (ODbL 1.0); source: Local Government Directory lgdirectory.gov.in via Pathways Data"}, "geometry": {"type": "Polygon", "coordinates": [[[93.7128, 24.465], [93.7218, 24.4605], [93.7204, 24.4372], [93.7496, 24.4162], [93.7524, 24.4068], [93.7758, 24.4183], [93.7862, 24.4146], [93.798, 24.4245], [93.8062, 24.4214], [93.8094, 24.4087], [93.8248, 24.4143], [93.8216, 24.3961], [93.8012, 24.3992], [93.8071, 24.3874], [93.8272, 24.3683], [93.8475, 24.3819], [93.8541, 24.3299], [93.8637, 24.3207], [93.8747, 24.33], [93.8514, 24.4123], [93.8746, 24.4773], [93.8648, 24.5085], [93.8693, 24.5252], [93.8237, 24.5448], [93.8032, 24.547], [93.7737, 24.5242], [93.7353, 24.5213], [93.7306, 24.4694], [93.7128, 24.4661], [93.7128, 24.465]]]}}, {"type": "Feature", "properties": {"SUBDISTRICT": "Lilong", "STATE": "Manipur", "shapeID": "7132399B92898490330585", "source": "geoBoundaries gbOpen IND ADM3 (ODbL 1.0); source: Local Government Directory lgdirectory.gov.in via Pathways Data"}, "geometry": {"type": "Polygon", "coordinates": [[[93.8973, 24.6248], [93.9036, 24.6193], [93.9127, 24.6249], [93.9172, 24.6208], [93.9122, 24.6024], [93.9187, 24.5854], [93.9054, 24.5655], [93.9313, 24.5532], [93.9294, 24.5608], [93.9406, 24.5758], [93.9342, 24.5744], [93.9284, 24.5847], [93.9449, 24.5999], [93.9349, 24.6095], [93.9289, 24.6287], [93.9548, 24.6196], [93.963, 24.6099], [93.9714, 24.6194], [93.985, 24.6161], [93.9966, 24.6326], [93.9936, 24.6487], [94.0132, 24.6711], [94.0151, 24.6824], [94.0108, 24.6828], [94.0163, 24.6924], [93.985, 24.685], [94.0035, 24.6914], [94.0008, 24.6986], [94.0093, 24.7075], [94.0016, 24.7048], [94.0009, 24.7163], [93.9938, 24.7195], [93.9888, 24.716], [93.9904, 24.7017], [93.9739, 24.697], [93.9591, 24.7178], [93.9442, 24.7203], [93.9268, 24.7069], [93.9069, 24.7019], [93.9081, 24.6812], [93.9182, 24.6774], [93.9195, 24.6696], [93.9361, 24.669], [93.9375, 24.6574], [93.9288, 24.6578], [93.9074, 24.6379], [93.9052, 24.6273], [93.8975, 24.6252], [93.8973, 24.6248]]]}}, {"type": "Feature", "properties": {"SUBDISTRICT": "Thoubal", "STATE": "Manipur", "shapeID": "7132399B62468942037632", "source": "geoBoundaries gbOpen IND ADM3 (ODbL 1.0); source: Local Government Directory lgdirectory.gov.in via Pathways Data"}, "geometry": {"type": "Polygon", "coordinates": [[[93.9269, 24.6259], [93.9449, 24.5999], [93.9284, 24.5847], [93.9342, 24.5744], [93.9406, 24.5758], [93.9294, 24.5608], [93.9313, 24.5532], [93.9574, 24.5486], [93.9849, 24.5272], [94.0424, 24.5076], [94.0544, 24.5371], [94.0753, 24.5082], [94.0871, 24.5131], [94.1028, 24.506], [94.1082, 24.517], [94.096, 24.5188], [94.0845, 24.5501], [94.0976, 24.5383], [94.0981, 24.5565], [94.1082, 24.5567], [94.1276, 24.5376], [94.1231, 24.5609], [94.105, 24.5757], [94.1112, 24.5933], [94.105, 24.5972], [94.1111, 24.6158], [94.1079, 24.6278], [94.1225, 24.6409], [94.1347, 24.6431], [94.1281, 24.6552], [94.1385, 24.6547], [94.1379, 24.6705], [94.1839, 24.714], [94.1572, 24.7073], [94.1472, 24.7375], [94.1353, 24.7259], [94.1366, 24.7133], [94.1267, 24.7139], [94.1115, 24.6917], [94.1073, 24.6971], [94.095, 24.6883], [94.0726, 24.6846], [94.0573, 24.6702], [94.0523, 24.6738], [94.0526, 24.6685], [94.0459, 24.6736], [94.0391, 24.6606], [94.0386, 24.6768], [94.0337, 24.6731], [94.0252, 24.6793], [94.0401, 24.6819], [94.0411, 24.6887], [94.0151, 24.6825], [94.0132, 24.6711], [93.9936, 24.6487], [93.9968, 24.6335], [93.985, 24.6161], [93.9714, 24.6194], [93.963, 24.6099], [93.9462, 24.6239], [93.9274, 24.6267], [93.9269, 24.6259]]]}}, {"type": "Feature", "properties": {"SUBDISTRICT": "Kakching", "STATE": "Manipur", "shapeID": "7132399B98200235599618", "source": "geoBoundaries gbOpen IND ADM3 (ODbL 1.0); source: Local Government Directory lgdirectory.gov.in via Pathways Data"}, "geometry": {"type": "Polygon", "coordinates": [[[93.8668, 24.4516], [93.8705, 24.4489], [93.87, 24.4582], [93.8892, 24.4612], [93.8944, 24.4549], [93.8951, 24.4658], [93.9003, 24.4625], [93.9009, 24.4455], [93.9054, 24.4439], [93.9116, 24.4636], [93.9428, 24.4551], [93.9644, 24.4409], [93.9744, 24.4512], [93.979, 24.4849], [93.9952, 24.4776], [93.9899, 24.4665], [93.9943, 24.4601], [94.0146, 24.4592], [94.0064, 24.4458], [94.0223, 24.442], [94.0493, 24.4474], [94.0497, 24.4522], [94.0373, 24.4742], [94.035, 24.4991], [94.0408, 24.5095], [93.9849, 24.5272], [93.9625, 24.5461], [93.9148, 24.5576], [93.9049, 24.5685], [93.8834, 24.5601], [93.8837, 24.5365], [93.8983, 24.524], [93.8932, 24.5155], [93.9006, 24.5061], [93.8929, 24.4867], [93.8717, 24.4728], [93.8669, 24.4535], [93.8668, 24.4516]]]}}, {"type": "Feature", "properties": {"SUBDISTRICT": "Sawombung", "STATE": "Manipur", "shapeID": "7132399B33024180546916", "source": "geoBoundaries gbOpen IND ADM3 (ODbL 1.0); source: Local Government Directory lgdirectory.gov.in via Pathways Data"}, "geometry": {"type": "Polygon", "coordinates": [[[93.9534, 24.9839], [93.9761, 25.0029], [93.995, 25.0056], [94.0097, 25.0172], [94.0196, 25.0145], [94.022, 24.9907], [93.9962, 24.9727], [94.0249, 24.9713], [94.0165, 24.9284], [94.0307, 24.9226], [94.0369, 24.9091], [94.0345, 24.8802], [94.0263, 24.8775], [94.0162, 24.887], [94.01, 24.882], [94.0116, 24.8692], [93.9987, 24.8721], [94.0011, 24.8898], [94.0168, 24.9133], [93.981, 24.947], [93.9762, 24.9337], [93.9917, 24.9201], [93.9927, 24.9026], [93.9847, 24.9028], [93.9792, 24.9173], [93.9664, 24.9215], [93.9608, 24.9165], [93.9675, 24.9067], [93.9548, 24.8986], [93.962, 24.8953], [93.9636, 24.8785], [93.9773, 24.8758], [93.9712, 24.865], [93.9748, 24.8425], [93.9937, 24.8196], [94.0139, 24.8211], [94.0176, 24.8395], [94.0329, 24.8451], [94.0302, 24.8519], [94.0347, 24.8518], [94.0392, 24.8327], [94.0356, 24.8277], [94.0262, 24.8297], [94.0261, 24.8144], [94.0335, 24.8147], [94.0273, 24.808], [94.0332, 24.8002], [94.029, 24.7935], [94.0385, 24.7959], [94.0413, 24.7856], [94.0438, 24.8143], [94.0491, 24.8047], [94.0582, 24.8056], [94.0552, 24.7989], [94.0635, 24.8046], [94.0617, 24.7966], [94.0684, 24.7908], [94.0695, 24.8044], [94.0616, 24.8182], [94.0703, 24.8357], [94.067, 24.8479], [94.0869, 24.8503], [94.0779, 24.8414], [94.0861, 24.8321], [94.0747, 24.8273], [94.0842, 24.8267], [94.0801, 24.8189], [94.0889, 24.8178], [94.0815, 24.8111], [94.0877, 24.8069], [94.0805, 24.8028], [94.0838, 24.7793], [94.0758, 24.7838], [94.0813, 24.777], [94.0759, 24.7675], [94.0834, 24.7752], [94.0939, 24.7699], [94.101, 24.7941], [94.1181, 24.7964], [94.1185, 24.8088], [94.1047, 24.8051], [94.0957, 24.8291], [94.1161, 24.8325], [94.1178, 24.8607], [94.1406, 24.8698], [94.1337, 24.8834], [94.144, 24.8847], [94.1537, 24.8975], [94.1419, 24.9138], [94.1484, 24.9468], [94.1227, 24.9006], [94.1135, 24.9052], [94.1052, 24.8835], [94.0782, 24.8638], [94.0623, 24.8714], [94.0677, 24.8968], [94.0832, 24.8959], [94.0886, 24.9066], [94.0804, 24.9163], [94.0726, 24.9109], [94.0637, 24.9227], [94.1036, 24.9497], [94.1044, 24.9562], [94.0634, 24.9446], [94.0501, 24.9351], [94.0399, 24.9534], [94.0481, 24.9741], [94.0564, 24.9754], [94.0409, 24.9882], [94.0632, 24.9908], [94.0672, 24.9981], [94.0576, 25.0058], [94.0432, 25.0005], [94.0326, 25.0177], [94.0472, 25.034], [94.067, 25.0428], [94.1, 25.0457], [94.0958, 25.0551], [94.1049, 25.0669], [94.0885, 25.0582], [94.0597, 25.0551], [94.0424, 25.0428], [94.0211, 25.0615], [94.0213, 25.0336], [93.9907, 25.0141], [93.9641, 25.0112], [93.9534, 24.9881], [93.9534, 24.9839]]]}}, {"type": "Feature", "properties": {"SUBDISTRICT": "Porompat", "STATE": "Manipur", "shapeID": "7132399B20270288089512", "source": "geoBoundaries gbOpen IND ADM3 (ODbL 1.0); source: Local Government Directory lgdirectory.gov.in via Pathways Data"}, "geometry": {"type": "Polygon", "coordinates": [[[93.8992, 24.9014], [93.9122, 24.8928], [93.912, 24.8806], [93.9255, 24.8789], [93.9033, 24.855], [93.9092, 24.8501], [93.9277, 24.8558], [93.9249, 24.8481], [93.9416, 24.8407], [93.9477, 24.8311], [93.9466, 24.7624], [93.9389, 24.7666], [93.9359, 24.7517], [93.9442, 24.7203], [93.952, 24.7195], [93.9534, 24.7327], [93.9631, 24.7335], [93.9663, 24.7412], [93.969, 24.7726], [94.0031, 24.7692], [93.9943, 24.7939], [94.0021, 24.787], [94.0141, 24.7947], [94.0041, 24.8016], [94.0104, 24.804], [94.0043, 24.8088], [94.0122, 24.8122], [94.0139, 24.8211], [93.9937, 24.8196], [93.9759, 24.8419], [93.9705, 24.8375], [93.9629, 24.8545], [93.9533, 24.8571], [93.9542, 24.876], [93.9366, 24.89], [93.9232, 24.8902], [93.9238, 24.9156], [93.9073, 24.9012], [93.8996, 24.9016], [93.8992, 24.9014]]]}}, {"type": "Feature", "properties": {"SUBDISTRICT": "Keirao Bitra", "STATE": "Manipur", "shapeID": "7132399B50904181461602", "source": "geoBoundaries gbOpen IND ADM3 (ODbL 1.0); source: Local Government Directory lgdirectory.gov.in via Pathways Data"}, "geometry": {"type": "Polygon", "coordinates": [[[93.9502, 24.7247], [93.9727, 24.6973], [93.9904, 24.7017], [93.9888, 24.716], [93.9938, 24.7195], [94.0009, 24.7163], [94.0016, 24.7048], [94.0093, 24.7075], [94.0008, 24.6986], [94.0035, 24.6914], [93.986, 24.6836], [94.0039, 24.6857], [94.014, 24.6938], [94.0117, 24.6808], [94.0234, 24.6883], [94.0411, 24.6887], [94.0401, 24.6819], [94.0252, 24.6793], [94.0337, 24.6731], [94.0386, 24.6768], [94.0391, 24.6606], [94.0459, 24.6736], [94.0526, 24.6685], [94.0523, 24.6738], [94.0573, 24.6702], [94.0726, 24.6846], [94.095, 24.6883], [94.1073, 24.6971], [94.1115, 24.6917], [94.1267, 24.7139], [94.1366, 24.7133], [94.1353, 24.7259], [94.1451, 24.7417], [94.14, 24.7595], [94.1493, 24.7656], [94.1602, 24.822], [94.1589, 24.8328], [94.1535, 24.8276], [94.1333, 24.7799], [94.1275, 24.7813], [94.1277, 24.7972], [94.1176, 24.7827], [94.1173, 24.769], [94.1321, 24.7571], [94.1298, 24.7308], [94.1234, 24.7196], [94.1272, 24.716], [94.1184, 24.7193], [94.1237, 24.7134], [94.117, 24.7135], [94.1072, 24.6986], [94.0936, 24.7041], [94.098, 24.7591], [94.0832, 24.7091], [94.072, 24.7057], [94.0753, 24.6972], [94.0673, 24.6845], [94.0622, 24.6844], [94.0558, 24.6993], [94.0806, 24.7396], [94.0806, 24.7577], [94.0895, 24.7674], [94.0843, 24.7752], [94.0764, 24.7674], [94.0787, 24.775], [94.0727, 24.7701], [94.064, 24.7754], [94.0702, 24.7561], [94.0631, 24.7645], [94.0637, 24.7528], [94.0563, 24.7511], [94.0545, 24.7584], [94.0514, 24.7522], [94.0436, 24.7539], [94.0428, 24.7444], [94.0351, 24.7497], [94.0347, 24.7357], [94.0219, 24.739], [94.0335, 24.7246], [94.0232, 24.7199], [94.0242, 24.7072], [94.0135, 24.7144], [94.0169, 24.7268], [94.0008, 24.7308], [94.0073, 24.7338], [94.004, 24.7376], [94.0107, 24.7474], [93.9856, 24.7408], [93.9896, 24.7639], [94.0059, 24.7655], [93.9973, 24.771], [93.9843, 24.773], [93.9802, 24.7679], [93.969, 24.7726], [93.9638, 24.7345], [93.9539, 24.7333], [93.9503, 24.7255], [93.9502, 24.7247]]]}}, {"type": "Feature", "properties": {"SUBDISTRICT": "Phungyar", "STATE": "Manipur", "shapeID": "7132399B69144438511063", "source": "geoBoundaries gbOpen IND ADM3 (ODbL 1.0); source: Local Government Directory lgdirectory.gov.in via Pathways Data"}, "geometry": {"type": "Polygon", "coordinates": [[[94.1646, 24.9054], [94.1767, 24.8747], [94.1701, 24.8598], [94.1734, 24.7901], [94.2218, 24.8064], [94.2686, 24.8037], [94.293, 24.7893], [94.3089, 24.7543], [94.3345, 24.7394], [94.344, 24.7259], [94.3552, 24.7234], [94.3527, 24.7075], [94.3625, 24.6974], [94.3809, 24.6949], [94.3962, 24.683], [94.3979, 24.6609], [94.4193, 24.6637], [94.4363, 24.6819], [94.4515, 24.6792], [94.4562, 24.7261], [94.4692, 24.732], [94.4741, 24.75], [94.459, 24.7773], [94.4612, 24.7891], [94.4506, 24.8212], [94.4219, 24.8457], [94.4021, 24.8815], [94.3956, 24.9226], [94.3999, 24.9324], [94.3945, 24.9425], [94.4035, 24.9939], [94.3306, 24.9908], [94.2555, 24.9456], [94.2123, 24.9335], [94.1941, 24.9361], [94.189, 24.9291], [94.1762, 24.9311], [94.1669, 24.9217], [94.1662, 24.9072], [94.1646, 24.9054]]]}}, {"type": "Feature", "properties": {"SUBDISTRICT": "Machi", "STATE": "Manipur", "shapeID": "7132399B41816690088775", "source": "geoBoundaries gbOpen IND ADM3 (ODbL 1.0); source: Local Government Directory lgdirectory.gov.in via Pathways Data"}, "geometry": {"type": "Polygon", "coordinates": [[[94.035, 24.4983], [94.0387, 24.4702], [94.0493, 24.4474], [94.0581, 24.4417], [94.081, 24.457], [94.117, 24.4673], [94.1432, 24.4566], [94.1715, 24.463], [94.2105, 24.453], [94.2724, 24.4532], [94.3013, 24.4616], [94.3313, 24.4801], [94.3865, 24.5529], [94.3811, 24.5628], [94.3461, 24.5674], [94.3468, 24.5807], [94.3159, 24.5902], [94.3083, 24.6027], [94.2892, 24.6039], [94.2574, 24.6263], [94.2259, 24.6242], [94.219, 24.6176], [94.155, 24.6231], [94.1347, 24.6431], [94.1286, 24.6424], [94.1079, 24.6278], [94.1111, 24.6158], [94.105, 24.5972], [94.1108, 24.587], [94.1042, 24.5795], [94.1074, 24.5699], [94.1231, 24.5609], [94.1276, 24.5376], [94.1105, 24.5559], [94.099, 24.5574], [94.0976, 24.5383], [94.0871, 24.5508], [94.0836, 24.5447], [94.096, 24.5188], [94.1082, 24.517], [94.1053, 24.5074], [94.0923, 24.5066], [94.0871, 24.5131], [94.0753, 24.5082], [94.0544, 24.5371], [94.035, 24.4991], [94.035, 24.4983]]]}}, {"type": "Feature", "properties": {"SUBDISTRICT": "Chandel", "STATE": "Manipur", "shapeID": "7132399B86941943117637", "source": "geoBoundaries gbOpen IND ADM3 (ODbL 1.0); source: Local Government Directory lgdirectory.gov.in via Pathways Data"}, "geometry": {"type": "Polygon", "coordinates": [[[93.9026, 24.3522], [93.9115, 24.3332], [93.9035, 24.3254], [93.9119, 24.3116], [93.9092, 24.304], [93.9359, 24.2552], [93.9339, 24.2281], [93.9465, 24.2216], [93.9561, 24.1988], [94.0588, 24.1988], [94.1418, 24.166], [94.1984, 24.1293], [94.2071, 24.1327], [94.2023, 24.1689], [94.1915, 24.1953], [94.2025, 24.2395], [94.1997, 24.2628], [94.1571, 24.2985], [94.1518, 24.3666], [94.1183, 24.3952], [94.1035, 24.4198], [94.076, 24.4222], [94.052, 24.4474], [94.0223, 24.442], [94.0064, 24.4458], [94.0146, 24.4592], [93.9943, 24.4601], [93.9899, 24.4665], [93.9952, 24.4776], [93.979, 24.4849], [93.9744, 24.4512], [93.9648, 24.4423], [93.9665, 24.4365], [93.9518, 24.4298], [93.9619, 24.4196], [93.9436, 24.4163], [93.9452, 24.4037], [93.9312, 24.4063], [93.9241, 24.3812], [93.9149, 24.3799], [93.9032, 24.3534], [93.9026, 24.3522]]]}}, {"type": "Feature", "properties": {"SUBDISTRICT": "Chakpikarong", "STATE": "Manipur", "shapeID": "7132399B52763022337312", "source": "geoBoundaries gbOpen IND ADM3 (ODbL 1.0); source: Local Government Directory lgdirectory.gov.in via Pathways Data"}, "geometry": {"type": "Polygon", "coordinates": [[[93.7501, 24.0], [93.761, 24.0], [93.8123, 23.929], [93.8256, 23.925], [93.907, 23.9505], [93.9488, 23.9436], [93.9477, 23.9664], [93.9722, 24.0283], [93.9716, 24.0497], [93.9647, 24.0663], [93.9263, 24.0834], [93.9334, 24.0942], [93.9491, 24.1067], [93.9926, 24.1243], [94.047, 24.1194], [94.0733, 24.1229], [94.0871, 24.1355], [94.0927, 24.1863], [94.0411, 24.2006], [94.0139, 24.1951], [93.9561, 24.1988], [93.9465, 24.2216], [93.9339, 24.2281], [93.9352, 24.2574], [93.9092, 24.304], [93.897, 24.302], [93.898, 24.2801], [93.921, 24.2545], [93.9221, 24.2424], [93.9157, 24.2411], [93.9107, 24.2547], [93.8989, 24.2608], [93.8907, 24.2536], [93.8945, 24.2429], [93.8806, 24.2475], [93.8775, 24.2682], [93.885, 24.2912], [93.8778, 24.2988], [93.8609, 24.2411], [93.8755, 24.2338], [93.8757, 24.2269], [93.8437, 24.2059], [93.833, 24.1858], [93.8171, 24.1825], [93.813, 24.1666], [93.7823, 24.141], [93.7767, 24.1143], [93.7823, 24.099], [93.772, 24.0904], [93.7724, 24.0733], [93.7547, 24.0331], [93.7519, 24.0041], [93.7501, 24.0]]]}}, {"type": "Feature", "properties": {"SUBDISTRICT": "Paomata", "STATE": "Manipur", "shapeID": "7132399B95835594708970", "source": "geoBoundaries gbOpen IND ADM3 (ODbL 1.0); source: Local Government Directory lgdirectory.gov.in via Pathways Data"}, "geometry": {"type": "Polygon", "coordinates": [[[94.1627, 25.3796], [94.1774, 25.3741], [94.2536, 25.3765], [94.2791, 25.3678], [94.2973, 25.3713], [94.3147, 25.3817], [94.327, 25.4151], [94.3448, 25.4259], [94.426, 25.4392], [94.4467, 25.4978], [94.4652, 25.5201], [94.4678, 25.5329], [94.4772, 25.5374], [94.4825, 25.5647], [94.4929, 25.5755], [94.5042, 25.611], [94.4923, 25.6084], [94.49, 25.6139], [94.4729, 25.6157], [94.4467, 25.5922], [94.4289, 25.5869], [94.4212, 25.5702], [94.4252, 25.5556], [94.4191, 25.5368], [94.3874, 25.5308], [94.3279, 25.5027], [94.3124, 25.4888], [94.3015, 25.489], [94.2857, 25.5062], [94.2731, 25.4975], [94.2281, 25.4906], [94.2118, 25.4974], [94.1963, 25.4549], [94.1997, 25.4363], [94.1634, 25.384], [94.1627, 25.3796]]]}}, {"type": "Feature", "properties": {"SUBDISTRICT": "Lamsang", "STATE": "Manipur", "shapeID": "7132399B58530720630657", "source": "geoBoundaries gbOpen IND ADM3 (ODbL 1.0); source: Local Government Directory lgdirectory.gov.in via Pathways Data"}, "geometry": {"type": "Polygon", "coordinates": [[[93.7877, 24.8112], [93.7905, 24.8026], [93.8236, 24.8111], [93.8644, 24.7975], [93.8728, 24.798], [93.8727, 24.8049], [93.8901, 24.8045], [93.8823, 24.8236], [93.8947, 24.8404], [93.8815, 24.8459], [93.895, 24.852], [93.8934, 24.8646], [93.9067, 24.8768], [93.9059, 24.8894], [93.9124, 24.8904], [93.8992, 24.9014], [93.9268, 24.9159], [93.9219, 24.9387], [93.9336, 24.959], [93.9267, 24.9637], [93.9094, 24.9437], [93.9077, 24.9251], [93.8952, 24.9281], [93.8985, 24.935], [93.8875, 24.9356], [93.8902, 24.9461], [93.8855, 24.946], [93.9172, 24.9674], [93.9008, 24.9726], [93.9073, 24.9845], [93.922, 24.977], [93.9164, 24.987], [93.923, 24.9885], [93.9204, 24.9959], [93.9137, 24.9945], [93.9202, 25.013], [93.9941, 25.0497], [94.0037, 25.0686], [94.0167, 25.0787], [94.0112, 25.0844], [93.9955, 25.0743], [93.9824, 25.0796], [93.9781, 25.0721], [93.9666, 25.0774], [93.9488, 25.0745], [93.9428, 25.0491], [93.9255, 25.0404], [93.9047, 25.0101], [93.907, 24.9998], [93.8877, 25.0049], [93.8642, 24.9571], [93.839, 24.9439], [93.8289, 24.9091], [93.8316, 24.8971], [93.8245, 24.8939], [93.8306, 24.888], [93.8148, 24.8721], [93.8067, 24.8784], [93.8079, 24.8371], [93.7974, 24.8238], [93.7898, 24.8235], [93.7878, 24.8118], [93.7877, 24.8112]]]}}, {"type": "Feature", "properties": {"SUBDISTRICT": "Patsoi", "STATE": "Manipur", "shapeID": "7132399B56562170414655", "source": "geoBoundaries gbOpen IND ADM3 (ODbL 1.0); source: Local Government Directory lgdirectory.gov.in via Pathways Data"}, "geometry": {"type": "Polygon", "coordinates": [[[93.7747, 24.7272], [93.8188, 24.723], [93.8333, 24.7117], [93.838, 24.7217], [93.8441, 24.7203], [93.8641, 24.7358], [93.8709, 24.7532], [93.8663, 24.7611], [93.8935, 24.7594], [93.9202, 24.7804], [93.9244, 24.792], [93.919, 24.7965], [93.9047, 24.7917], [93.8901, 24.8045], [93.8727, 24.8049], [93.8728, 24.798], [93.8644, 24.7975], [93.8236, 24.8111], [93.79, 24.8029], [93.7869, 24.7964], [93.7992, 24.7637], [93.7866, 24.7574], [93.7841, 24.7404], [93.7773, 24.7396], [93.7749, 24.7299], [93.7747, 24.7272]]]}}, {"type": "Feature", "properties": {"SUBDISTRICT": "Lamphelpat", "STATE": "Manipur", "shapeID": "7132399B28412839772798", "source": "geoBoundaries gbOpen IND ADM3 (ODbL 1.0); source: Local Government Directory lgdirectory.gov.in via Pathways Data"}, "geometry": {"type": "Polygon", "coordinates": [[[93.8812, 24.844], [93.8947, 24.8404], [93.8823, 24.8236], [93.8937, 24.7989], [93.9053, 24.7916], [93.9225, 24.7964], [93.9247, 24.7605], [93.9363, 24.768], [93.9466, 24.7624], [93.9477, 24.8311], [93.9416, 24.8407], [93.9249, 24.8481], [93.9277, 24.8558], [93.9087, 24.8501], [93.9028, 24.8563], [93.9254, 24.8795], [93.9128, 24.8801], [93.9059, 24.8894], [93.9067, 24.8768], [93.8934, 24.8646], [93.895, 24.852], [93.8814, 24.8448], [93.8812, 24.844]]]}}, {"type": "Feature", "properties": {"SUBDISTRICT": "Wangoi", "STATE": "Manipur", "shapeID": "7132399B5801191922371", "source": "geoBoundaries gbOpen IND ADM3 (ODbL 1.0); source: Local Government Directory lgdirectory.gov.in via Pathways Data"}, "geometry": {"type": "Polygon", "coordinates": [[[93.8015, 24.6564], [93.8091, 24.656], [93.8173, 24.6417], [93.8149, 24.6159], [93.8381, 24.6137], [93.842, 24.5947], [93.8596, 24.5788], [93.8804, 24.5954], [93.8705, 24.573], [93.8733, 24.562], [93.8654, 24.5338], [93.87, 24.5218], [93.865, 24.507], [93.8757, 24.4732], [93.8929, 24.4867], [93.9006, 24.5061], [93.8932, 24.5155], [93.8983, 24.524], [93.8837, 24.5365], [93.8834, 24.5601], [93.9086, 24.5699], [93.9187, 24.5854], [93.9122, 24.6024], [93.9172, 24.6062], [93.9166, 24.6232], [93.9036, 24.6193], [93.8973, 24.6248], [93.9288, 24.6578], [93.9375, 24.6574], [93.9361, 24.669], [93.9195, 24.6696], [93.9182, 24.6774], [93.9081, 24.6812], [93.9069, 24.7019], [93.9268, 24.7069], [93.9442, 24.7203], [93.9363, 24.7456], [93.9389, 24.7666], [93.9247, 24.7605], [93.9227, 24.7843], [93.8935, 24.7594], [93.8666, 24.7612], [93.8709, 24.7532], [93.8594, 24.7322], [93.8609, 24.7173], [93.8796, 24.7114], [93.88, 24.6945], [93.8862, 24.6988], [93.8924, 24.6945], [93.8839, 24.6637], [93.8694, 24.6573], [93.8438, 24.6614], [93.8316, 24.6766], [93.8062, 24.6699], [93.8015, 24.6574], [93.8015, 24.6564]]]}}, {"type": "Feature", "properties": {"SUBDISTRICT": "Tamenglong", "STATE": "Manipur", "shapeID": "7132399B27490372166864", "source": "geoBoundaries gbOpen IND ADM3 (ODbL 1.0); source: Local Government Directory lgdirectory.gov.in via Pathways Data"}, "geometry": {"type": "Polygon", "coordinates": [[[93.3941, 24.9126], [93.4077, 24.8953], [93.3987, 24.884], [93.4, 24.873], [93.4107, 24.8622], [93.4083, 24.8516], [93.4008, 24.8479], [93.4063, 24.833], [93.4951, 24.8294], [93.5487, 24.8105], [93.5636, 24.8309], [93.561, 24.8793], [93.5731, 24.9036], [93.5913, 24.9222], [93.5784, 24.9679], [93.6026, 25.0135], [93.6405, 25.0215], [93.4908, 25.0813], [93.4776, 25.0382], [93.4609, 25.031], [93.4523, 24.9963], [93.4439, 24.9918], [93.4363, 24.972], [93.4188, 24.9556], [93.4122, 24.9354], [93.3944, 24.9154], [93.3941, 24.9126]]]}}, {"type": "Feature", "properties": {"SUBDISTRICT": "Tamenglong West", "STATE": "Manipur", "shapeID": "7132399B13835639055113", "source": "geoBoundaries gbOpen IND ADM3 (ODbL 1.0); source: Local Government Directory lgdirectory.gov.in via Pathways Data"}, "geometry": {"type": "Polygon", "coordinates": [[[93.1449, 24.693], [93.2171, 24.6933], [93.2352, 24.684], [93.246, 24.6659], [93.2595, 24.6632], [93.2661, 24.6711], [93.2945, 24.6796], [93.2954, 24.7014], [93.3141, 24.7006], [93.3197, 24.7148], [93.34, 24.7243], [93.3385, 24.7318], [93.3225, 24.7394], [93.3635, 24.7731], [93.3608, 24.8064], [93.3718, 24.814], [93.4095, 24.8159], [93.4147, 24.8237], [93.4013, 24.8402], [93.4015, 24.851], [93.4083, 24.8516], [93.4107, 24.8622], [93.4, 24.873], [93.4001, 24.8885], [93.4077, 24.8953], [93.395, 24.9077], [93.3952, 24.9188], [93.4058, 24.9258], [93.416, 24.9518], [93.4286, 24.9601], [93.4364, 24.9806], [93.4523, 24.9963], [93.4609, 25.031], [93.4723, 25.0318], [93.4801, 25.0431], [93.4786, 25.054], [93.491, 25.0703], [93.4826, 25.0927], [93.49, 25.104], [93.4873, 25.1217], [93.5163, 25.1356], [93.5236, 25.1537], [93.5604, 25.1651], [93.5723, 25.1611], [93.5872, 25.1658], [93.5892, 25.1745], [93.6108, 25.1934], [93.6119, 25.202], [93.5924, 25.1997], [93.5896, 25.2158], [93.5742, 25.2234], [93.5542, 25.2464], [93.5046, 25.2401], [93.5103, 25.2716], [93.4763, 25.2751], [93.4736, 25.3054], [93.4596, 25.2908], [93.426, 25.2772], [93.4203, 25.2624], [93.4032, 25.2593], [93.3527, 25.1781], [93.3469, 25.1602], [93.3487, 25.1217], [93.3353, 25.0921], [93.3231, 25.088], [93.3122, 25.0743], [93.3041, 25.0443], [93.2996, 25.0489], [93.2914, 25.0434], [93.2677, 25.0461], [93.2551, 25.0251], [93.2573, 25.0182], [93.2484, 25.0152], [93.2464, 25.0001], [93.2628, 25.0007], [93.2552, 24.9986], [93.251, 24.9778], [93.2524, 24.9691], [93.2627, 24.9628], [93.2618, 24.9478], [93.2487, 24.9515], [93.2535, 24.939], [93.2394, 24.9353], [93.2479, 24.9365], [93.2425, 24.9278], [93.2496, 24.9265], [93.2527, 24.9152], [93.2384, 24.9115], [93.2428, 24.9002], [93.2299, 24.8913], [93.2328, 24.8813], [93.2229, 24.8695], [93.2439, 24.8502], [93.2425, 24.8249], [93.2163, 24.7821], [93.178, 24.7739], [93.1495, 24.7091], [93.1449, 24.693]]]}}, {"type": "Feature", "properties": {"SUBDISTRICT": "Thanlon", "STATE": "Manipur", "shapeID": "7132399B94423397599898", "source": "geoBoundaries gbOpen IND ADM3 (ODbL 1.0); source: Local Government Directory lgdirectory.gov.in via Pathways Data"}, "geometry": {"type": "Polygon", "coordinates": [[[93.1552, 24.0811], [93.1685, 24.0716], [93.1684, 24.0515], [93.2153, 24.0465], [93.2252, 24.0829], [93.2466, 24.0817], [93.2622, 24.0691], [93.2918, 24.0865], [93.3005, 24.1047], [93.327, 24.1319], [93.3301, 24.161], [93.37, 24.2411], [93.388, 24.2608], [93.3985, 24.3162], [93.4272, 24.3728], [93.4205, 24.3842], [93.39, 24.3851], [93.3677, 24.3946], [93.3553, 24.4147], [93.3679, 24.43], [93.3666, 24.4451], [93.3905, 24.4696], [93.4025, 24.5058], [93.4129, 24.517], [93.4081, 24.5242], [93.3926, 24.5257], [93.3947, 24.569], [93.3813, 24.5673], [93.3632, 24.5772], [93.3312, 24.5641], [93.311, 24.5666], [93.2822, 24.5472], [93.2755, 24.5166], [93.2284, 24.5045], [93.2285, 24.4436], [93.2416, 24.3613], [93.263, 24.3074], [93.2312, 24.2271], [93.1603, 24.0901], [93.1552, 24.0811]]]}}, {"type": "Feature", "properties": {"SUBDISTRICT": "Singngat", "STATE": "Manipur", "shapeID": "7132399B78343505951625", "source": "geoBoundaries gbOpen IND ADM3 (ODbL 1.0); source: Local Government Directory lgdirectory.gov.in via Pathways Data"}, "geometry": {"type": "Polygon", "coordinates": [[[93.3814, 24.1084], [93.3836, 24.0847], [93.4129, 24.0692], [93.4289, 24.0306], [93.4491, 24.0088], [93.4666, 24.0], [93.4694, 23.9695], [93.5003, 23.9527], [93.5201, 23.9505], [93.5469, 23.9589], [93.5652, 23.9839], [93.5739, 23.9836], [93.5852, 23.9636], [93.6011, 23.9661], [93.6166, 24.0], [93.7501, 24.0], [93.7547, 24.0331], [93.7724, 24.0733], [93.772, 24.0904], [93.7823, 24.099], [93.7767, 24.1143], [93.7817, 24.1205], [93.78, 24.1359], [93.7925, 24.1478], [93.7691, 24.176], [93.7723, 24.1992], [93.7611, 24.215], [93.7151, 24.2323], [93.6583, 24.2697], [93.5891, 24.2612], [93.4838, 24.2672], [93.4128, 24.2051], [93.4063, 24.1694], [93.3815, 24.1105], [93.3814, 24.1084]]]}}, {"type": "Feature", "properties": {"SUBDISTRICT": "Bishnupur", "STATE": "Manipur", "shapeID": "7132399B49335899069862", "source": "geoBoundaries gbOpen IND ADM3 (ODbL 1.0); source: Local Government Directory lgdirectory.gov.in via Pathways Data"}, "geometry": {"type": "Polygon", "coordinates": [[[93.7294, 24.6004], [93.735, 24.5781], [93.7305, 24.5447], [93.7353, 24.5213], [93.7446, 24.5194], [93.7737, 24.5242], [93.8087, 24.5477], [93.8662, 24.5266], [93.8733, 24.562], [93.8698, 24.5701], [93.8804, 24.5954], [93.8596, 24.5788], [93.842, 24.5947], [93.8381, 24.6137], [93.8124, 24.6197], [93.8177, 24.6386], [93.8091, 24.656], [93.7975, 24.6556], [93.7986, 24.6496], [93.7892, 24.6458], [93.7792, 24.6506], [93.7803, 24.6582], [93.7671, 24.6612], [93.7648, 24.6385], [93.7473, 24.6397], [93.7542, 24.6314], [93.7429, 24.6276], [93.7294, 24.6021], [93.7294, 24.6004]]]}}, {"type": "Feature", "properties": {"SUBDISTRICT": "Chingai", "STATE": "Manipur", "shapeID": "7132399B82784065513812", "source": "geoBoundaries gbOpen IND ADM3 (ODbL 1.0); source: Local Government Directory lgdirectory.gov.in via Pathways Data"}, "geometry": {"type": "Polygon", "coordinates": [[[94.3185, 25.2423], [94.3435, 25.2332], [94.389, 25.173], [94.4171, 25.1644], [94.4531, 25.1665], [94.5083, 25.2027], [94.5805, 25.2074], [94.582, 25.2472], [94.603, 25.3033], [94.6179, 25.3228], [94.6312, 25.3873], [94.6695, 25.4241], [94.6791, 25.4526], [94.6644, 25.4489], [94.6314, 25.4592], [94.556, 25.5066], [94.5633, 25.5618], [94.5544, 25.5797], [94.5825, 25.6283], [94.5939, 25.6377], [94.5749, 25.6386], [94.5944, 25.6852], [94.5719, 25.6916], [94.5506, 25.6564], [94.5075, 25.6209], [94.4929, 25.5755], [94.4825, 25.5647], [94.4793, 25.5395], [94.4678, 25.5329], [94.4652, 25.5201], [94.4551, 25.5119], [94.4274, 25.4411], [94.4016, 25.4104], [94.4, 25.3576], [94.368, 25.3067], [94.3537, 25.2945], [94.3437, 25.2692], [94.3197, 25.2434], [94.3185, 25.2423]]]}}, {"type": "Feature", "properties": {"SUBDISTRICT": "Ukhrul", "STATE": "Manipur", "shapeID": "7132399B95520583078410", "source": "geoBoundaries gbOpen IND ADM3 (ODbL 1.0); source: Local Government Directory lgdirectory.gov.in via Pathways Data"}, "geometry": {"type": "Polygon", "coordinates": [[[94.1358, 25.0892], [94.1421, 25.053], [94.1586, 25.0411], [94.1659, 25.0244], [94.168, 24.9762], [94.176, 24.9533], [94.1689, 24.9265], [94.2555, 24.9456], [94.3306, 24.9908], [94.407, 24.9942], [94.5075, 25.0156], [94.5328, 25.0311], [94.5903, 25.0836], [94.615, 25.0932], [94.7332, 25.1036], [94.7403, 25.1132], [94.7335, 25.1293], [94.7078, 25.1453], [94.6815, 25.1506], [94.6674, 25.1599], [94.6087, 25.1707], [94.5805, 25.2074], [94.5083, 25.2027], [94.4531, 25.1665], [94.4056, 25.1662], [94.3795, 25.1813], [94.3435, 25.2332], [94.3185, 25.2423], [94.2866, 25.2193], [94.2509, 25.2123], [94.2344, 25.2015], [94.2255, 25.1764], [94.1954, 25.1575], [94.1787, 25.1294], [94.1623, 25.1238], [94.1589, 25.1119], [94.1489, 25.1118], [94.1359, 25.0907], [94.1358, 25.0892]]]}}, {"type": "Feature", "properties": {"SUBDISTRICT": "Kamjong", "STATE": "Manipur", "shapeID": "7132399B4757442739224", "source": "geoBoundaries gbOpen IND ADM3 (ODbL 1.0); source: Local Government Directory lgdirectory.gov.in via Pathways Data"}, "geometry": {"type": "Polygon", "coordinates": [[[94.397, 24.904], [94.4111, 24.8618], [94.4382, 24.827], [94.4506, 24.8212], [94.4612, 24.7891], [94.459, 24.7773], [94.4741, 24.75], [94.4692, 24.732], [94.4562, 24.7261], [94.4498, 24.6866], [94.4592, 24.6583], [94.4718, 24.6424], [94.4701, 24.6085], [94.4881, 24.5795], [94.5135, 24.6011], [94.537, 24.6374], [94.5459, 24.6975], [94.5519, 24.7055], [94.5943, 24.7033], [94.6029, 24.7084], [94.6241, 24.7522], [94.6237, 24.7825], [94.6513, 24.8481], [94.5709, 24.9024], [94.5338, 24.9425], [94.4636, 24.9641], [94.4115, 24.9096], [94.3997, 24.9139], [94.3972, 24.9075], [94.397, 24.904]]]}}, {"type": "Feature", "properties": {"SUBDISTRICT": "Kasom Khullen", "STATE": "Manipur", "shapeID": "7132399B73127519139207", "source": "geoBoundaries gbOpen IND ADM3 (ODbL 1.0); source: Local Government Directory lgdirectory.gov.in via Pathways Data"}, "geometry": {"type": "Polygon", "coordinates": [[[94.1728, 24.787], [94.1781, 24.7515], [94.2011, 24.7065], [94.219, 24.6176], [94.2259, 24.6242], [94.243, 24.6223], [94.2514, 24.6277], [94.2892, 24.6039], [94.3083, 24.6027], [94.3159, 24.5902], [94.3468, 24.5807], [94.3461, 24.5674], [94.3811, 24.5628], [94.3865, 24.5529], [94.3816, 24.5408], [94.3914, 24.526], [94.4284, 24.5046], [94.4505, 24.5569], [94.4881, 24.5795], [94.4701, 24.6085], [94.4718, 24.6424], [94.4515, 24.6792], [94.4363, 24.6819], [94.4193, 24.6637], [94.396, 24.6622], [94.3962, 24.683], [94.3541, 24.7054], [94.3552, 24.7234], [94.344, 24.7259], [94.3345, 24.7394], [94.3089, 24.7543], [94.289, 24.7928], [94.2686, 24.8037], [94.2218, 24.8064], [94.1734, 24.7901], [94.1728, 24.787]]]}}, {"type": "Feature", "properties": {"SUBDISTRICT": "Tengnoupal", "STATE": "Manipur", "shapeID": "7132399B28338186095792", "source": "geoBoundaries gbOpen IND ADM3 (ODbL 1.0); source: Local Government Directory lgdirectory.gov.in via Pathways Data"}, "geometry": {"type": "Polygon", "coordinates": [[[94.0581, 24.4417], [94.076, 24.4222], [94.1035, 24.4198], [94.1183, 24.3952], [94.1504, 24.3689], [94.1546, 24.3033], [94.1997, 24.2628], [94.2025, 24.2395], [94.1914, 24.197], [94.2136, 24.2094], [94.2219, 24.2344], [94.2289, 24.3119], [94.2616, 24.32], [94.2694, 24.3369], [94.2837, 24.3487], [94.296, 24.3866], [94.3087, 24.4033], [94.3796, 24.4177], [94.383, 24.44], [94.3945, 24.4418], [94.3974, 24.4708], [94.4284, 24.5046], [94.3914, 24.526], [94.3816, 24.5408], [94.3313, 24.4801], [94.2979, 24.4604], [94.2334, 24.452], [94.1715, 24.463], [94.1413, 24.4568], [94.117, 24.4673], [94.0909, 24.4613], [94.0597, 24.4427], [94.0581, 24.4417]]]}}, {"type": "Feature", "properties": {"SUBDISTRICT": "Purul", "STATE": "Manipur", "shapeID": "7132399B72315835180750", "source": "geoBoundaries gbOpen IND ADM3 (ODbL 1.0); source: Local Government Directory lgdirectory.gov.in via Pathways Data"}, "geometry": {"type": "MultiPolygon", "coordinates": [[[[94.3004, 25.3725], [94.3041, 25.3744], [94.3026, 25.3739], [94.3004, 25.3725]]], [[[94.1498, 25.3623], [94.1628, 25.292], [94.1552, 25.2741], [94.161, 25.2643], [94.277, 25.2541], [94.2717, 25.3233], [94.2785, 25.3434], [94.3004, 25.3725], [94.2791, 25.3678], [94.2536, 25.3765], [94.1753, 25.3742], [94.1653, 25.3768], [94.1634, 25.384], [94.1503, 25.3641], [94.1498, 25.3623]]]]}}, {"type": "Feature", "properties": {"SUBDISTRICT": "Nungba", "STATE": "Manipur", "shapeID": "7132399B87703908721191", "source": "geoBoundaries gbOpen IND ADM3 (ODbL 1.0); source: Local Government Directory lgdirectory.gov.in via Pathways Data"}, "geometry": {"type": "Polygon", "coordinates": [[[93.1864, 24.5183], [93.2054, 24.5207], [93.2207, 24.5032], [93.2493, 24.5125], [93.2667, 24.5114], [93.2774, 24.519], [93.2767, 24.537], [93.2836, 24.5492], [93.2961, 24.5518], [93.3089, 24.5658], [93.3312, 24.5641], [93.3632, 24.5772], [93.3813, 24.5673], [93.3947, 24.569], [93.4052, 24.5883], [93.4051, 24.6062], [93.4418, 24.6366], [93.4777, 24.6081], [93.5455, 24.5899], [93.5879, 24.5918], [93.6613, 24.624], [93.7111, 24.6342], [93.707, 24.668], [93.6791, 24.7591], [93.6806, 24.7945], [93.6409, 24.8035], [93.5749, 24.8422], [93.5597, 24.8296], [93.5526, 24.8123], [93.545, 24.8103], [93.4951, 24.8294], [93.4125, 24.8318], [93.4095, 24.8159], [93.3718, 24.814], [93.3608, 24.8064], [93.3635, 24.7731], [93.3225, 24.7394], [93.3385, 24.7318], [93.34, 24.7243], [93.3197, 24.7148], [93.3141, 24.7006], [93.294, 24.7002], [93.2987, 24.6846], [93.2912, 24.6765], [93.2519, 24.663], [93.227, 24.6868], [93.2248, 24.6652], [93.2327, 24.6621], [93.2335, 24.6473], [93.2233, 24.646], [93.2227, 24.6408], [93.2352, 24.6236], [93.2243, 24.6016], [93.2327, 24.581], [93.2143, 24.566], [93.2077, 24.5369], [93.1868, 24.5206], [93.1864, 24.5183]]]}}, {"type": "Feature", "properties": {"SUBDISTRICT": "Henglep", "STATE": "Manipur", "shapeID": "7132399B40542233260701", "source": "geoBoundaries gbOpen IND ADM3 (ODbL 1.0); source: Local Government Directory lgdirectory.gov.in via Pathways Data"}, "geometry": {"type": "Polygon", "coordinates": [[[93.3553, 24.4147], [93.3677, 24.3946], [93.3847, 24.3863], [93.4781, 24.3866], [93.4985, 24.3799], [93.505, 24.3512], [93.4973, 24.2822], [93.4838, 24.2672], [93.4941, 24.2649], [93.6119, 24.2636], [93.6047, 24.344], [93.633, 24.3925], [93.6191, 24.4074], [93.6278, 24.434], [93.6075, 24.4489], [93.606, 24.4673], [93.6186, 24.4813], [93.622, 24.5011], [93.5997, 24.5311], [93.6084, 24.5523], [93.5895, 24.5922], [93.5455, 24.5899], [93.5089, 24.5964], [93.4722, 24.611], [93.4437, 24.637], [93.4051, 24.6062], [93.4056, 24.5897], [93.3937, 24.5744], [93.3903, 24.5415], [93.3929, 24.5251], [93.4081, 24.5242], [93.4129, 24.517], [93.4025, 24.5058], [93.3905, 24.4696], [93.3666, 24.4451], [93.3679, 24.43], [93.3553, 24.416], [93.3553, 24.4147]]]}}, {"type": "Feature", "properties": {"SUBDISTRICT": "Khengjoy", "STATE": "Manipur", "shapeID": "7132399B53894387814986", "source": "geoBoundaries gbOpen IND ADM3 (ODbL 1.0); source: Local Government Directory lgdirectory.gov.in via Pathways Data"}, "geometry": {"type": "Polygon", "coordinates": [[[93.9263, 24.0834], [93.9647, 24.0663], [93.9716, 24.0497], [93.9722, 24.0283], [93.9477, 23.9664], [93.9488, 23.9436], [93.9636, 23.929], [94.018, 23.9247], [94.0421, 23.9083], [94.0548, 23.8896], [94.0989, 23.8864], [94.1132, 23.8551], [94.1296, 23.8372], [94.1607, 23.8555], [94.1684, 23.881], [94.1677, 23.9341], [94.1916, 23.9406], [94.1969, 23.9693], [94.2293, 24.0214], [94.2289, 24.0506], [94.2518, 24.0683], [94.2541, 24.114], [94.1984, 24.1293], [94.1418, 24.166], [94.0927, 24.1863], [94.0871, 24.1355], [94.0733, 24.1229], [94.047, 24.1194], [93.9926, 24.1243], [93.9491, 24.1067], [93.9334, 24.0942], [93.9263, 24.0834]]]}}, {"type": "Feature", "properties": {"SUBDISTRICT": "Sangaikot", "STATE": "Manipur", "shapeID": "7132399B54249129236749", "source": "geoBoundaries gbOpen IND ADM3 (ODbL 1.0); source: Local Government Directory lgdirectory.gov.in via Pathways Data"}, "geometry": {"type": "Polygon", "coordinates": [[[93.7411, 24.2673], [93.7506, 24.2207], [93.7723, 24.1992], [93.7691, 24.176], [93.7925, 24.1478], [93.813, 24.1666], [93.8171, 24.1825], [93.833, 24.1858], [93.8437, 24.2059], [93.8757, 24.2269], [93.8755, 24.2338], [93.8609, 24.2411], [93.8649, 24.2641], [93.8756, 24.2785], [93.8744, 24.293], [93.8826, 24.2991], [93.8822, 24.3175], [93.8747, 24.33], [93.8373, 24.309], [93.7766, 24.3357], [93.7821, 24.3216], [93.7677, 24.3116], [93.7677, 24.2945], [93.7448, 24.2766], [93.7411, 24.2673]]]}}, {"type": "Feature", "properties": {"SUBDISTRICT": "Saikot", "STATE": "Manipur", "shapeID": "7132399B1519019131956", "source": "geoBoundaries gbOpen IND ADM3 (ODbL 1.0); source: Local Government Directory lgdirectory.gov.in via Pathways Data"}, "geometry": {"type": "Polygon", "coordinates": [[[93.6784, 24.258], [93.7151, 24.2323], [93.7506, 24.2207], [93.7411, 24.2673], [93.7677, 24.2945], [93.7677, 24.3116], [93.7821, 24.3216], [93.7752, 24.3328], [93.7833, 24.3352], [93.7812, 24.347], [93.7492, 24.3648], [93.7201, 24.3501], [93.7276, 24.3407], [93.7265, 24.3252], [93.7139, 24.315], [93.7024, 24.2775], [93.6888, 24.2652], [93.6784, 24.258]]]}}, {"type": "Feature", "properties": {"SUBDISTRICT": "Tuibong", "STATE": "Manipur", "shapeID": "7132399B46776941140110", "source": "geoBoundaries gbOpen IND ADM3 (ODbL 1.0); source: Local Government Directory lgdirectory.gov.in via Pathways Data"}, "geometry": {"type": "Polygon", "coordinates": [[[93.6047, 24.3413], [93.6137, 24.2639], [93.6306, 24.2693], [93.6373, 24.2831], [93.654, 24.2937], [93.6609, 24.311], [93.6681, 24.3137], [93.6761, 24.3062], [93.6878, 24.3254], [93.7112, 24.3352], [93.7106, 24.3629], [93.7269, 24.3694], [93.712, 24.3779], [93.653, 24.3767], [93.633, 24.3925], [93.6047, 24.344], [93.6047, 24.3413]]]}}, {"type": "Feature", "properties": {"SUBDISTRICT": "Samulamlan", "STATE": "Manipur", "shapeID": "7132399B51738606879316", "source": "geoBoundaries gbOpen IND ADM3 (ODbL 1.0); source: Local Government Directory lgdirectory.gov.in via Pathways Data"}, "geometry": {"type": "Polygon", "coordinates": [[[93.7185, 24.4184], [93.7409, 24.3824], [93.744, 24.3634], [93.7812, 24.347], [93.7833, 24.3352], [93.7952, 24.3237], [93.8373, 24.309], [93.86, 24.3241], [93.852, 24.336], [93.8497, 24.3796], [93.8256, 24.3686], [93.8012, 24.3984], [93.8216, 24.3961], [93.8248, 24.4143], [93.8094, 24.4087], [93.8062, 24.4214], [93.798, 24.4245], [93.7862, 24.4146], [93.7758, 24.4183], [93.7524, 24.4068], [93.7346, 24.4285], [93.7209, 24.4241], [93.7185, 24.4184]]]}}, {"type": "Feature", "properties": {"SUBDISTRICT": "Kangvai", "STATE": "Manipur", "shapeID": "7132399B14139725898605", "source": "geoBoundaries gbOpen IND ADM3 (ODbL 1.0); source: Local Government Directory lgdirectory.gov.in via Pathways Data"}, "geometry": {"type": "Polygon", "coordinates": [[[93.5895, 24.5922], [93.6084, 24.5523], [93.5997, 24.5311], [93.622, 24.5011], [93.6186, 24.4813], [93.606, 24.4673], [93.6075, 24.4489], [93.6278, 24.434], [93.6191, 24.4074], [93.653, 24.3767], [93.7042, 24.3748], [93.7014, 24.3804], [93.6906, 24.3802], [93.6763, 24.402], [93.6871, 24.4071], [93.7246, 24.4024], [93.7185, 24.4184], [93.7346, 24.4285], [93.7204, 24.4372], [93.7218, 24.4605], [93.7128, 24.465], [93.731, 24.4709], [93.736, 24.5271], [93.73, 24.5474], [93.735, 24.5781], [93.7294, 24.6021], [93.7379, 24.6208], [93.7085, 24.621], [93.7111, 24.6342], [93.6958, 24.6328], [93.6613, 24.624], [93.5912, 24.5927], [93.5895, 24.5922]]]}}, {"type": "Feature", "properties": {"SUBDISTRICT": "Mualnuam", "STATE": "Manipur", "shapeID": "7132399B49846761574186", "source": "geoBoundaries gbOpen IND ADM3 (ODbL 1.0); source: Local Government Directory lgdirectory.gov.in via Pathways Data"}, "geometry": {"type": "Polygon", "coordinates": [[[93.2509, 24.0301], [93.2538, 24.0201], [93.2724, 24.0302], [93.2867, 24.0478], [93.3314, 24.0497], [93.3369, 24.0642], [93.3311, 24.0798], [93.3366, 24.0863], [93.3836, 24.0847], [93.3815, 24.1105], [93.4063, 24.1694], [93.4128, 24.2051], [93.4953, 24.2772], [93.505, 24.3512], [93.4997, 24.3784], [93.4781, 24.3866], [93.4205, 24.3842], [93.4272, 24.3728], [93.3985, 24.3162], [93.388, 24.2608], [93.37, 24.2411], [93.3391, 24.1823], [93.327, 24.1319], [93.3005, 24.1047], [93.2918, 24.0865], [93.2622, 24.0691], [93.2651, 24.0565], [93.2608, 24.054], [93.2509, 24.0301]]]}}, {"type": "Feature", "properties": {"SUBDISTRICT": "Borobekra", "STATE": "Manipur", "shapeID": "7132399B1361568750919", "source": "geoBoundaries gbOpen IND ADM3 (ODbL 1.0); source: Local Government Directory lgdirectory.gov.in via Pathways Data"}, "geometry": {"type": "Polygon", "coordinates": [[[93.0747, 24.5967], [93.0791, 24.5892], [93.0979, 24.588], [93.1062, 24.5802], [93.1165, 24.5842], [93.1512, 24.5745], [93.1758, 24.5996], [93.1736, 24.6068], [93.1487, 24.6158], [93.1394, 24.6295], [93.1418, 24.665], [93.1516, 24.6926], [93.1449, 24.693], [93.1495, 24.7091], [93.1045, 24.7348], [93.0881, 24.7059], [93.0781, 24.7109], [93.0752, 24.7071], [93.0925, 24.6845], [93.0911, 24.6745], [93.104, 24.6758], [93.0956, 24.6494], [93.0842, 24.6444], [93.0887, 24.6243], [93.0786, 24.623], [93.0787, 24.618], [93.086, 24.608], [93.0761, 24.6005], [93.0747, 24.5967]]]}}, {"type": "Feature", "properties": {"SUBDISTRICT": "Waikhong", "STATE": "Manipur", "shapeID": "7132399B28602423500830", "source": "geoBoundaries gbOpen IND ADM3 (ODbL 1.0); source: Local Government Directory lgdirectory.gov.in via Pathways Data"}, "geometry": {"type": "Polygon", "coordinates": [[[93.8514, 24.4123], [93.8694, 24.336], [93.8822, 24.3175], [93.8795, 24.2498], [93.8945, 24.2429], [93.8907, 24.2536], [93.8989, 24.2608], [93.9107, 24.2547], [93.9157, 24.2411], [93.9221, 24.2424], [93.921, 24.2545], [93.898, 24.2801], [93.897, 24.302], [93.9121, 24.3094], [93.9036, 24.3237], [93.9115, 24.3332], [93.9026, 24.3522], [93.9149, 24.3799], [93.9241, 24.3812], [93.9312, 24.4063], [93.9452, 24.4037], [93.9436, 24.4163], [93.9611, 24.4186], [93.9518, 24.4298], [93.9661, 24.4386], [93.9428, 24.4551], [93.9116, 24.4636], [93.9054, 24.4439], [93.9009, 24.4455], [93.9003, 24.4625], [93.8951, 24.4658], [93.8944, 24.4549], [93.8918, 24.4612], [93.87, 24.4582], [93.8517, 24.4132], [93.8514, 24.4123]]]}}, {"type": "Feature", "properties": {"SUBDISTRICT": "Sahamphung", "STATE": "Manipur", "shapeID": "7132399B51774811565673", "source": "geoBoundaries gbOpen IND ADM3 (ODbL 1.0); source: Local Government Directory lgdirectory.gov.in via Pathways Data"}, "geometry": {"type": "Polygon", "coordinates": [[[94.3945, 24.9425], [94.3999, 24.9324], [94.3959, 24.9201], [94.4115, 24.9096], [94.4636, 24.9641], [94.5338, 24.9425], [94.5709, 24.9024], [94.6513, 24.8481], [94.6729, 24.8684], [94.702, 24.9228], [94.6919, 24.9574], [94.6949, 24.9689], [94.7323, 25.0076], [94.7432, 25.0436], [94.7399, 25.109], [94.7075, 25.0999], [94.615, 25.0932], [94.5812, 25.077], [94.5182, 25.02], [94.4035, 24.9939], [94.3946, 24.9445], [94.3945, 24.9425]]]}}, {"type": "Feature", "properties": {"SUBDISTRICT": "Bungte Chiru", "STATE": "Manipur", "shapeID": "7132399B60463291515117", "source": "geoBoundaries gbOpen IND ADM3 (ODbL 1.0); source: Local Government Directory lgdirectory.gov.in via Pathways Data"}, "geometry": {"type": "Polygon", "coordinates": [[[93.7066, 24.6444], [93.7085, 24.621], [93.7404, 24.619], [93.7429, 24.6276], [93.7542, 24.6314], [93.7473, 24.6397], [93.7652, 24.6393], [93.7635, 24.6643], [93.7728, 24.6939], [93.7599, 24.6892], [93.7511, 24.6769], [93.7321, 24.6829], [93.7265, 24.6751], [93.7081, 24.67], [93.7071, 24.6544], [93.7066, 24.6444]]]}}, {"type": "Feature", "properties": {"SUBDISTRICT": "Kangchup Geljang", "STATE": "Manipur", "shapeID": "7132399B88490942146613", "source": "geoBoundaries gbOpen IND ADM3 (ODbL 1.0); source: Local Government Directory lgdirectory.gov.in via Pathways Data"}, "geometry": {"type": "Polygon", "coordinates": [[[93.6769, 24.7829], [93.6861, 24.7249], [93.707, 24.6679], [93.7321, 24.6829], [93.7511, 24.6769], [93.7599, 24.6892], [93.7728, 24.6939], [93.7687, 24.7199], [93.7601, 24.7216], [93.757, 24.7301], [93.7747, 24.7272], [93.7866, 24.7574], [93.7992, 24.7637], [93.7869, 24.7964], [93.7877, 24.8112], [93.7898, 24.8235], [93.8044, 24.8303], [93.8061, 24.8438], [93.7804, 24.8446], [93.7551, 24.8289], [93.7395, 24.8315], [93.693, 24.806], [93.6777, 24.7871], [93.6769, 24.7829]]]}}, {"type": "Feature", "properties": {"SUBDISTRICT": "Champhai", "STATE": "Manipur", "shapeID": "7132399B3879085981588", "source": "geoBoundaries gbOpen IND ADM3 (ODbL 1.0); source: Local Government Directory lgdirectory.gov.in via Pathways Data"}, "geometry": {"type": "Polygon", "coordinates": [[[93.8049, 25.0754], [93.852, 25.0699], [93.8937, 25.0798], [93.9452, 25.0707], [93.9667, 25.0774], [93.9886, 25.1224], [93.991, 25.1585], [94.0266, 25.2234], [94.0273, 25.2413], [94.0199, 25.2535], [93.9695, 25.2802], [93.938, 25.2847], [93.9443, 25.2549], [93.9275, 25.2231], [93.9328, 25.1868], [93.9246, 25.1632], [93.9093, 25.1627], [93.8906, 25.1365], [93.8559, 25.1111], [93.8064, 25.1007], [93.8049, 25.0756], [93.8049, 25.0754]]]}}, {"type": "Feature", "properties": {"SUBDISTRICT": "T Vaichong", "STATE": "Manipur", "shapeID": "7132399B96622241738402", "source": "geoBoundaries gbOpen IND ADM3 (ODbL 1.0); source: Local Government Directory lgdirectory.gov.in via Pathways Data"}, "geometry": {"type": "Polygon", "coordinates": [[[93.7807, 25.1722], [93.8062, 25.1231], [93.8064, 25.1007], [93.8559, 25.1111], [93.8906, 25.1365], [93.9093, 25.1627], [93.9246, 25.1632], [93.9328, 25.1868], [93.9275, 25.2231], [93.9443, 25.2549], [93.9358, 25.2847], [93.9089, 25.2868], [93.8884, 25.2624], [93.8658, 25.2587], [93.8507, 25.2415], [93.8302, 25.2342], [93.8299, 25.2253], [93.8032, 25.2067], [93.7808, 25.1746], [93.7807, 25.1722]]]}}, {"type": "Feature", "properties": {"SUBDISTRICT": "Saikul", "STATE": "Manipur", "shapeID": "7132399B16454599499490", "source": "geoBoundaries gbOpen IND ADM3 (ODbL 1.0); source: Local Government Directory lgdirectory.gov.in via Pathways Data"}, "geometry": {"type": "Polygon", "coordinates": [[[93.8855, 24.946], [93.8902, 24.9461], [93.8875, 24.9356], [93.8985, 24.935], [93.8952, 24.9281], [93.9077, 24.9251], [93.9094, 24.9437], [93.9267, 24.9637], [93.9333, 24.9601], [93.9219, 24.9387], [93.9268, 24.9159], [93.9232, 24.8902], [93.9366, 24.89], [93.9542, 24.876], [93.9533, 24.8571], [93.9629, 24.8545], [93.9705, 24.8375], [93.9762, 24.849], [93.9712, 24.865], [93.9781, 24.8742], [93.9636, 24.8785], [93.962, 24.8953], [93.9548, 24.8995], [93.9675, 24.9067], [93.9608, 24.9165], [93.9664, 24.9215], [93.9792, 24.9173], [93.9847, 24.9028], [93.9927, 24.9026], [93.9917, 24.9201], [93.9762, 24.9337], [93.9786, 24.9463], [94.0168, 24.9133], [94.0011, 24.8898], [93.9987, 24.8721], [94.0116, 24.8692], [94.01, 24.882], [94.0162, 24.887], [94.0263, 24.8775], [94.0345, 24.8802], [94.0369, 24.9091], [94.0307, 24.9226], [94.0165, 24.9284], [94.0249, 24.9713], [93.9962, 24.9727], [94.022, 24.9907], [94.0196, 25.0145], [94.0097, 25.0172], [93.995, 25.0056], [93.9735, 25.0016], [93.9576, 24.9837], [93.9534, 24.9881], [93.9641, 25.0112], [93.9907, 25.0141], [94.0213, 25.0336], [94.0211, 25.0615], [94.0403, 25.0428], [94.0597, 25.0551], [94.0745, 25.0548], [94.0944, 25.1376], [94.0832, 25.1411], [94.089, 25.1596], [94.0428, 25.1761], [94.0015, 25.1785], [93.991, 25.1585], [93.9925, 25.1375], [93.9851, 25.1117], [93.9667, 25.0774], [93.9781, 25.0721], [93.9818, 25.0795], [93.9955, 25.0743], [94.0122, 25.0844], [94.0167, 25.0787], [94.0037, 25.0686], [93.9941, 25.0497], [93.9202, 25.013], [93.9137, 24.9945], [93.9204, 24.9959], [93.923, 24.9885], [93.9164, 24.987], [93.922, 24.977], [93.9073, 24.9845], [93.9008, 24.9726], [93.9172, 24.9674], [93.8866, 24.947], [93.8855, 24.946]]]}}, {"type": "Feature", "properties": {"SUBDISTRICT": "Lhungtin", "STATE": "Manipur", "shapeID": "7132399B58809350347603", "source": "geoBoundaries gbOpen IND ADM3 (ODbL 1.0); source: Local Government Directory lgdirectory.gov.in via Pathways Data"}, "geometry": {"type": "Polygon", "coordinates": [[[94.0324, 25.0163], [94.0432, 25.0005], [94.0576, 25.0058], [94.0672, 24.9981], [94.0632, 24.9908], [94.0409, 24.9882], [94.0564, 24.9754], [94.0481, 24.9741], [94.0399, 24.9534], [94.0501, 24.9351], [94.0634, 24.9446], [94.1044, 24.9562], [94.1036, 24.9497], [94.0632, 24.9217], [94.0726, 24.9109], [94.0819, 24.9159], [94.0886, 24.9066], [94.0832, 24.8959], [94.0677, 24.8968], [94.0623, 24.8734], [94.0677, 24.8654], [94.0822, 24.8656], [94.1052, 24.8835], [94.1151, 24.9063], [94.1227, 24.9006], [94.1484, 24.9468], [94.1428, 24.9106], [94.1671, 24.899], [94.1665, 24.9202], [94.176, 24.9533], [94.168, 24.9762], [94.1659, 25.0244], [94.1586, 25.0411], [94.1421, 25.053], [94.1359, 25.0907], [94.1489, 25.1118], [94.1589, 25.1119], [94.1623, 25.1238], [94.1787, 25.1294], [94.1954, 25.1575], [94.2151, 25.1733], [94.1944, 25.1755], [94.089, 25.1596], [94.0832, 25.1411], [94.0944, 25.1376], [94.0745, 25.0548], [94.1049, 25.0669], [94.0958, 25.0551], [94.101, 25.0477], [94.0482, 25.0346], [94.0326, 25.0177], [94.0324, 25.0163]]]}}, {"type": "Feature", "properties": {"SUBDISTRICT": "Longmai", "STATE": "Manipur", "shapeID": "7132399B45581084631453", "source": "geoBoundaries gbOpen IND ADM3 (ODbL 1.0); source: Local Government Directory lgdirectory.gov.in via Pathways Data"}, "geometry": {"type": "MultiPolygon", "coordinates": [[[[93.7071, 24.6607], [93.7071, 24.6544], [93.7071, 24.6607], [93.7071, 24.6607]]], [[[93.6996, 24.6932], [93.7006, 24.6896], [93.7, 24.6919], [93.6996, 24.6932]]]]}}, {"type": "Feature", "properties": {"SUBDISTRICT": "Haochong", "STATE": "Manipur", "shapeID": "7132399B58740844888644", "source": "geoBoundaries gbOpen IND ADM3 (ODbL 1.0); source: Local Government Directory lgdirectory.gov.in via Pathways Data"}, "geometry": {"type": "Polygon", "coordinates": [[[93.561, 24.8793], [93.5636, 24.8309], [93.5704, 24.8417], [93.5851, 24.8396], [93.6128, 24.8186], [93.6609, 24.7975], [93.6806, 24.7945], [93.7029, 24.8126], [93.7354, 24.8274], [93.7432, 24.8382], [93.7473, 24.8732], [93.7254, 24.9091], [93.7321, 24.9261], [93.7137, 24.9356], [93.7019, 24.9525], [93.7219, 24.9716], [93.7388, 25.0074], [93.7344, 25.0254], [93.7192, 25.0379], [93.6944, 25.0462], [93.6661, 25.0468], [93.6441, 25.0227], [93.6026, 25.0135], [93.5784, 24.9679], [93.5913, 24.9222], [93.5731, 24.9036], [93.561, 24.8793]]]}}, {"type": "Feature", "properties": {"SUBDISTRICT": "Vangai Range", "STATE": "Manipur", "shapeID": "7132399B38654332313205", "source": "geoBoundaries gbOpen IND ADM3 (ODbL 1.0); source: Local Government Directory lgdirectory.gov.in via Pathways Data"}, "geometry": {"type": "Polygon", "coordinates": [[[92.9996, 24.4001], [93.0234, 24.3873], [93.0162, 24.3768], [93.0212, 24.371], [93.0206, 24.3436], [93.0424, 24.3402], [93.0343, 24.3152], [93.0101, 24.2849], [93.0072, 24.2773], [93.0129, 24.2685], [93.0927, 24.2917], [93.1171, 24.3259], [93.1476, 24.371], [93.1875, 24.4676], [93.209, 24.4901], [93.228, 24.4959], [93.2284, 24.5045], [93.2188, 24.5037], [93.2068, 24.5201], [93.1864, 24.5169], [93.2131, 24.5446], [93.2151, 24.5672], [93.2283, 24.5724], [93.2327, 24.581], [93.2243, 24.6016], [93.2352, 24.6236], [93.2227, 24.6408], [93.2233, 24.646], [93.2335, 24.6473], [93.2327, 24.6621], [93.2248, 24.6652], [93.2245, 24.6887], [93.2095, 24.6946], [93.1516, 24.6926], [93.143, 24.6709], [93.1389, 24.6319], [93.1487, 24.6158], [93.1753, 24.605], [93.1707, 24.5898], [93.1512, 24.5745], [93.1165, 24.5842], [93.0965, 24.5792], [93.0864, 24.5679], [93.0604, 24.5716], [93.0719, 24.5578], [93.0648, 24.544], [93.0604, 24.5515], [93.0519, 24.5415], [93.0477, 24.5277], [93.052, 24.5164], [93.0406, 24.5114], [93.0435, 24.5026], [93.035, 24.4937], [93.0477, 24.4722], [93.0474, 24.4607], [93.0371, 24.4579], [93.0313, 24.4257], [93.0383, 24.4079], [93.0151, 24.3994], [93.0056, 24.4088], [92.9996, 24.4001]]]}}, {"type": "Feature", "properties": {"SUBDISTRICT": "Willong", "STATE": "Manipur", "shapeID": "7132399B27124384279940", "source": "geoBoundaries gbOpen IND ADM3 (ODbL 1.0); source: Local Government Directory lgdirectory.gov.in via Pathways Data"}, "geometry": {"type": "Polygon", "coordinates": [[[93.7638, 25.5111], [93.7689, 25.4924], [93.788, 25.502], [93.7967, 25.4999], [93.8133, 25.4802], [93.8106, 25.4698], [93.8458, 25.4503], [93.8894, 25.4132], [93.9376, 25.3879], [93.9752, 25.3807], [93.9893, 25.3689], [93.9986, 25.3954], [93.9908, 25.4167], [93.9675, 25.4319], [93.9703, 25.463], [93.9358, 25.5597], [93.8914, 25.5638], [93.8617, 25.553], [93.836, 25.5585], [93.8192, 25.5399], [93.7702, 25.5359], [93.7688, 25.5133], [93.7638, 25.5111]]]}}, {"type": "Feature", "properties": {"SUBDISTRICT": "Tadubi", "STATE": "Manipur", "shapeID": "7132399B44571536428857", "source": "geoBoundaries gbOpen IND ADM3 (ODbL 1.0); source: Local Government Directory lgdirectory.gov.in via Pathways Data"}, "geometry": {"type": "Polygon", "coordinates": [[[93.9358, 25.5597], [93.9703, 25.463], [93.9675, 25.4319], [93.9908, 25.4167], [93.9986, 25.3954], [93.9893, 25.3689], [93.998, 25.3599], [94.0011, 25.3415], [93.9791, 25.279], [93.9916, 25.2656], [94.0199, 25.2535], [94.0278, 25.2379], [94.0231, 25.2115], [94.0015, 25.1785], [94.0428, 25.1761], [94.0905, 25.1589], [94.1944, 25.1755], [94.2206, 25.1737], [94.2311, 25.1838], [94.2344, 25.2015], [94.2509, 25.2123], [94.2866, 25.2193], [94.3274, 25.2514], [94.1709, 25.26], [94.1566, 25.2691], [94.1628, 25.292], [94.1507, 25.3431], [94.1511, 25.3681], [94.1927, 25.4279], [94.1557, 25.4358], [94.1411, 25.4499], [94.1337, 25.4848], [94.1448, 25.5231], [94.1378, 25.5185], [94.0913, 25.5276], [94.0954, 25.5366], [94.0852, 25.5547], [94.0687, 25.554], [94.0534, 25.5718], [94.0342, 25.5766], [94.0249, 25.5885], [94.0141, 25.5913], [94.007, 25.5861], [94.0116, 25.5704], [94.0068, 25.565], [93.9798, 25.5664], [93.9646, 25.5518], [93.9429, 25.5587], [93.9358, 25.5597]]]}}, {"type": "Feature", "properties": {"SUBDISTRICT": "Song Song", "STATE": "Manipur", "shapeID": "7132399B70266115999716", "source": "geoBoundaries gbOpen IND ADM3 (ODbL 1.0); source: Local Government Directory lgdirectory.gov.in via Pathways Data"}, "geometry": {"type": "Polygon", "coordinates": [[[94.1337, 25.4848], [94.1483, 25.4408], [94.1927, 25.4279], [94.1997, 25.4363], [94.1963, 25.4549], [94.2119, 25.5028], [94.1898, 25.5255], [94.194, 25.5471], [94.167, 25.5418], [94.1593, 25.55], [94.152, 25.5426], [94.1371, 25.4945], [94.1337, 25.4848]]]}}, {"type": "Feature", "properties": {"SUBDISTRICT": "Chilivai Phaibung", "STATE": "Manipur", "shapeID": "7132399B90211391378374", "source": "geoBoundaries gbOpen IND ADM3 (ODbL 1.0); source: Local Government Directory lgdirectory.gov.in via Pathways Data"}, "geometry": {"type": "Polygon", "coordinates": [[[94.2713, 25.313], [94.277, 25.2541], [94.3274, 25.2514], [94.4, 25.3576], [94.4005, 25.407], [94.4206, 25.438], [94.3546, 25.4294], [94.3282, 25.4161], [94.3168, 25.3844], [94.2785, 25.3434], [94.2717, 25.3233], [94.2713, 25.313]]]}}, {"type": "Feature", "properties": {"SUBDISTRICT": "Moreh", "STATE": "Manipur", "shapeID": "7132399B95923158827621", "source": "geoBoundaries gbOpen IND ADM3 (ODbL 1.0); source: Local Government Directory lgdirectory.gov.in via Pathways Data"}, "geometry": {"type": "Polygon", "coordinates": [[[94.1914, 24.197], [94.2067, 24.1504], [94.2077, 24.1342], [94.2023, 24.1277], [94.2541, 24.114], [94.2558, 24.1525], [94.2767, 24.1702], [94.2885, 24.2168], [94.3118, 24.2563], [94.3222, 24.3189], [94.3748, 24.3705], [94.3602, 24.3879], [94.3619, 24.3957], [94.39, 24.4058], [94.3937, 24.4207], [94.3945, 24.4418], [94.383, 24.44], [94.3749, 24.4136], [94.3087, 24.4033], [94.296, 24.3866], [94.2837, 24.3487], [94.2694, 24.3369], [94.2616, 24.32], [94.2289, 24.3119], [94.2219, 24.2344], [94.2136, 24.2094], [94.1914, 24.197]]]}}, {"type": "Feature", "properties": {"SUBDISTRICT": "Jessami", "STATE": "Manipur", "shapeID": "7132399B28722421626299", "source": "geoBoundaries gbOpen IND ADM3 (ODbL 1.0); source: Local Government Directory lgdirectory.gov.in via Pathways Data"}, "geometry": {"type": "Polygon", "coordinates": [[[94.4772, 25.5374], [94.4784, 25.5387], [94.4793, 25.5395], [94.4791, 25.5407], [94.4784, 25.5417], [94.4772, 25.5374]]]}}, {"type": "Feature", "properties": {"SUBDISTRICT": "Lm", "STATE": "Manipur", "shapeID": "7132399B97254734508703", "source": "geoBoundaries gbOpen IND ADM3 (ODbL 1.0); source: Local Government Directory lgdirectory.gov.in via Pathways Data"}, "geometry": {"type": "MultiPolygon", "coordinates": [[[[94.1886, 25.1434], [94.1912, 25.1466], [94.1893, 25.1443], [94.1886, 25.1434]]], [[[94.1875, 25.1411], [94.1886, 25.1434], [94.1881, 25.1425], [94.1875, 25.1411]]]]}}]}