{"type": "FeatureCollection", "features": [{"type": "Feature", "properties": {"SUBDISTRICT": "Khliehriat", "STATE": "Meghalaya", "shapeID": "7132399B13683287611417", "source": "geoBoundaries gbOpen IND ADM3 (ODbL 1.0); source: Local Government Directory lgdirectory.gov.in via Pathways Data"}, "geometry": {"type": "Polygon", "coordinates": [[[92.1683, 25.347], [92.1855, 25.314], [92.1841, 25.3034], [92.194, 25.3], [92.1968, 25.2831], [92.1909, 25.2732], [92.1985, 25.2629], [92.2005, 25.2337], [92.2193, 25.2295], [92.2339, 25.198], [92.2185, 25.1626], [92.2023, 25.1621], [92.2101, 25.1524], [92.201, 25.1462], [92.2045, 25.1372], [92.19, 25.1322], [92.2104, 25.1225], [92.2188, 25.1007], [92.2702, 25.0778], [92.3034, 25.0706], [92.3344, 25.0783], [92.3409, 25.0729], [92.3343, 25.0519], [92.3384, 25.0474], [92.3727, 25.0446], [92.3994, 25.0334], [92.4131, 25.0205], [92.447, 25.0399], [92.3942, 25.091], [92.398, 25.1076], [92.4461, 25.1591], [92.4523, 25.1734], [92.448, 25.198], [92.4327, 25.2176], [92.4346, 25.2396], [92.4491, 25.2702], [92.4465, 25.2919], [92.4444, 25.2992], [92.4194, 25.3108], [92.4113, 25.3331], [92.4179, 25.3451], [92.4466, 25.3449], [92.4551, 25.3554], [92.4555, 25.3754], [92.4342, 25.4137], [92.4367, 25.418], [92.4605, 25.4162], [92.4654, 25.4481], [92.481, 25.4675], [92.4604, 25.4723], [92.4451, 25.4694], [92.4333, 25.4578], [92.3718, 25.4504], [92.3278, 25.4597], [92.3139, 25.4572], [92.3119, 25.4442], [92.2664, 25.4264], [92.2656, 25.4109], [92.2478, 25.3778], [92.2295, 25.3663], [92.2039, 25.3618], [92.1974, 25.3704], [92.1689, 25.3486], [92.1683, 25.347]]]}}, {"type": "Feature", "properties": {"SUBDISTRICT": "Thadlaskein", "STATE": "Meghalaya", "shapeID": "7132399B15913984642031", "source": "geoBoundaries gbOpen IND ADM3 (ODbL 1.0); source: Local Government Directory lgdirectory.gov.in via Pathways Data"}, "geometry": {"type": "Polygon", "coordinates": [[[92.0972, 25.4684], [92.1089, 25.4592], [92.1102, 25.431], [92.1164, 25.423], [92.1053, 25.4073], [92.1802, 25.3881], [92.2039, 25.3618], [92.2295, 25.3663], [92.2583, 25.392], [92.2664, 25.4264], [92.3141, 25.4474], [92.3017, 25.5], [92.2792, 25.5517], [92.3019, 25.5518], [92.3107, 25.5451], [92.3572, 25.5936], [92.3798, 25.5949], [92.3836, 25.6016], [92.4041, 25.6037], [92.4176, 25.6127], [92.4217, 25.6281], [92.441, 25.6378], [92.4438, 25.6467], [92.4563, 25.6354], [92.4622, 25.6493], [92.4702, 25.6404], [92.4905, 25.645], [92.4667, 25.6804], [92.4356, 25.6855], [92.4285, 25.7084], [92.4433, 25.7188], [92.4345, 25.7294], [92.4183, 25.7277], [92.4138, 25.7354], [92.4178, 25.7385], [92.4121, 25.7411], [92.3884, 25.7411], [92.3865, 25.7516], [92.3644, 25.7346], [92.335, 25.7233], [92.3098, 25.7243], [92.272, 25.7091], [92.2384, 25.7066], [92.2306, 25.7145], [92.1725, 25.6652], [92.1553, 25.6692], [92.1552, 25.6457], [92.1366, 25.6428], [92.1398, 25.6212], [92.1248, 25.6088], [92.1262, 25.5905], [92.1088, 25.5698], [92.1177, 25.553], [92.099, 25.5108], [92.1111, 25.4841], [92.0979, 25.4719], [92.0972, 25.4684]]]}}, {"type": "Feature", "properties": {"SUBDISTRICT": "Resubelpara", "STATE": "Meghalaya", "shapeID": "7132399B25699577868798", "source": "geoBoundaries gbOpen IND ADM3 (ODbL 1.0); source: Local Government Directory lgdirectory.gov.in via Pathways Data"}, "geometry": {"type": "Polygon", "coordinates": [[[90.4747, 25.8497], [90.4797, 25.8043], [90.5459, 25.7991], [90.5895, 25.8211], [90.6017, 25.8149], [90.5942, 25.7869], [90.5552, 25.7478], [90.5673, 25.7401], [90.6313, 25.7522], [90.6939, 25.8369], [90.721, 25.8348], [90.7141, 25.8098], [90.7162, 25.8035], [90.7212, 25.8102], [90.7236, 25.796], [90.7822, 25.7772], [90.7903, 25.7692], [90.7912, 25.7991], [90.7733, 25.8177], [90.7568, 25.8683], [90.7626, 25.8795], [90.7765, 25.8767], [90.7993, 25.8851], [90.7918, 25.8987], [90.7781, 25.8986], [90.774, 25.9081], [90.7612, 25.9107], [90.7624, 25.9213], [90.7489, 25.9119], [90.744, 25.9149], [90.7561, 25.9336], [90.7476, 25.9324], [90.7438, 25.9405], [90.7509, 25.9569], [90.7289, 25.9484], [90.7213, 25.9544], [90.6896, 25.9505], [90.6792, 25.9362], [90.6309, 25.9167], [90.6284, 25.8986], [90.6178, 25.8992], [90.6101, 25.912], [90.6112, 25.9193], [90.6326, 25.9371], [90.5861, 25.9595], [90.575, 25.9388], [90.5174, 25.8961], [90.5087, 25.8736], [90.4747, 25.8497]]]}}, {"type": "Feature", "properties": {"SUBDISTRICT": "Dalu", "STATE": "Meghalaya", "shapeID": "7132399B22150527743882", "source": "geoBoundaries gbOpen IND ADM3 (ODbL 1.0); source: Local Government Directory lgdirectory.gov.in via Pathways Data"}, "geometry": {"type": "Polygon", "coordinates": [[[90.0051, 25.2955], [90.0085, 25.2747], [90.1078, 25.2265], [90.2102, 25.2034], [90.2773, 25.1922], [90.2763, 25.2164], [90.3156, 25.2376], [90.2975, 25.2826], [90.3053, 25.3083], [90.3163, 25.3063], [90.3247, 25.3318], [90.2991, 25.3492], [90.2413, 25.355], [90.2213, 25.3462], [90.2122, 25.3271], [90.1982, 25.3253], [90.1994, 25.3374], [90.2152, 25.3429], [90.2149, 25.3574], [90.1728, 25.3789], [90.1433, 25.3644], [90.1045, 25.3558], [90.0368, 25.321], [90.0129, 25.3166], [90.0056, 25.2981], [90.0051, 25.2955]]]}}, {"type": "Feature", "properties": {"SUBDISTRICT": "Songsak", "STATE": "Meghalaya", "shapeID": "7132399B71020603027348", "source": "geoBoundaries gbOpen IND ADM3 (ODbL 1.0); source: Local Government Directory lgdirectory.gov.in via Pathways Data"}, "geometry": {"type": "Polygon", "coordinates": [[[90.4105, 25.7346], [90.4405, 25.7118], [90.4552, 25.6845], [90.4729, 25.6823], [90.4859, 25.6696], [90.5222, 25.6627], [90.5338, 25.6193], [90.5622, 25.6186], [90.576, 25.609], [90.6189, 25.616], [90.6315, 25.5913], [90.6595, 25.5832], [90.6624, 25.5724], [90.6756, 25.5658], [90.678, 25.5431], [90.704, 25.5387], [90.7283, 25.5515], [90.7408, 25.5412], [90.7576, 25.5387], [90.778, 25.5614], [90.7365, 25.5745], [90.7258, 25.5852], [90.7288, 25.5962], [90.7576, 25.6276], [90.7556, 25.6412], [90.7291, 25.6801], [90.6889, 25.7046], [90.7083, 25.7476], [90.7204, 25.8353], [90.6876, 25.8342], [90.6551, 25.7812], [90.6228, 25.7482], [90.578, 25.7391], [90.5552, 25.7452], [90.5942, 25.7869], [90.6033, 25.8058], [90.6017, 25.8149], [90.5895, 25.8211], [90.5459, 25.7991], [90.4709, 25.8065], [90.4261, 25.7435], [90.4144, 25.736], [90.4105, 25.7346]]]}}, {"type": "Feature", "properties": {"SUBDISTRICT": "Samanda", "STATE": "Meghalaya", "shapeID": "7132399B50520410470597", "source": "geoBoundaries gbOpen IND ADM3 (ODbL 1.0); source: Local Government Directory lgdirectory.gov.in via Pathways Data"}, "geometry": {"type": "Polygon", "coordinates": [[[90.3574, 25.46], [90.3582, 25.4516], [90.3902, 25.4463], [90.4322, 25.4493], [90.5365, 25.413], [90.5714, 25.4182], [90.5843, 25.4115], [90.5966, 25.3889], [90.6104, 25.4071], [90.6127, 25.4008], [90.6302, 25.3974], [90.6347, 25.4213], [90.643, 25.4114], [90.6489, 25.4129], [90.6712, 25.4324], [90.6981, 25.472], [90.7186, 25.4817], [90.7576, 25.5387], [90.7408, 25.5412], [90.7283, 25.5515], [90.704, 25.5387], [90.678, 25.5431], [90.6756, 25.5658], [90.6624, 25.5724], [90.6595, 25.5832], [90.6315, 25.5913], [90.6189, 25.616], [90.576, 25.609], [90.5622, 25.6186], [90.5338, 25.6193], [90.5222, 25.6627], [90.4859, 25.6696], [90.4729, 25.6823], [90.4552, 25.6845], [90.4405, 25.7118], [90.4105, 25.7346], [90.409, 25.7259], [90.4298, 25.6905], [90.4305, 25.6747], [90.4179, 25.6005], [90.4074, 25.5796], [90.4162, 25.5398], [90.4056, 25.5153], [90.3577, 25.4627], [90.3574, 25.46]]]}}, {"type": "Feature", "properties": {"SUBDISTRICT": "Chokpot", "STATE": "Meghalaya", "shapeID": "7132399B48709118989656", "source": "geoBoundaries gbOpen IND ADM3 (ODbL 1.0); source: Local Government Directory lgdirectory.gov.in via Pathways Data"}, "geometry": {"type": "Polygon", "coordinates": [[[90.2869, 25.3871], [90.2897, 25.3796], [90.3003, 25.381], [90.2914, 25.3497], [90.3247, 25.3318], [90.3172, 25.3082], [90.3433, 25.318], [90.37, 25.3085], [90.377, 25.3217], [90.4053, 25.328], [90.3525, 25.2893], [90.3723, 25.2895], [90.3835, 25.3062], [90.3922, 25.3074], [90.3895, 25.2924], [90.4066, 25.2948], [90.426, 25.2882], [90.4391, 25.2703], [90.4427, 25.2505], [90.4357, 25.2496], [90.4179, 25.2656], [90.4111, 25.2622], [90.4477, 25.2387], [90.4581, 25.2446], [90.4547, 25.2556], [90.4626, 25.2656], [90.4545, 25.2805], [90.4773, 25.2703], [90.4676, 25.2636], [90.4791, 25.2579], [90.4685, 25.2423], [90.5036, 25.2741], [90.5137, 25.2755], [90.5223, 25.3115], [90.518, 25.3377], [90.5659, 25.3641], [90.5904, 25.3974], [90.5843, 25.4115], [90.5714, 25.4182], [90.5365, 25.413], [90.4322, 25.4493], [90.3926, 25.4461], [90.3576, 25.4517], [90.3081, 25.475], [90.2936, 25.4387], [90.2941, 25.3943], [90.2869, 25.3882], [90.2869, 25.3871]]]}}, {"type": "Feature", "properties": {"SUBDISTRICT": "Mawkyrwat", "STATE": "Meghalaya", "shapeID": "7132399B68890938390217", "source": "geoBoundaries gbOpen IND ADM3 (ODbL 1.0); source: Local Government Directory lgdirectory.gov.in via Pathways Data"}, "geometry": {"type": "Polygon", "coordinates": [[[91.1266, 25.3431], [91.1434, 25.3246], [91.1557, 25.3244], [91.1568, 25.3088], [91.1758, 25.2858], [91.2584, 25.2988], [91.2882, 25.2903], [91.2849, 25.2727], [91.3043, 25.2692], [91.3266, 25.2888], [91.3475, 25.2811], [91.388, 25.2884], [91.4578, 25.2564], [91.4816, 25.2663], [91.502, 25.2621], [91.5084, 25.2544], [91.5247, 25.276], [91.5659, 25.2712], [91.573, 25.292], [91.5692, 25.3216], [91.5498, 25.3333], [91.5499, 25.3437], [91.5273, 25.3562], [91.5337, 25.3663], [91.5362, 25.3988], [91.5436, 25.4063], [91.4759, 25.4196], [91.4697, 25.4247], [91.4828, 25.4421], [91.4661, 25.4446], [91.4159, 25.4886], [91.3895, 25.4771], [91.3859, 25.4626], [91.3477, 25.4825], [91.3313, 25.4325], [91.3155, 25.4211], [91.307, 25.4041], [91.288, 25.3977], [91.2755, 25.4047], [91.246, 25.4572], [91.2351, 25.4423], [91.2245, 25.454], [91.2072, 25.45], [91.2006, 25.4412], [91.2019, 25.4522], [91.1902, 25.458], [91.1706, 25.4411], [91.142, 25.4304], [91.1481, 25.4103], [91.1683, 25.3942], [91.1282, 25.3626], [91.1314, 25.3506], [91.1268, 25.3438], [91.1266, 25.3431]]]}}, {"type": "Feature", "properties": {"SUBDISTRICT": "Jirang", "STATE": "Meghalaya", "shapeID": "7132399B4074581604507", "source": "geoBoundaries gbOpen IND ADM3 (ODbL 1.0); source: Local Government Directory lgdirectory.gov.in via Pathways Data"}, "geometry": {"type": "Polygon", "coordinates": [[[91.3492, 25.8313], [91.351, 25.8147], [91.3746, 25.792], [91.386, 25.8003], [91.3974, 25.7932], [91.4116, 25.7977], [91.4195, 25.7853], [91.442, 25.7825], [91.457, 25.7885], [91.4569, 25.7772], [91.4764, 25.7795], [91.4835, 25.7876], [91.5463, 25.7903], [91.5545, 25.7975], [91.5695, 25.796], [91.5787, 25.8018], [91.5902, 25.7912], [91.5963, 25.7996], [91.6123, 25.7966], [91.6253, 25.8022], [91.6347, 25.789], [91.6638, 25.801], [91.7204, 25.7731], [91.7376, 25.8102], [91.7482, 25.8111], [91.748, 25.8023], [91.7628, 25.801], [91.7667, 25.7942], [91.7975, 25.7967], [91.8077, 25.8415], [91.7929, 25.8835], [91.7458, 25.9114], [91.7612, 25.925], [91.7294, 25.9337], [91.7305, 25.9479], [91.7629, 25.9559], [91.7735, 25.9754], [91.75, 26.0128], [91.7744, 26.0424], [91.7521, 26.039], [91.7355, 26.0499], [91.729, 26.0458], [91.7257, 26.0292], [91.7226, 25.9529], [91.7034, 25.9408], [91.6717, 25.9043], [91.6644, 25.9088], [91.6161, 25.9026], [91.6353, 25.9247], [91.6135, 25.9435], [91.6326, 25.9436], [91.6405, 25.9638], [91.6306, 25.9759], [91.5987, 25.9829], [91.5957, 25.9984], [91.636, 26.0168], [91.6348, 26.0213], [91.6229, 26.026], [91.5997, 26.016], [91.5908, 26.0291], [91.5785, 26.0321], [91.5539, 25.9739], [91.5399, 25.9674], [91.5398, 25.9611], [91.5212, 25.9572], [91.5224, 25.9399], [91.5043, 25.9198], [91.5082, 25.9121], [91.5385, 25.933], [91.5339, 25.9228], [91.5112, 25.9088], [91.5059, 25.8912], [91.4912, 25.8939], [91.4786, 25.8771], [91.48, 25.8678], [91.5103, 25.8665], [91.5284, 25.8891], [91.5352, 25.8831], [91.5279, 25.8719], [91.4713, 25.8581], [91.447, 25.8401], [91.4215, 25.8538], [91.3513, 25.8395], [91.3493, 25.8333], [91.3492, 25.8313]], [[91.5084, 25.8711], [91.5143, 25.8721], [91.5086, 25.8704], [91.5084, 25.8711]]]}}, {"type": "Feature", "properties": {"SUBDISTRICT": "Umsning", "STATE": "Meghalaya", "shapeID": "7132399B18035519981537", "source": "geoBoundaries gbOpen IND ADM3 (ODbL 1.0); source: Local Government Directory lgdirectory.gov.in via Pathways Data"}, "geometry": {"type": "Polygon", "coordinates": [[[91.7529, 25.7437], [91.7555, 25.7331], [91.7941, 25.72], [91.7933, 25.7105], [91.7681, 25.6893], [91.7873, 25.684], [91.7927, 25.6624], [91.8068, 25.6506], [91.8167, 25.6522], [91.8409, 25.6394], [91.8617, 25.6655], [91.8608, 25.6549], [91.8745, 25.6494], [91.8718, 25.6826], [91.889, 25.7087], [91.9069, 25.7112], [91.9111, 25.7197], [91.9355, 25.7314], [91.982, 25.7297], [92.0062, 25.744], [92.0129, 25.7565], [92.0102, 25.7664], [92.0466, 25.7637], [92.0863, 25.7858], [92.0927, 25.7919], [92.0771, 25.8021], [92.0714, 25.8102], [92.0747, 25.817], [92.0924, 25.8238], [92.1148, 25.8204], [92.1274, 25.8251], [92.1549, 25.8111], [92.1827, 25.8497], [92.1829, 25.8699], [92.2268, 25.8999], [92.2244, 25.9096], [92.2024, 25.9066], [92.199, 25.9164], [92.1828, 25.9069], [92.1618, 25.9135], [92.1582, 25.9432], [92.1673, 25.9523], [92.1675, 25.9628], [92.1936, 25.9835], [92.2236, 25.9969], [92.3035, 26.0747], [92.298, 26.0771], [92.2757, 26.0633], [92.2432, 26.0608], [92.214, 26.0693], [92.1825, 26.0669], [92.1804, 26.0779], [92.1712, 26.076], [92.1352, 26.0443], [92.1337, 26.0221], [92.1207, 26.0163], [92.1242, 25.9848], [92.1084, 25.9624], [92.0705, 25.9445], [92.0367, 25.9379], [92.0285, 25.9182], [92.0008, 25.8981], [91.9136, 25.8636], [91.9105, 25.8508], [91.8795, 25.8313], [91.8494, 25.8253], [91.8454, 25.8517], [91.8118, 25.8454], [91.7975, 25.7967], [91.7682, 25.7939], [91.7592, 25.8007], [91.7588, 25.7873], [91.7726, 25.7842], [91.7713, 25.7653], [91.753, 25.7451], [91.7529, 25.7437]]]}}, {"type": "Feature", "properties": {"SUBDISTRICT": "Mawphlang", "STATE": "Meghalaya", "shapeID": "7132399B15333113721667", "source": "geoBoundaries gbOpen IND ADM3 (ODbL 1.0); source: Local Government Directory lgdirectory.gov.in via Pathways Data"}, "geometry": {"type": "Polygon", "coordinates": [[[91.5271, 25.3577], [91.5311, 25.3504], [91.5516, 25.342], [91.5628, 25.3629], [91.561, 25.3726], [91.5761, 25.381], [91.5769, 25.391], [91.6276, 25.3924], [91.6348, 25.3948], [91.6308, 25.401], [91.6394, 25.4065], [91.666, 25.4149], [91.6755, 25.4065], [91.6691, 25.3847], [91.6748, 25.3725], [91.6677, 25.3568], [91.6763, 25.349], [91.7001, 25.3482], [91.7053, 25.3572], [91.7031, 25.3855], [91.7111, 25.4003], [91.7649, 25.4168], [91.7851, 25.4367], [91.7962, 25.437], [91.8086, 25.4508], [91.8012, 25.4614], [91.8159, 25.4863], [91.8223, 25.4947], [91.8365, 25.4956], [91.8438, 25.5078], [91.8304, 25.5333], [91.8162, 25.5439], [91.7778, 25.535], [91.7575, 25.518], [91.7573, 25.5115], [91.784, 25.5006], [91.7801, 25.4925], [91.742, 25.4815], [91.7395, 25.4659], [91.7235, 25.4516], [91.6816, 25.4413], [91.6653, 25.446], [91.6588, 25.4711], [91.6532, 25.4737], [91.6342, 25.4624], [91.6149, 25.4637], [91.6065, 25.495], [91.5931, 25.4891], [91.5799, 25.4935], [91.5694, 25.4874], [91.5523, 25.4442], [91.5467, 25.4098], [91.5364, 25.3994], [91.5337, 25.3663], [91.5273, 25.3588], [91.5271, 25.3577]]]}}, {"type": "Feature", "properties": {"SUBDISTRICT": "Mawkynrew", "STATE": "Meghalaya", "shapeID": "7132399B6652902794492", "source": "geoBoundaries gbOpen IND ADM3 (ODbL 1.0); source: Local Government Directory lgdirectory.gov.in via Pathways Data"}, "geometry": {"type": "Polygon", "coordinates": [[[91.9063, 25.4986], [91.9101, 25.435], [91.921, 25.4178], [91.9146, 25.4136], [91.9177, 25.4018], [91.9113, 25.394], [91.9746, 25.3252], [91.9903, 25.3281], [92.0039, 25.3212], [92.0076, 25.2977], [92.0274, 25.3162], [92.04, 25.3158], [92.0502, 25.3265], [92.0587, 25.3169], [92.0743, 25.3253], [92.0795, 25.3182], [92.0993, 25.3168], [92.1064, 25.307], [92.1152, 25.3109], [92.1215, 25.3321], [92.1091, 25.3717], [92.1158, 25.3941], [92.1048, 25.4084], [92.1164, 25.423], [92.1102, 25.431], [92.1089, 25.4592], [92.0972, 25.4684], [92.1111, 25.4841], [92.0994, 25.512], [92.0621, 25.5168], [92.056, 25.5092], [92.0207, 25.5092], [91.9964, 25.516], [91.9588, 25.498], [91.9264, 25.5026], [91.9071, 25.4986], [91.9063, 25.4986]]]}}, {"type": "Feature", "properties": {"SUBDISTRICT": "Mawsynram", "STATE": "Meghalaya", "shapeID": "7132399B41633790412949", "source": "geoBoundaries gbOpen IND ADM3 (ODbL 1.0); source: Local Government Directory lgdirectory.gov.in via Pathways Data"}, "geometry": {"type": "Polygon", "coordinates": [[[91.3948, 25.2225], [91.3972, 25.1945], [91.4093, 25.1787], [91.3999, 25.1626], [91.432, 25.1476], [91.4921, 25.1337], [91.5188, 25.1454], [91.5509, 25.1434], [91.5948, 25.1672], [91.6034, 25.1582], [91.6014, 25.1378], [91.6191, 25.1384], [91.6324, 25.1227], [91.664, 25.126], [91.6326, 25.1553], [91.6488, 25.1793], [91.6312, 25.2084], [91.6402, 25.2153], [91.6334, 25.2235], [91.6369, 25.246], [91.629, 25.2552], [91.6484, 25.274], [91.6502, 25.292], [91.6423, 25.3051], [91.6677, 25.3408], [91.6658, 25.3526], [91.6749, 25.3735], [91.6691, 25.3844], [91.6755, 25.4061], [91.6713, 25.4139], [91.6394, 25.4065], [91.6308, 25.401], [91.6348, 25.3948], [91.6276, 25.3924], [91.5998, 25.3884], [91.5811, 25.3933], [91.5761, 25.381], [91.5626, 25.3752], [91.5628, 25.3629], [91.549, 25.3357], [91.5681, 25.323], [91.5734, 25.3104], [91.5659, 25.2712], [91.5247, 25.276], [91.5084, 25.2544], [91.502, 25.2621], [91.4816, 25.2663], [91.4597, 25.2564], [91.4393, 25.2569], [91.4219, 25.2349], [91.411, 25.2392], [91.4061, 25.2283], [91.3971, 25.2258], [91.3948, 25.2225]]]}}, {"type": "Feature", "properties": {"SUBDISTRICT": "Mairang", "STATE": "Meghalaya", "shapeID": "7132399B52746606843041", "source": "geoBoundaries gbOpen IND ADM3 (ODbL 1.0); source: Local Government Directory lgdirectory.gov.in via Pathways Data"}, "geometry": {"type": "Polygon", "coordinates": [[[91.4468, 25.7738], [91.4489, 25.7598], [91.4568, 25.7549], [91.4523, 25.7465], [91.4588, 25.7397], [91.4553, 25.7296], [91.476, 25.7125], [91.4899, 25.679], [91.4745, 25.6607], [91.4782, 25.6358], [91.461, 25.6256], [91.5265, 25.6099], [91.552, 25.5908], [91.5466, 25.5728], [91.551, 25.5357], [91.5582, 25.5069], [91.5704, 25.4886], [91.6337, 25.4974], [91.687, 25.5365], [91.7027, 25.5401], [91.7114, 25.5504], [91.7033, 25.5611], [91.7177, 25.5738], [91.7196, 25.5831], [91.7021, 25.5963], [91.6963, 25.6153], [91.7146, 25.6198], [91.7247, 25.6301], [91.7234, 25.6706], [91.734, 25.6731], [91.7493, 25.6625], [91.7651, 25.6621], [91.7742, 25.6774], [91.7677, 25.6912], [91.7937, 25.7115], [91.7912, 25.7245], [91.7756, 25.7228], [91.7543, 25.7343], [91.7571, 25.7539], [91.7702, 25.7613], [91.7726, 25.7842], [91.7588, 25.7873], [91.7592, 25.8007], [91.748, 25.8023], [91.7482, 25.8111], [91.7362, 25.8093], [91.7204, 25.7731], [91.6638, 25.801], [91.6347, 25.789], [91.6253, 25.8022], [91.6123, 25.7966], [91.5963, 25.7996], [91.5902, 25.7912], [91.5787, 25.8018], [91.5695, 25.796], [91.5545, 25.7975], [91.5463, 25.7903], [91.4835, 25.7876], [91.4764, 25.7795], [91.4469, 25.7748], [91.4468, 25.7738]]]}}, {"type": "Feature", "properties": {"SUBDISTRICT": "Ranikor", "STATE": "Meghalaya", "shapeID": "7132399B52304770057270", "source": "geoBoundaries gbOpen IND ADM3 (ODbL 1.0); source: Local Government Directory lgdirectory.gov.in via Pathways Data"}, "geometry": {"type": "Polygon", "coordinates": [[[90.8809, 25.2885], [90.9073, 25.2889], [90.9154, 25.2818], [90.92, 25.2638], [90.9524, 25.249], [90.9564, 25.2312], [90.9449, 25.2099], [90.9623, 25.201], [90.9703, 25.1825], [90.9674, 25.1667], [90.9883, 25.1804], [91.0838, 25.1964], [91.1438, 25.1896], [91.2615, 25.2024], [91.3461, 25.1665], [91.3999, 25.1626], [91.4093, 25.1787], [91.3972, 25.1945], [91.3948, 25.2225], [91.4061, 25.2283], [91.4093, 25.2384], [91.4219, 25.2349], [91.438, 25.2565], [91.4523, 25.2597], [91.3904, 25.2881], [91.3584, 25.2871], [91.3475, 25.2811], [91.3266, 25.2888], [91.3043, 25.2692], [91.2849, 25.2727], [91.2882, 25.2903], [91.2584, 25.2988], [91.1758, 25.2858], [91.1568, 25.3088], [91.1557, 25.3244], [91.1434, 25.3246], [91.1365, 25.3334], [91.1185, 25.3248], [91.0961, 25.3452], [91.0686, 25.3396], [91.0438, 25.3271], [91.0304, 25.3127], [91.0131, 25.3083], [91.0066, 25.3165], [90.9827, 25.321], [90.9572, 25.3365], [90.9338, 25.3338], [90.9247, 25.3162], [90.9039, 25.3175], [90.9022, 25.308], [90.8822, 25.2902], [90.8809, 25.2885]]]}}, {"type": "Feature", "properties": {"SUBDISTRICT": "Dadenggiri", "STATE": "Meghalaya", "shapeID": "7132399B55952037254784", "source": "geoBoundaries gbOpen IND ADM3 (ODbL 1.0); source: Local Government Directory lgdirectory.gov.in via Pathways Data"}, "geometry": {"type": "Polygon", "coordinates": [[[90.0669, 25.7692], [90.0757, 25.7603], [90.0754, 25.7419], [90.0864, 25.7183], [90.0747, 25.7166], [90.0731, 25.708], [90.1152, 25.6827], [90.1342, 25.6383], [90.1506, 25.6232], [90.1781, 25.6218], [90.1894, 25.6373], [90.2226, 25.6426], [90.244, 25.6573], [90.2711, 25.663], [90.2682, 25.7196], [90.2824, 25.7165], [90.2915, 25.7012], [90.3027, 25.7], [90.3471, 25.7238], [90.3527, 25.7523], [90.3333, 25.7843], [90.3062, 25.7978], [90.285, 25.7994], [90.2632, 25.8298], [90.2391, 25.8296], [90.2234, 25.8375], [90.2075, 25.888], [90.1927, 25.9083], [90.1756, 25.9174], [90.1642, 25.9184], [90.1707, 25.8611], [90.1414, 25.8605], [90.137, 25.8238], [90.1292, 25.8129], [90.0983, 25.7837], [90.0729, 25.7766], [90.0669, 25.7692]]]}}, {"type": "Feature", "properties": {"SUBDISTRICT": "Rongram", "STATE": "Meghalaya", "shapeID": "7132399B45162333384142", "source": "geoBoundaries gbOpen IND ADM3 (ODbL 1.0); source: Local Government Directory lgdirectory.gov.in via Pathways Data"}, "geometry": {"type": "Polygon", "coordinates": [[[90.1187, 25.59], [90.1376, 25.5525], [90.1303, 25.5334], [90.135, 25.5203], [90.1535, 25.5097], [90.1605, 25.5222], [90.1703, 25.5228], [90.1735, 25.5376], [90.1806, 25.5307], [90.1911, 25.5328], [90.1924, 25.5131], [90.2076, 25.5114], [90.1958, 25.4799], [90.2119, 25.5007], [90.2148, 25.486], [90.2451, 25.4844], [90.2725, 25.4928], [90.2946, 25.5122], [90.3151, 25.517], [90.3299, 25.5122], [90.3357, 25.4903], [90.3599, 25.4696], [90.4049, 25.5144], [90.4152, 25.5363], [90.4074, 25.5796], [90.4181, 25.6016], [90.4298, 25.6905], [90.409, 25.7259], [90.4148, 25.7503], [90.3984, 25.7771], [90.3652, 25.7715], [90.3498, 25.7844], [90.3333, 25.7843], [90.3527, 25.7523], [90.3466, 25.7232], [90.333, 25.7207], [90.3251, 25.7097], [90.3027, 25.7], [90.2915, 25.7012], [90.2824, 25.7165], [90.2682, 25.7196], [90.2711, 25.663], [90.244, 25.6573], [90.2226, 25.6426], [90.1894, 25.6373], [90.1757, 25.6211], [90.1506, 25.6232], [90.1387, 25.6325], [90.1286, 25.6154], [90.129, 25.6008], [90.1192, 25.5911], [90.1187, 25.59]]]}}, {"type": "Feature", "properties": {"SUBDISTRICT": "Mawshynrut", "STATE": "Meghalaya", "shapeID": "7132399B19355815480192", "source": "geoBoundaries gbOpen IND ADM3 (ODbL 1.0); source: Local Government Directory lgdirectory.gov.in via Pathways Data"}, "geometry": {"type": "Polygon", "coordinates": [[[90.754, 25.4084], [90.7569, 25.3849], [90.764, 25.3853], [90.77, 25.3738], [90.7883, 25.3695], [90.8066, 25.3752], [90.8431, 25.3554], [90.8518, 25.3183], [90.8481, 25.3108], [90.8631, 25.2916], [90.8809, 25.2885], [90.9022, 25.308], [90.9039, 25.3175], [90.9211, 25.3139], [90.9338, 25.3338], [90.9463, 25.3315], [90.9539, 25.3366], [90.9827, 25.321], [91.0066, 25.3165], [91.0121, 25.3084], [91.0288, 25.3119], [91.0438, 25.3271], [91.0316, 25.3376], [91.0351, 25.3438], [91.0169, 25.371], [91.0233, 25.3818], [91.0119, 25.3856], [91.0194, 25.3947], [91.0138, 25.4042], [91.016, 25.4168], [91.0071, 25.4229], [91.01, 25.4464], [90.9982, 25.4496], [91.0095, 25.4704], [91.0255, 25.4786], [91.0362, 25.4731], [91.0605, 25.4869], [91.0869, 25.4801], [91.0992, 25.4842], [91.1052, 25.5233], [91.1241, 25.5532], [91.1355, 25.5583], [91.1404, 25.5737], [91.1554, 25.5873], [91.1664, 25.5888], [91.1864, 25.6119], [91.1925, 25.6097], [91.2004, 25.6196], [91.2255, 25.6257], [91.229, 25.6344], [91.2442, 25.6343], [91.244, 25.6445], [91.2558, 25.6447], [91.259, 25.6531], [91.2719, 25.6587], [91.273, 25.6704], [91.3087, 25.6857], [91.2998, 25.7125], [91.3056, 25.7238], [91.2961, 25.7359], [91.2598, 25.744], [91.2266, 25.7227], [91.1947, 25.7289], [91.192, 25.7628], [91.1827, 25.7757], [91.1927, 25.8201], [91.2055, 25.8399], [91.1994, 25.8583], [91.1819, 25.8421], [91.1558, 25.8494], [91.1237, 25.8307], [91.0843, 25.8287], [91.0662, 25.8198], [91.0529, 25.8283], [91.0759, 25.8378], [91.0815, 25.852], [91.0689, 25.8458], [91.0521, 25.8482], [91.0238, 25.8221], [90.9981, 25.8233], [90.9745, 25.7896], [90.963, 25.7854], [90.964, 25.7742], [90.949, 25.7692], [90.9397, 25.7575], [90.9437, 25.7487], [90.9748, 25.7432], [90.9755, 25.7333], [90.952, 25.704], [90.9503, 25.6882], [90.9311, 25.6707], [90.9291, 25.6597], [90.9176, 25.654], [90.913, 25.6374], [90.8779, 25.6021], [90.878, 25.5932], [90.8677, 25.5953], [90.8623, 25.5833], [90.8529, 25.5849], [90.8452, 25.5784], [90.8337, 25.584], [90.8262, 25.5697], [90.8123, 25.5787], [90.8044, 25.5625], [90.798, 25.5738], [90.7922, 25.5699], [90.7736, 25.5211], [90.7847, 25.5086], [90.7915, 25.4578], [90.772, 25.4466], [90.7824, 25.441], [90.7756, 25.4296], [90.7566, 25.4342], [90.7542, 25.4101], [90.754, 25.4084]]]}}, {"type": "Feature", "properties": {"SUBDISTRICT": "Nongstoin", "STATE": "Meghalaya", "shapeID": "7132399B88253034888446", "source": "geoBoundaries gbOpen IND ADM3 (ODbL 1.0); source: Local Government Directory lgdirectory.gov.in via Pathways Data"}, "geometry": {"type": "Polygon", "coordinates": [[[90.9982, 25.4508], [91.0097, 25.4474], [91.0071, 25.4229], [91.016, 25.4168], [91.0138, 25.4042], [91.0194, 25.3947], [91.0119, 25.3856], [91.0233, 25.3818], [91.0169, 25.371], [91.0351, 25.3438], [91.0358, 25.3323], [91.0501, 25.3279], [91.0686, 25.3396], [91.0961, 25.3452], [91.1204, 25.3245], [91.1346, 25.3331], [91.1269, 25.3383], [91.1282, 25.3626], [91.1683, 25.3942], [91.1481, 25.4103], [91.142, 25.4304], [91.1706, 25.4411], [91.1902, 25.458], [91.2019, 25.4522], [91.2006, 25.4412], [91.2072, 25.45], [91.2245, 25.454], [91.2351, 25.4423], [91.246, 25.4572], [91.2755, 25.4047], [91.288, 25.3977], [91.307, 25.4041], [91.3155, 25.4211], [91.3313, 25.4325], [91.3477, 25.4825], [91.3859, 25.4626], [91.3895, 25.4771], [91.4159, 25.4886], [91.4003, 25.5208], [91.3876, 25.5291], [91.3736, 25.5237], [91.37, 25.5138], [91.339, 25.5132], [91.3235, 25.4926], [91.3124, 25.4946], [91.3175, 25.5047], [91.3089, 25.5232], [91.3314, 25.5521], [91.3428, 25.6048], [91.3829, 25.6487], [91.4316, 25.6753], [91.4671, 25.7203], [91.4553, 25.7296], [91.4588, 25.7397], [91.4523, 25.7465], [91.4568, 25.7549], [91.4486, 25.7608], [91.4469, 25.7756], [91.4557, 25.7778], [91.4578, 25.7881], [91.442, 25.7825], [91.4195, 25.7853], [91.4139, 25.7969], [91.3974, 25.7932], [91.3885, 25.8003], [91.3746, 25.792], [91.3502, 25.8161], [91.3513, 25.8395], [91.3363, 25.838], [91.2783, 25.7462], [91.2533, 25.7432], [91.2987, 25.7344], [91.3056, 25.7238], [91.2998, 25.7125], [91.3077, 25.6829], [91.273, 25.6704], [91.2719, 25.6587], [91.259, 25.6531], [91.2558, 25.6447], [91.244, 25.6445], [91.2442, 25.6343], [91.229, 25.6344], [91.2255, 25.6257], [91.2004, 25.6196], [91.1925, 25.6097], [91.1864, 25.6119], [91.1664, 25.5888], [91.1554, 25.5873], [91.1404, 25.5737], [91.1355, 25.5583], [91.1241, 25.5532], [91.1052, 25.5233], [91.0992, 25.4842], [91.0869, 25.4801], [91.0605, 25.4869], [91.0351, 25.4729], [91.0235, 25.4784], [91.0104, 25.4715], [90.9986, 25.4521], [90.9982, 25.4508]]]}}, {"type": "Feature", "properties": {"SUBDISTRICT": "Mylliem", "STATE": "Meghalaya", "shapeID": "7132399B93449949698546", "source": "geoBoundaries gbOpen IND ADM3 (ODbL 1.0); source: Local Government Directory lgdirectory.gov.in via Pathways Data"}, "geometry": {"type": "Polygon", "coordinates": [[[91.8162, 25.5439], [91.8304, 25.5333], [91.8437, 25.5102], [91.8365, 25.4956], [91.8769, 25.475], [91.9074, 25.4843], [91.9063, 25.4986], [91.9168, 25.4998], [91.9311, 25.5358], [91.9568, 25.5631], [91.9199, 25.5899], [91.9192, 25.6027], [91.8832, 25.6173], [91.8547, 25.592], [91.8478, 25.5779], [91.8349, 25.5722], [91.833, 25.5617], [91.8168, 25.5466], [91.8162, 25.5439]]]}}, {"type": "Feature", "properties": {"SUBDISTRICT": "Zikzak", "STATE": "Meghalaya", "shapeID": "7132399B79096656865940", "source": "geoBoundaries gbOpen IND ADM3 (ODbL 1.0); source: Local Government Directory lgdirectory.gov.in via Pathways Data"}, "geometry": {"type": "Polygon", "coordinates": [[[89.8157, 25.3716], [89.8345, 25.2968], [89.8576, 25.2825], [89.8775, 25.2848], [89.9025, 25.306], [89.9223, 25.2979], [89.9522, 25.302], [90.0085, 25.2747], [90.0051, 25.2955], [90.0113, 25.3149], [90.0504, 25.3272], [90.0312, 25.3423], [90.0333, 25.3565], [90.0688, 25.365], [90.0894, 25.3911], [90.057, 25.4208], [90.0471, 25.4174], [90.021, 25.4309], [89.9902, 25.4333], [89.9789, 25.4534], [89.9505, 25.4518], [89.9378, 25.4291], [89.9277, 25.4426], [89.9284, 25.4592], [89.9185, 25.4692], [89.845, 25.4779], [89.8232, 25.4275], [89.818, 25.3935], [89.8157, 25.3716]]]}}, {"type": "Feature", "properties": {"SUBDISTRICT": "Amlarem", "STATE": "Meghalaya", "shapeID": "7132399B11026733060741", "source": "geoBoundaries gbOpen IND ADM3 (ODbL 1.0); source: Local Government Directory lgdirectory.gov.in via Pathways Data"}, "geometry": {"type": "Polygon", "coordinates": [[[91.9931, 25.2608], [92.0111, 25.2172], [92.0285, 25.2127], [92.0195, 25.185], [92.0553, 25.1851], [92.1224, 25.1662], [92.134, 25.1564], [92.1387, 25.1369], [92.1567, 25.1458], [92.16, 25.1323], [92.1762, 25.12], [92.184, 25.1197], [92.1827, 25.133], [92.2039, 25.1365], [92.201, 25.1462], [92.2101, 25.1524], [92.2023, 25.1621], [92.2167, 25.1609], [92.2274, 25.1788], [92.2265, 25.1889], [92.2339, 25.1961], [92.2316, 25.2116], [92.2185, 25.2301], [92.2005, 25.2337], [92.1985, 25.2629], [92.1909, 25.2732], [92.1968, 25.2831], [92.194, 25.3], [92.1841, 25.3034], [92.1855, 25.314], [92.1683, 25.3456], [92.1971, 25.3718], [92.1677, 25.3927], [92.1095, 25.4053], [92.1161, 25.387], [92.1091, 25.3715], [92.1215, 25.3321], [92.1142, 25.3093], [92.1064, 25.307], [92.0993, 25.3168], [92.0795, 25.3182], [92.0743, 25.3253], [92.0587, 25.3169], [92.0498, 25.3264], [92.0085, 25.2989], [91.9938, 25.2624], [91.9931, 25.2608]]]}}, {"type": "Feature", "properties": {"SUBDISTRICT": "Tikrikilla", "STATE": "Meghalaya", "shapeID": "7132399B81319993680375", "source": "geoBoundaries gbOpen IND ADM3 (ODbL 1.0); source: Local Government Directory lgdirectory.gov.in via Pathways Data"}, "geometry": {"type": "Polygon", "coordinates": [[[90.137, 25.958], [90.1527, 25.9251], [90.1884, 25.9115], [90.1987, 25.9014], [90.2234, 25.8375], [90.2391, 25.8296], [90.2632, 25.8298], [90.285, 25.7994], [90.3062, 25.7978], [90.3382, 25.7824], [90.3444, 25.7826], [90.3452, 25.7927], [90.3684, 25.8136], [90.3896, 25.8051], [90.404, 25.8092], [90.41, 25.8181], [90.4214, 25.8854], [90.4178, 25.941], [90.434, 25.9779], [90.415, 26.0057], [90.4004, 26.014], [90.369, 26.0101], [90.3433, 25.9967], [90.3283, 25.9743], [90.2314, 25.9551], [90.2168, 25.9538], [90.2125, 25.9615], [90.1981, 25.9569], [90.1866, 25.9444], [90.1802, 25.957], [90.1625, 25.9582], [90.1575, 25.9646], [90.1382, 25.9578], [90.137, 25.958]]]}}, {"type": "Feature", "properties": {"SUBDISTRICT": "Betasing", "STATE": "Meghalaya", "shapeID": "7132399B35935878192244", "source": "geoBoundaries gbOpen IND ADM3 (ODbL 1.0); source: Local Government Directory lgdirectory.gov.in via Pathways Data"}, "geometry": {"type": "Polygon", "coordinates": [[[89.8635, 25.4757], [89.9253, 25.4653], [89.9277, 25.4426], [89.9378, 25.4291], [89.9505, 25.4518], [89.9793, 25.4533], [89.9873, 25.4361], [89.9986, 25.4303], [90.0144, 25.4322], [90.0172, 25.4642], [90.0494, 25.458], [90.0606, 25.5134], [90.0579, 25.5256], [90.0369, 25.5487], [89.9754, 25.5263], [89.9622, 25.5113], [89.9554, 25.5216], [89.9593, 25.5354], [90.0194, 25.5684], [89.9956, 25.5806], [89.9984, 25.5868], [89.983, 25.5909], [89.9703, 25.5718], [89.8903, 25.558], [89.8778, 25.5495], [89.8698, 25.5244], [89.8794, 25.4915], [89.8671, 25.4785], [89.8635, 25.4757]]]}}, {"type": "Feature", "properties": {"SUBDISTRICT": "Gambegre", "STATE": "Meghalaya", "shapeID": "7132399B99041762464227", "source": "geoBoundaries gbOpen IND ADM3 (ODbL 1.0); source: Local Government Directory lgdirectory.gov.in via Pathways Data"}, "geometry": {"type": "Polygon", "coordinates": [[[90.0303, 25.348], [90.0504, 25.3272], [90.1045, 25.3558], [90.1467, 25.3656], [90.1667, 25.3792], [90.2149, 25.3574], [90.2152, 25.3429], [90.1994, 25.3374], [90.1982, 25.3253], [90.2122, 25.3271], [90.2213, 25.3462], [90.2358, 25.3544], [90.2914, 25.3497], [90.3003, 25.381], [90.2897, 25.3796], [90.2869, 25.3882], [90.2941, 25.3943], [90.2936, 25.4387], [90.3009, 25.4465], [90.305, 25.4721], [90.3088, 25.475], [90.3582, 25.4516], [90.3599, 25.4696], [90.3357, 25.4903], [90.3256, 25.5157], [90.2946, 25.5122], [90.2725, 25.4928], [90.2451, 25.4844], [90.2148, 25.486], [90.2119, 25.5007], [90.1958, 25.4799], [90.2076, 25.5114], [90.1924, 25.5131], [90.1905, 25.5333], [90.1826, 25.5302], [90.173, 25.5375], [90.1703, 25.5228], [90.1605, 25.5222], [90.1501, 25.5096], [90.135, 25.5203], [90.1296, 25.5344], [90.1071, 25.539], [90.0972, 25.5261], [90.1144, 25.5186], [90.0988, 25.5143], [90.0983, 25.4937], [90.1096, 25.4935], [90.1187, 25.5091], [90.1377, 25.5127], [90.1406, 25.5048], [90.1304, 25.4817], [90.1178, 25.4759], [90.1082, 25.4488], [90.0773, 25.4455], [90.057, 25.4208], [90.0636, 25.4093], [90.0842, 25.4002], [90.0894, 25.3911], [90.086, 25.385], [90.0688, 25.365], [90.0312, 25.3532], [90.0303, 25.348]]]}}, {"type": "Feature", "properties": {"SUBDISTRICT": "Dambo Rongjeng", "STATE": "Meghalaya", "shapeID": "7132399B14785439246924", "source": "geoBoundaries gbOpen IND ADM3 (ODbL 1.0); source: Local Government Directory lgdirectory.gov.in via Pathways Data"}, "geometry": {"type": "MultiPolygon", "coordinates": [[[[90.6889, 25.7046], [90.7291, 25.6801], [90.7563, 25.6391], [90.7576, 25.6276], [90.7288, 25.5962], [90.7271, 25.5808], [90.7874, 25.5582], [90.7954, 25.5736], [90.8044, 25.5625], [90.8123, 25.5787], [90.8262, 25.5697], [90.8337, 25.584], [90.8452, 25.5784], [90.8529, 25.5849], [90.8623, 25.5833], [90.8677, 25.5953], [90.878, 25.5932], [90.8779, 25.6021], [90.913, 25.6374], [90.9176, 25.654], [90.9291, 25.6597], [90.9311, 25.6707], [90.9503, 25.6882], [90.952, 25.704], [90.9759, 25.7352], [90.9748, 25.7432], [90.9619, 25.742], [90.9504, 25.7508], [90.9099, 25.7261], [90.8707, 25.7357], [90.8491, 25.7315], [90.8497, 25.7368], [90.8885, 25.7541], [90.9121, 25.7751], [90.9131, 25.7832], [90.8677, 25.7883], [90.8424, 25.8248], [90.823, 25.8348], [90.8218, 25.8229], [90.7889, 25.7944], [90.7903, 25.7692], [90.7822, 25.7772], [90.7236, 25.796], [90.7212, 25.8102], [90.7124, 25.7966], [90.7083, 25.7476], [90.689, 25.7059], [90.6889, 25.7046]]], [[[90.9368, 25.7983], [90.9528, 25.7817], [90.9643, 25.7788], [90.9638, 25.7863], [90.9759, 25.7915], [90.962, 25.8133], [90.9373, 25.8006], [90.9368, 25.7983]]]]}}, {"type": "Feature", "properties": {"SUBDISTRICT": "Kharkutta", "STATE": "Meghalaya", "shapeID": "7132399B61211778411238", "source": "geoBoundaries gbOpen IND ADM3 (ODbL 1.0); source: Local Government Directory lgdirectory.gov.in via Pathways Data"}, "geometry": {"type": "Polygon", "coordinates": [[[90.7568, 25.8683], [90.7733, 25.8177], [90.7912, 25.7991], [90.8218, 25.8229], [90.823, 25.8348], [90.8424, 25.8248], [90.8677, 25.7883], [90.9131, 25.7832], [90.9121, 25.7751], [90.8885, 25.7541], [90.8483, 25.7347], [90.8707, 25.7357], [90.9099, 25.7261], [90.9428, 25.7493], [90.94, 25.7586], [90.949, 25.7692], [90.9646, 25.7753], [90.9416, 25.7897], [90.9392, 25.803], [90.962, 25.8133], [90.9759, 25.7915], [90.9966, 25.8224], [91.0047, 25.8253], [91.0322, 25.8793], [91.0314, 25.888], [90.9706, 25.8867], [90.9639, 25.9272], [90.9461, 25.9471], [90.9354, 25.9392], [90.9192, 25.9427], [90.9224, 25.9128], [90.8987, 25.9311], [90.8998, 25.937], [90.8863, 25.9513], [90.8762, 25.9425], [90.8466, 25.9444], [90.8401, 25.9378], [90.8396, 25.9468], [90.8273, 25.9447], [90.8133, 25.9518], [90.7951, 25.9353], [90.7815, 25.9079], [90.774, 25.9081], [90.7781, 25.8986], [90.7918, 25.8987], [90.7993, 25.8851], [90.7765, 25.8767], [90.7626, 25.8795], [90.7571, 25.872], [90.7568, 25.8683]]]}}, {"type": "Feature", "properties": {"SUBDISTRICT": "Gasuapara", "STATE": "Meghalaya", "shapeID": "7132399B32553938526404", "source": "geoBoundaries gbOpen IND ADM3 (ODbL 1.0); source: Local Government Directory lgdirectory.gov.in via Pathways Data"}, "geometry": {"type": "Polygon", "coordinates": [[[90.2743, 25.2096], [90.2773, 25.1922], [90.3184, 25.1874], [90.3604, 25.1591], [90.4432, 25.1456], [90.5037, 25.1706], [90.4882, 25.1988], [90.4654, 25.1996], [90.4623, 25.2083], [90.4755, 25.2268], [90.4918, 25.223], [90.4877, 25.2509], [90.5137, 25.2755], [90.5036, 25.2741], [90.4685, 25.2423], [90.4791, 25.2579], [90.4676, 25.2636], [90.4773, 25.2703], [90.4545, 25.2805], [90.4628, 25.2687], [90.4547, 25.2556], [90.4581, 25.2446], [90.4438, 25.2389], [90.4111, 25.2622], [90.4179, 25.2656], [90.4357, 25.2496], [90.4427, 25.2505], [90.4407, 25.2667], [90.4292, 25.2841], [90.413, 25.2939], [90.3895, 25.2924], [90.3922, 25.3074], [90.3835, 25.3062], [90.3723, 25.2895], [90.3525, 25.2893], [90.4053, 25.328], [90.377, 25.3217], [90.37, 25.3085], [90.3433, 25.318], [90.3133, 25.3042], [90.3053, 25.3083], [90.2976, 25.2806], [90.3156, 25.2376], [90.2747, 25.213], [90.2743, 25.2096]]]}}, {"type": "Feature", "properties": {"SUBDISTRICT": "Mawthadraishan", "STATE": "Meghalaya", "shapeID": "7132399B44459480971367", "source": "geoBoundaries gbOpen IND ADM3 (ODbL 1.0); source: Local Government Directory lgdirectory.gov.in via Pathways Data"}, "geometry": {"type": "Polygon", "coordinates": [[[91.3086, 25.52], [91.3175, 25.5047], [91.3124, 25.4946], [91.3205, 25.4918], [91.339, 25.5132], [91.37, 25.5138], [91.3792, 25.5278], [91.3938, 25.5273], [91.4159, 25.4886], [91.4394, 25.4635], [91.4661, 25.4446], [91.4828, 25.4421], [91.4707, 25.4233], [91.4905, 25.413], [91.5369, 25.4058], [91.5467, 25.4098], [91.5523, 25.4442], [91.5704, 25.4886], [91.5582, 25.5069], [91.551, 25.5357], [91.5466, 25.5728], [91.552, 25.5908], [91.5265, 25.6099], [91.461, 25.6256], [91.4782, 25.6358], [91.4745, 25.6607], [91.4899, 25.6775], [91.4833, 25.6991], [91.4671, 25.7203], [91.4316, 25.6753], [91.3904, 25.6546], [91.3476, 25.6113], [91.3393, 25.5975], [91.3314, 25.5521], [91.3089, 25.5232], [91.3086, 25.52]]]}}, {"type": "Feature", "properties": {"SUBDISTRICT": "Umling", "STATE": "Meghalaya", "shapeID": "7132399B78367986146329", "source": "geoBoundaries gbOpen IND ADM3 (ODbL 1.0); source: Local Government Directory lgdirectory.gov.in via Pathways Data"}, "geometry": {"type": "MultiPolygon", "coordinates": [[[[91.7286, 25.9407], [91.7335, 25.9303], [91.7612, 25.925], [91.7458, 25.9114], [91.7929, 25.8835], [91.8077, 25.8415], [91.8454, 25.8517], [91.8503, 25.825], [91.8842, 25.8334], [91.9105, 25.8508], [91.9136, 25.8636], [92.0008, 25.8981], [92.0285, 25.9182], [92.0367, 25.9379], [92.0705, 25.9445], [92.1084, 25.9624], [92.1242, 25.9848], [92.1207, 26.0163], [92.1353, 26.0262], [92.1352, 26.0443], [92.111, 26.0482], [92.055, 26.0313], [92.0369, 26.0382], [91.9933, 26.0396], [91.9804, 26.0244], [91.9362, 26.0133], [91.9281, 25.9984], [91.9219, 25.9988], [91.9193, 26.0201], [91.8856, 26.0287], [91.8726, 26.0509], [91.8782, 26.0964], [91.8219, 26.1175], [91.7929, 26.0858], [91.7811, 26.0901], [91.762, 26.0701], [91.7338, 26.0581], [91.7366, 26.0477], [91.7521, 26.039], [91.7744, 26.0424], [91.75, 26.0128], [91.7735, 25.9754], [91.7629, 25.9559], [91.7295, 25.9444], [91.7286, 25.9407]]], [[[91.5951, 25.9924], [91.5987, 25.9829], [91.6306, 25.9759], [91.6293, 25.9966], [91.6356, 26.0038], [91.636, 26.0168], [91.5957, 25.9984], [91.5951, 25.9924]]], [[[91.6158, 25.9048], [91.6238, 25.901], [91.6539, 25.9066], [91.6353, 25.9247], [91.6167, 25.9077], [91.6158, 25.9048]]]]}}, {"type": "Feature", "properties": {"SUBDISTRICT": "Mawryngkneng", "STATE": "Meghalaya", "shapeID": "7132399B35513922175140", "source": "geoBoundaries gbOpen IND ADM3 (ODbL 1.0); source: Local Government Directory lgdirectory.gov.in via Pathways Data"}, "geometry": {"type": "Polygon", "coordinates": [[[91.9168, 25.4998], [91.9588, 25.498], [91.9964, 25.516], [92.0207, 25.5092], [92.056, 25.5092], [92.0621, 25.5168], [92.0994, 25.512], [92.1177, 25.553], [92.1088, 25.5698], [92.1262, 25.5905], [92.1248, 25.6088], [92.1398, 25.6212], [92.1366, 25.6428], [92.1559, 25.6472], [92.1561, 25.6697], [92.1462, 25.6718], [92.1273, 25.6612], [92.1243, 25.6507], [92.0916, 25.6394], [92.0835, 25.6509], [92.0674, 25.658], [92.0401, 25.6575], [92.0153, 25.6256], [92.013, 25.6093], [91.9853, 25.5922], [91.9688, 25.5673], [91.9425, 25.5505], [91.9182, 25.5042], [91.9168, 25.4998]]]}}, {"type": "Feature", "properties": {"SUBDISTRICT": "Khatarshnong Laitkroh", "STATE": "Meghalaya", "shapeID": "7132399B19746639960323", "source": "geoBoundaries gbOpen IND ADM3 (ODbL 1.0); source: Local Government Directory lgdirectory.gov.in via Pathways Data"}, "geometry": {"type": "Polygon", "coordinates": [[[91.6658, 25.3526], [91.6749, 25.3325], [91.6945, 25.3252], [91.709, 25.3248], [91.7321, 25.3397], [91.7597, 25.3401], [91.7635, 25.3288], [91.7475, 25.3225], [91.7263, 25.2953], [91.7302, 25.2886], [91.7559, 25.2943], [91.746, 25.2741], [91.7618, 25.2703], [91.7888, 25.2496], [91.7961, 25.2526], [91.8017, 25.2686], [91.8317, 25.2769], [91.8402, 25.2945], [91.8298, 25.3187], [91.8328, 25.3276], [91.8239, 25.3392], [91.8302, 25.3506], [91.8095, 25.3675], [91.8096, 25.3777], [91.8562, 25.3901], [91.8821, 25.4277], [91.9103, 25.443], [91.9074, 25.4843], [91.8769, 25.475], [91.8561, 25.4895], [91.8223, 25.4947], [91.8022, 25.4643], [91.8086, 25.4519], [91.8029, 25.4424], [91.7851, 25.4367], [91.7663, 25.4174], [91.7111, 25.4003], [91.7031, 25.3855], [91.7053, 25.3572], [91.7001, 25.3482], [91.6661, 25.3536], [91.6658, 25.3526]]]}}, {"type": "Feature", "properties": {"SUBDISTRICT": "Shella Bholaganj", "STATE": "Meghalaya", "shapeID": "7132399B31368561239475", "source": "geoBoundaries gbOpen IND ADM3 (ODbL 1.0); source: Local Government Directory lgdirectory.gov.in via Pathways Data"}, "geometry": {"type": "MultiPolygon", "coordinates": [[[[91.629, 25.2552], [91.6369, 25.246], [91.6334, 25.2235], [91.6402, 25.2153], [91.6312, 25.2084], [91.6488, 25.1793], [91.6326, 25.1553], [91.664, 25.126], [91.6904, 25.1309], [91.7008, 25.1555], [91.7449, 25.1469], [91.7519, 25.1808], [91.7659, 25.1843], [91.7694, 25.2008], [91.7842, 25.2152], [91.7888, 25.2496], [91.7618, 25.2703], [91.746, 25.2741], [91.7458, 25.2814], [91.7578, 25.2926], [91.7302, 25.2886], [91.7263, 25.2953], [91.7475, 25.3225], [91.7635, 25.3288], [91.7597, 25.3401], [91.7321, 25.3397], [91.7021, 25.3246], [91.6833, 25.3277], [91.6677, 25.3408], [91.6423, 25.3051], [91.6502, 25.292], [91.6484, 25.274], [91.6293, 25.256], [91.629, 25.2552]]], [[[91.7961, 25.2526], [91.8256, 25.2668], [91.8317, 25.2769], [91.8017, 25.2686], [91.7962, 25.2582], [91.7961, 25.2526]]]]}}, {"type": "Feature", "properties": {"SUBDISTRICT": "Pynursla", "STATE": "Meghalaya", "shapeID": "7132399B72176780120832", "source": "geoBoundaries gbOpen IND ADM3 (ODbL 1.0); source: Local Government Directory lgdirectory.gov.in via Pathways Data"}, "geometry": {"type": "Polygon", "coordinates": [[[91.7497, 25.1733], [91.7527, 25.1654], [91.7853, 25.1648], [91.9498, 25.1801], [91.9822, 25.1649], [91.9908, 25.1745], [92.0195, 25.185], [92.029, 25.2083], [92.0264, 25.215], [92.0111, 25.2172], [91.9931, 25.2597], [91.9976, 25.2803], [92.0096, 25.2944], [92.0084, 25.3166], [91.9903, 25.3281], [91.9746, 25.3252], [91.9224, 25.3773], [91.9113, 25.394], [91.9177, 25.4018], [91.9146, 25.4136], [91.921, 25.4178], [91.9103, 25.443], [91.8821, 25.4277], [91.8562, 25.3901], [91.8096, 25.3777], [91.8095, 25.3675], [91.8302, 25.3506], [91.8239, 25.3392], [91.8328, 25.3276], [91.8298, 25.3187], [91.8402, 25.2945], [91.8293, 25.2695], [91.7895, 25.2506], [91.7834, 25.2136], [91.7694, 25.2008], [91.7659, 25.1843], [91.7545, 25.183], [91.75, 25.1753], [91.7497, 25.1733]]]}}, {"type": "Feature", "properties": {"SUBDISTRICT": "Laskein", "STATE": "Meghalaya", "shapeID": "7132399B84786387733324", "source": "geoBoundaries gbOpen IND ADM3 (ODbL 1.0); source: Local Government Directory lgdirectory.gov.in via Pathways Data"}, "geometry": {"type": "Polygon", "coordinates": [[[92.2792, 25.5513], [92.3139, 25.4572], [92.3278, 25.4597], [92.3718, 25.4504], [92.4056, 25.4583], [92.4133, 25.4533], [92.4604, 25.4723], [92.4742, 25.4661], [92.5378, 25.4703], [92.5474, 25.4565], [92.57, 25.4625], [92.5687, 25.4785], [92.5765, 25.4881], [92.6385, 25.5262], [92.6508, 25.5576], [92.6615, 25.5679], [92.6614, 25.5827], [92.6493, 25.59], [92.6298, 25.5671], [92.5884, 25.5507], [92.562, 25.572], [92.5587, 25.6098], [92.5116, 25.615], [92.499, 25.6248], [92.4905, 25.645], [92.4702, 25.6404], [92.4622, 25.6493], [92.4574, 25.6356], [92.4438, 25.6467], [92.4054, 25.6042], [92.3572, 25.5936], [92.3107, 25.5451], [92.3019, 25.5518], [92.2792, 25.5517], [92.2792, 25.5513]]]}}, {"type": "Feature", "properties": {"SUBDISTRICT": "Saipung", "STATE": "Meghalaya", "shapeID": "7132399B74535221462897", "source": "geoBoundaries gbOpen IND ADM3 (ODbL 1.0); source: Local Government Directory lgdirectory.gov.in via Pathways Data"}, "geometry": {"type": "Polygon", "coordinates": [[[92.3942, 25.091], [92.418, 25.0624], [92.4602, 25.033], [92.4651, 25.0451], [92.4603, 25.0525], [92.4751, 25.0686], [92.4848, 25.1059], [92.5434, 25.0973], [92.5257, 25.1233], [92.5252, 25.1378], [92.5583, 25.1277], [92.5821, 25.1295], [92.622, 25.1153], [92.6384, 25.1428], [92.6561, 25.1517], [92.6673, 25.1746], [92.6943, 25.1788], [92.7475, 25.2051], [92.7799, 25.2004], [92.8047, 25.2166], [92.7726, 25.2306], [92.765, 25.2467], [92.7771, 25.2579], [92.7701, 25.2663], [92.7926, 25.2825], [92.7842, 25.3053], [92.7884, 25.315], [92.7829, 25.3317], [92.7729, 25.337], [92.761, 25.3327], [92.7406, 25.3621], [92.7376, 25.3787], [92.7187, 25.3725], [92.6744, 25.4147], [92.6608, 25.4079], [92.655, 25.4329], [92.6423, 25.4171], [92.63, 25.4323], [92.6294, 25.4226], [92.6098, 25.4142], [92.599, 25.4693], [92.5863, 25.4653], [92.5831, 25.4706], [92.5723, 25.4618], [92.5474, 25.4565], [92.5378, 25.4703], [92.481, 25.4675], [92.4654, 25.4481], [92.4605, 25.4162], [92.4367, 25.418], [92.4342, 25.4137], [92.4555, 25.3754], [92.4551, 25.3554], [92.4466, 25.3449], [92.4179, 25.3451], [92.4113, 25.3331], [92.4194, 25.3108], [92.4444, 25.2992], [92.4465, 25.2919], [92.4491, 25.2702], [92.4346, 25.2396], [92.4327, 25.2176], [92.448, 25.198], [92.4523, 25.1734], [92.3946, 25.0995], [92.3942, 25.091]]]}}, {"type": "Feature", "properties": {"SUBDISTRICT": "Selsella", "STATE": "Meghalaya", "shapeID": "7132399B63714053549106", "source": "geoBoundaries gbOpen IND ADM3 (ODbL 1.0); source: Local Government Directory lgdirectory.gov.in via Pathways Data"}, "geometry": {"type": "MultiPolygon", "coordinates": [[[[89.8968, 25.7351], [89.9252, 25.6945], [89.9411, 25.6867], [89.9509, 25.6589], [89.9844, 25.6377], [89.9872, 25.6268], [90.0084, 25.6239], [90.0223, 25.6085], [90.006, 25.5843], [89.9965, 25.5864], [89.9956, 25.5806], [90.0221, 25.5666], [90.0263, 25.5722], [90.061, 25.5661], [90.0823, 25.5542], [90.0855, 25.5428], [90.0973, 25.5341], [90.1004, 25.5443], [90.1199, 25.5337], [90.1303, 25.5334], [90.1351, 25.5408], [90.1362, 25.5567], [90.1237, 25.5712], [90.1187, 25.59], [90.129, 25.6008], [90.1286, 25.6154], [90.1387, 25.6325], [90.1176, 25.6801], [90.0731, 25.708], [90.0747, 25.7166], [90.0864, 25.7183], [90.0716, 25.7661], [90.0669, 25.7692], [90.0617, 25.7606], [90.0404, 25.7688], [90.0257, 25.7627], [90.0118, 25.7704], [90.0131, 25.7834], [89.9556, 25.8015], [89.9594, 25.7745], [89.9378, 25.7526], [89.9376, 25.7446], [89.926, 25.7393], [89.8991, 25.7428], [89.8968, 25.7351]]], [[[89.9498, 25.8162], [89.9562, 25.811], [89.9498, 25.8162], [89.9498, 25.8162]]]]}}, {"type": "Feature", "properties": {"SUBDISTRICT": "Baghmara", "STATE": "Meghalaya", "shapeID": "7132399B57900927228136", "source": "geoBoundaries gbOpen IND ADM3 (ODbL 1.0); source: Local Government Directory lgdirectory.gov.in via Pathways Data"}, "geometry": {"type": "Polygon", "coordinates": [[[90.4623, 25.2083], [90.4654, 25.1996], [90.4882, 25.1988], [90.5037, 25.1706], [90.6296, 25.1704], [90.6446, 25.1839], [90.6325, 25.1983], [90.6324, 25.2235], [90.6466, 25.2442], [90.665, 25.2263], [90.664, 25.2522], [90.6763, 25.25], [90.6582, 25.2801], [90.6584, 25.2983], [90.6759, 25.3134], [90.6806, 25.3342], [90.7168, 25.3443], [90.7413, 25.3587], [90.7575, 25.3875], [90.7557, 25.4329], [90.7756, 25.4296], [90.7824, 25.441], [90.772, 25.4466], [90.7915, 25.4578], [90.7847, 25.5086], [90.7736, 25.5211], [90.7874, 25.5582], [90.778, 25.5614], [90.7186, 25.4817], [90.6981, 25.472], [90.6851, 25.4476], [90.6543, 25.417], [90.643, 25.4114], [90.6347, 25.4213], [90.6297, 25.3972], [90.6127, 25.4008], [90.6104, 25.4071], [90.5966, 25.3889], [90.5904, 25.3974], [90.5659, 25.3641], [90.518, 25.3377], [90.5223, 25.3115], [90.5138, 25.2709], [90.4877, 25.2509], [90.4918, 25.223], [90.4755, 25.2268], [90.4632, 25.2113], [90.4623, 25.2083]]]}}, {"type": "Feature", "properties": {"SUBDISTRICT": "Rongara", "STATE": "Meghalaya", "shapeID": "7132399B10687495347004", "source": "geoBoundaries gbOpen IND ADM3 (ODbL 1.0); source: Local Government Directory lgdirectory.gov.in via Pathways Data"}, "geometry": {"type": "Polygon", "coordinates": [[[90.6301, 25.2127], [90.6346, 25.1954], [90.6658, 25.1671], [90.6762, 25.1606], [90.7167, 25.1561], [90.7411, 25.1642], [90.7622, 25.1797], [90.7817, 25.178], [90.8042, 25.1638], [90.8389, 25.1533], [90.9573, 25.1595], [90.9674, 25.1667], [90.9706, 25.179], [90.9623, 25.201], [90.9449, 25.2099], [90.9564, 25.2312], [90.9516, 25.2498], [90.92, 25.2638], [90.9154, 25.2818], [90.9073, 25.2889], [90.8609, 25.2932], [90.8481, 25.3108], [90.8518, 25.3183], [90.8424, 25.356], [90.8066, 25.3752], [90.7883, 25.3695], [90.7707, 25.3735], [90.76, 25.3877], [90.74, 25.3574], [90.6794, 25.3332], [90.6759, 25.3134], [90.6571, 25.293], [90.6582, 25.2801], [90.6761, 25.2491], [90.664, 25.2522], [90.6635, 25.2256], [90.6466, 25.2442], [90.6304, 25.2148], [90.6301, 25.2127]]]}}, {"type": "Feature", "properties": {"SUBDISTRICT": "Bajengdoba", "STATE": "Meghalaya", "shapeID": "7132399B12675539506352", "source": "geoBoundaries gbOpen IND ADM3 (ODbL 1.0); source: Local Government Directory lgdirectory.gov.in via Pathways Data"}, "geometry": {"type": "Polygon", "coordinates": [[[90.3443, 25.787], [90.3652, 25.7715], [90.4008, 25.7764], [90.4168, 25.7486], [90.4105, 25.7346], [90.4261, 25.7435], [90.4626, 25.7993], [90.4776, 25.8054], [90.4795, 25.8386], [90.4747, 25.8497], [90.5087, 25.8736], [90.5148, 25.8999], [90.5385, 25.9454], [90.5382, 25.9578], [90.5095, 25.9958], [90.4851, 26.0138], [90.4748, 26.0124], [90.4614, 25.9994], [90.4286, 25.99], [90.434, 25.9779], [90.4178, 25.941], [90.4214, 25.8854], [90.41, 25.8181], [90.404, 25.8092], [90.3896, 25.8051], [90.3684, 25.8136], [90.3444, 25.7903], [90.3443, 25.787]]]}}, {"type": "Feature", "properties": {"SUBDISTRICT": "Demdema", "STATE": "Meghalaya", "shapeID": "7132399B4255949767530", "source": "geoBoundaries gbOpen IND ADM3 (ODbL 1.0); source: Local Government Directory lgdirectory.gov.in via Pathways Data"}, "geometry": {"type": "Polygon", "coordinates": [[[89.9488, 25.8245], [89.9556, 25.8015], [90.0131, 25.7834], [90.0118, 25.7704], [90.0257, 25.7627], [90.0404, 25.7688], [90.0617, 25.7606], [90.0729, 25.7766], [90.0983, 25.7837], [90.137, 25.8238], [90.1414, 25.8605], [90.1707, 25.8611], [90.1642, 25.9184], [90.1489, 25.9295], [90.137, 25.958], [90.1228, 25.9612], [90.1095, 25.9419], [90.093, 25.9365], [90.0961, 25.9287], [90.0821, 25.9177], [90.0675, 25.9155], [90.0463, 25.8907], [90.0254, 25.8932], [90.0093, 25.8791], [90.0264, 25.866], [90.0125, 25.8469], [90.0044, 25.8486], [90.0057, 25.8423], [89.98, 25.8341], [89.9777, 25.8282], [89.9548, 25.8249], [89.9488, 25.8245]]]}}, {"type": "Feature", "properties": {"SUBDISTRICT": "Damalgre", "STATE": "Meghalaya", "shapeID": "7132399B51354417586402", "source": "geoBoundaries gbOpen IND ADM3 (ODbL 1.0); source: Local Government Directory lgdirectory.gov.in via Pathways Data"}, "geometry": {"type": "Polygon", "coordinates": [[[89.9554, 25.5216], [89.9622, 25.5113], [89.9754, 25.5263], [90.0369, 25.5487], [90.0579, 25.5256], [90.06, 25.4971], [90.0494, 25.458], [90.0172, 25.4642], [90.0144, 25.4322], [90.0471, 25.4174], [90.0594, 25.4223], [90.0773, 25.4455], [90.1082, 25.4488], [90.1178, 25.4759], [90.1304, 25.4817], [90.1406, 25.5048], [90.1377, 25.5127], [90.1187, 25.5091], [90.1096, 25.4935], [90.0983, 25.4937], [90.0988, 25.5143], [90.1144, 25.5186], [90.0972, 25.5261], [90.1071, 25.539], [90.1004, 25.5443], [90.0973, 25.5341], [90.0855, 25.5428], [90.0819, 25.5545], [90.0428, 25.5714], [90.0238, 25.5718], [89.9593, 25.5354], [89.9554, 25.5216]]]}}, {"type": "Feature", "properties": {"SUBDISTRICT": "Bhoirymbong", "STATE": "Meghalaya", "shapeID": "7132399B90469637407006", "source": "geoBoundaries gbOpen IND ADM3 (ODbL 1.0); source: Local Government Directory lgdirectory.gov.in via Pathways Data"}, "geometry": {"type": "Polygon", "coordinates": [[[91.8718, 25.6826], [91.8745, 25.6494], [91.8867, 25.6494], [91.8986, 25.6591], [91.9092, 25.6592], [91.9204, 25.6732], [91.935, 25.6743], [91.9582, 25.6888], [91.9679, 25.701], [91.962, 25.6873], [91.9787, 25.6639], [92.0021, 25.6654], [92.0382, 25.6559], [92.0663, 25.6583], [92.0835, 25.6509], [92.0916, 25.6394], [92.1243, 25.6507], [92.1273, 25.6612], [92.1444, 25.6714], [92.1623, 25.6702], [92.1671, 25.6767], [92.1512, 25.7129], [92.1672, 25.7328], [92.1527, 25.782], [92.1549, 25.8111], [92.1274, 25.8251], [92.1148, 25.8204], [92.0924, 25.8238], [92.0747, 25.817], [92.0714, 25.8102], [92.0771, 25.8021], [92.0927, 25.7919], [92.0863, 25.7858], [92.0466, 25.7637], [92.0102, 25.7664], [92.0129, 25.7565], [92.0062, 25.744], [91.982, 25.7297], [91.9355, 25.7314], [91.9111, 25.7197], [91.9069, 25.7112], [91.889, 25.7087], [91.8718, 25.6826]]]}}, {"type": "Feature", "properties": {"SUBDISTRICT": "Mawlai", "STATE": "Meghalaya", "shapeID": "7132399B5441566281064", "source": "geoBoundaries gbOpen IND ADM3 (ODbL 1.0); source: Local Government Directory lgdirectory.gov.in via Pathways Data"}, "geometry": {"type": "Polygon", "coordinates": [[[91.8087, 25.6034], [91.8157, 25.5925], [91.8478, 25.5779], [91.8547, 25.592], [91.8832, 25.6173], [91.9014, 25.6089], [91.9027, 25.6341], [91.9171, 25.6679], [91.8867, 25.6494], [91.8696, 25.6485], [91.8602, 25.6559], [91.8617, 25.6655], [91.8093, 25.6051], [91.8087, 25.6034]]]}}, {"type": "Feature", "properties": {"SUBDISTRICT": "Mawpat", "STATE": "Meghalaya", "shapeID": "7132399B72992997033683", "source": "geoBoundaries gbOpen IND ADM3 (ODbL 1.0); source: Local Government Directory lgdirectory.gov.in via Pathways Data"}, "geometry": {"type": "Polygon", "coordinates": [[[91.9013, 25.6208], [91.9014, 25.6089], [91.9197, 25.6023], [91.9199, 25.5899], [91.9451, 25.5756], [91.9521, 25.565], [91.9621, 25.5637], [91.9753, 25.574], [91.98, 25.5877], [92.013, 25.6093], [92.0153, 25.6256], [92.0297, 25.6376], [92.0382, 25.6559], [92.0021, 25.6654], [91.9787, 25.6639], [91.962, 25.6873], [91.967, 25.7008], [91.9356, 25.6746], [91.9199, 25.6729], [91.9016, 25.6235], [91.9013, 25.6208]]]}}, {"type": "Feature", "properties": {"SUBDISTRICT": "Sohiong", "STATE": "Meghalaya", "shapeID": "7132399B17774986532563", "source": "geoBoundaries gbOpen IND ADM3 (ODbL 1.0); source: Local Government Directory lgdirectory.gov.in via Pathways Data"}, "geometry": {"type": "Polygon", "coordinates": [[[91.6065, 25.495], [91.6149, 25.4637], [91.6342, 25.4624], [91.6532, 25.4737], [91.662, 25.4672], [91.6653, 25.446], [91.6816, 25.4413], [91.7235, 25.4516], [91.7395, 25.4659], [91.742, 25.4815], [91.7801, 25.4925], [91.784, 25.5006], [91.7573, 25.5115], [91.7575, 25.518], [91.7778, 25.535], [91.8162, 25.5439], [91.833, 25.5617], [91.8349, 25.5722], [91.8478, 25.5779], [91.8157, 25.5925], [91.8087, 25.6034], [91.8409, 25.6394], [91.8167, 25.6522], [91.8068, 25.6506], [91.7927, 25.6624], [91.7886, 25.6826], [91.7723, 25.6864], [91.7736, 25.6749], [91.7651, 25.6621], [91.7242, 25.6718], [91.7247, 25.6301], [91.7146, 25.6198], [91.6966, 25.6163], [91.7021, 25.5963], [91.7193, 25.585], [91.7177, 25.5738], [91.7033, 25.5611], [91.7111, 25.549], [91.6337, 25.4974], [91.6076, 25.495], [91.6065, 25.495]]]}}]}