{"type": "FeatureCollection", "features": [{"type": "Feature", "properties": {"SUBDISTRICT": "East Lungdar", "STATE": "Mizoram", "shapeID": "7132399B13214207857907", "source": "geoBoundaries gbOpen IND ADM3 (ODbL 1.0); source: Local Government Directory lgdirectory.gov.in via Pathways Data", "DISTRICT": "Serchhip"}, "geometry": {"type": "Polygon", "coordinates": [[[92.9195, 23.2227], [92.9265, 23.2239], [92.9354, 23.1943], [92.9466, 23.1847], [92.9398, 23.1694], [92.9551, 23.1666], [92.9601, 23.1575], [92.9604, 23.1162], [93.0218, 23.0789], [93.0397, 23.0809], [93.0461, 23.046], [93.0806, 23.0359], [93.0836, 23.0284], [93.1271, 23.0039], [93.1313, 23.044], [93.138, 23.0546], [93.143, 23.0568], [93.1608, 23.0435], [93.166, 23.0471], [93.1552, 23.0683], [93.1549, 23.1188], [93.1443, 23.1416], [93.1454, 23.1807], [93.1311, 23.1975], [93.0783, 23.2117], [93.0577, 23.2111], [93.0067, 23.2291], [92.9869, 23.2273], [92.9645, 23.2442], [92.9449, 23.2314], [92.9276, 23.236], [92.9201, 23.2283], [92.9195, 23.2227]]]}}, {"type": "Feature", "properties": {"SUBDISTRICT": "Bilkhawthlir", "STATE": "Mizoram", "shapeID": "7132399B4412541102013", "source": "geoBoundaries gbOpen IND ADM3 (ODbL 1.0); source: Local Government Directory lgdirectory.gov.in via Pathways Data", "DISTRICT": "Kolasib"}, "geometry": {"type": "Polygon", "coordinates": [[[92.5327, 24.1848], [92.5406, 24.1803], [92.5341, 24.165], [92.5449, 24.1489], [92.5444, 24.1194], [92.5785, 24.1374], [92.6277, 24.1777], [92.6957, 24.1857], [92.7368, 24.2233], [92.7943, 24.3076], [92.8234, 24.321], [92.8508, 24.3233], [92.8532, 24.3331], [92.8866, 24.3573], [92.8945, 24.3816], [92.8852, 24.3862], [92.8901, 24.3994], [92.8584, 24.3956], [92.8436, 24.377], [92.8283, 24.375], [92.8244, 24.3877], [92.8307, 24.3977], [92.8089, 24.4165], [92.8002, 24.4163], [92.8023, 24.4245], [92.7647, 24.5182], [92.7532, 24.5044], [92.7036, 24.3737], [92.6964, 24.3715], [92.6902, 24.3523], [92.6833, 24.345], [92.657, 24.341], [92.6485, 24.3263], [92.6405, 24.3263], [92.6373, 24.3331], [92.6238, 24.3303], [92.6111, 24.251], [92.5875, 24.2425], [92.5641, 24.2478], [92.5502, 24.2436], [92.5373, 24.1942], [92.5327, 24.1848]]]}}, {"type": "Feature", "properties": {"SUBDISTRICT": "Tuipang", "STATE": "Mizoram", "shapeID": "7132399B89986450073812", "source": "geoBoundaries gbOpen IND ADM3 (ODbL 1.0); source: Local Government Directory lgdirectory.gov.in via Pathways Data", "DISTRICT": "Saiha"}, "geometry": {"type": "MultiPolygon", "coordinates": [[[[92.9861, 22.494], [92.9934, 22.4819], [93.0262, 22.4777], [93.02, 22.5095], [92.9872, 22.4977], [92.9861, 22.494]]], [[[92.8372, 22.3076], [92.8495, 22.2327], [92.8577, 22.2246], [92.8501, 22.2047], [92.8554, 22.0902], [92.8624, 22.0814], [92.8685, 22.0417], [92.8889, 22.0104], [92.8977, 21.9495], [92.9062, 21.9467], [92.9303, 22.0021], [92.9265, 22.0116], [92.9496, 22.0273], [92.9578, 22.0254], [92.9814, 21.9872], [93.0017, 21.9841], [93.0051, 21.9987], [92.9937, 22.0504], [93.008, 22.1027], [93.0195, 22.1073], [93.0563, 22.1015], [93.0596, 22.1079], [93.0595, 22.1209], [93.0433, 22.1496], [93.0528, 22.1784], [93.0462, 22.191], [93.0488, 22.1995], [93.0618, 22.2013], [93.0685, 22.2117], [93.0777, 22.2043], [93.1055, 22.2055], [93.1173, 22.1975], [93.1228, 22.1812], [93.1412, 22.176], [93.168, 22.1851], [93.143, 22.2377], [93.1506, 22.2486], [93.1859, 22.2457], [93.1957, 22.2512], [93.2023, 22.2972], [93.1985, 22.3203], [93.1901, 22.3344], [93.1789, 22.4224], [93.1612, 22.3967], [93.1631, 22.3855], [93.1785, 22.3694], [93.173, 22.3292], [93.155, 22.3193], [93.113, 22.3255], [93.0857, 22.362], [93.0183, 22.3788], [93.0191, 22.3926], [93.0335, 22.3979], [93.0251, 22.4058], [93.0177, 22.4035], [92.9967, 22.3713], [92.9807, 22.3684], [92.9742, 22.3538], [92.9602, 22.3532], [92.9479, 22.3643], [92.9479, 22.3725], [92.9344, 22.3725], [92.9081, 22.3409], [92.8887, 22.3327], [92.8823, 22.3047], [92.8624, 22.2936], [92.8536, 22.3058], [92.8419, 22.3076], [92.8372, 22.3076]]]]}}, {"type": "Feature", "properties": {"SUBDISTRICT": "Khawzawl", "STATE": "Mizoram", "shapeID": "7132399B48249953431093", "source": "geoBoundaries gbOpen IND ADM3 (ODbL 1.0); source: Local Government Directory lgdirectory.gov.in via Pathways Data", "DISTRICT": "Champhai"}, "geometry": {"type": "Polygon", "coordinates": [[[92.9919, 23.2705], [92.9972, 23.2437], [93.0043, 23.2441], [93.0241, 23.2239], [93.0577, 23.2111], [93.1171, 23.2035], [93.1383, 23.1905], [93.1569, 23.2065], [93.1582, 23.229], [93.1907, 23.2775], [93.2037, 23.3547], [93.2336, 23.3865], [93.2489, 23.3897], [93.2555, 23.3843], [93.2654, 23.337], [93.2769, 23.3245], [93.2899, 23.3249], [93.3077, 23.3411], [93.317, 23.3416], [93.3403, 23.3176], [93.356, 23.3156], [93.3708, 23.3178], [93.372, 23.3246], [93.3587, 23.3476], [93.3616, 23.3522], [93.3893, 23.3613], [93.4025, 23.3865], [93.3915, 23.423], [93.3263, 23.4151], [93.3052, 23.4203], [93.2749, 23.4521], [93.2667, 23.483], [93.2637, 23.5371], [93.2629, 23.6793], [93.2465, 23.7297], [93.1946, 23.7261], [93.1858, 23.7325], [93.1811, 23.7628], [93.155, 23.7751], [93.1473, 23.765], [93.1477, 23.7453], [93.1599, 23.6811], [93.1538, 23.6612], [93.1438, 23.6519], [93.1088, 23.6392], [93.0781, 23.6613], [93.0682, 23.6785], [93.0522, 23.6724], [93.0109, 23.6747], [93.0167, 23.657], [93.0114, 23.6447], [93.0106, 23.5943], [93.0163, 23.5884], [93.015, 23.5327], [93.0265, 23.5212], [93.0264, 23.4967], [93.0135, 23.4908], [93.0011, 23.4709], [93.0021, 23.4536], [93.0198, 23.4466], [93.0249, 23.435], [93.0136, 23.3979], [93.0182, 23.3796], [93.0318, 23.3724], [93.0201, 23.3615], [93.0195, 23.3526], [93.0309, 23.3422], [93.0307, 23.3337], [93.024, 23.3312], [93.0183, 23.3055], [93.0047, 23.2929], [92.9982, 23.2752], [92.9919, 23.2705]]]}}, {"type": "Feature", "properties": {"SUBDISTRICT": "Lunglei", "STATE": "Mizoram", "shapeID": "7132399B31219241409507", "source": "geoBoundaries gbOpen IND ADM3 (ODbL 1.0); source: Local Government Directory lgdirectory.gov.in via Pathways Data", "DISTRICT": "Lunglei"}, "geometry": {"type": "Polygon", "coordinates": [[[92.6297, 22.897], [92.6351, 22.8734], [92.6507, 22.8648], [92.6484, 22.845], [92.6628, 22.8253], [92.6893, 22.7016], [92.697, 22.6992], [92.7144, 22.7108], [92.7342, 22.705], [92.76, 22.7185], [92.7655, 22.7162], [92.7691, 22.6725], [92.7794, 22.6376], [92.7726, 22.605], [92.7972, 22.6024], [92.8037, 22.6071], [92.8081, 22.6272], [92.845, 22.6206], [92.8837, 22.5816], [92.8997, 22.5837], [92.913, 22.5448], [92.941, 22.5593], [92.9494, 22.5752], [92.9551, 22.6274], [92.934, 22.6634], [92.937, 22.7067], [92.9211, 22.7226], [92.9186, 22.7365], [92.9199, 22.7643], [92.9308, 22.7759], [92.8947, 22.8001], [92.8714, 22.8617], [92.8533, 22.8647], [92.8533, 22.8745], [92.8706, 22.8976], [92.8691, 22.9251], [92.8898, 22.9558], [92.8934, 22.9777], [92.8824, 23.0053], [92.8856, 23.0352], [92.8789, 23.0662], [92.8651, 23.0822], [92.8618, 23.2107], [92.8491, 23.2366], [92.8354, 23.2455], [92.8215, 23.2413], [92.8166, 23.2255], [92.7832, 23.227], [92.7734, 23.2333], [92.7586, 23.2268], [92.755, 23.2329], [92.7409, 23.2324], [92.725, 23.2407], [92.7243, 23.1951], [92.706, 23.1949], [92.704, 23.1493], [92.7194, 23.1171], [92.7236, 23.0668], [92.7319, 23.0549], [92.73, 23.0366], [92.7212, 23.0241], [92.7186, 22.9986], [92.6478, 22.9135], [92.6313, 22.9035], [92.6297, 22.897]]]}}, {"type": "Feature", "properties": {"SUBDISTRICT": "Hnahthial", "STATE": "Mizoram", "shapeID": "7132399B64543007464155", "source": "geoBoundaries gbOpen IND ADM3 (ODbL 1.0); source: Local Government Directory lgdirectory.gov.in via Pathways Data", "DISTRICT": "Lunglei"}, "geometry": {"type": "Polygon", "coordinates": [[[92.8531, 22.8705], [92.8533, 22.8647], [92.8714, 22.8617], [92.8947, 22.8001], [92.9207, 22.78], [92.9308, 22.7759], [92.9244, 22.7886], [92.9419, 22.7897], [92.9604, 22.7804], [92.9801, 22.7574], [93.0059, 22.7535], [93.01, 22.7733], [93.0192, 22.7842], [93.0287, 22.7835], [93.0315, 22.7958], [93.0558, 22.7918], [93.0633, 22.7939], [93.0632, 22.8001], [93.089, 22.8076], [93.082, 22.7971], [93.1016, 22.7841], [93.1063, 22.8084], [93.1151, 22.8177], [93.1214, 22.8665], [93.1449, 22.8788], [93.139, 22.9064], [93.1463, 22.9098], [93.1568, 22.9037], [93.1644, 22.9096], [93.1484, 22.9314], [93.1405, 22.9597], [93.1474, 22.9761], [93.1271, 23.0039], [93.0836, 23.0284], [93.0806, 23.0359], [93.0418, 23.0495], [93.0445, 23.0743], [93.0397, 23.0809], [93.0218, 23.0789], [92.9604, 23.1162], [92.9601, 23.1575], [92.9551, 23.1666], [92.9377, 23.1714], [92.9384, 23.1866], [92.9219, 23.19], [92.9175, 23.1819], [92.8843, 23.1687], [92.8682, 23.1728], [92.8628, 23.1839], [92.8651, 23.0822], [92.8789, 23.0662], [92.8856, 23.0352], [92.8824, 23.0053], [92.8934, 22.9777], [92.8898, 22.9558], [92.8691, 22.9251], [92.8706, 22.8976], [92.8533, 22.8745], [92.8531, 22.8705]]]}}, {"type": "Feature", "properties": {"SUBDISTRICT": "Saiha", "STATE": "Mizoram", "shapeID": "7132399B29197760698159", "source": "geoBoundaries gbOpen IND ADM3 (ODbL 1.0); source: Local Government Directory lgdirectory.gov.in via Pathways Data", "DISTRICT": "Saiha"}, "geometry": {"type": "Polygon", "coordinates": [[[92.9388, 22.5577], [92.9475, 22.5281], [92.9467, 22.4543], [92.9537, 22.4075], [92.9701, 22.3911], [92.9807, 22.3684], [92.9967, 22.3713], [93.0177, 22.4035], [93.0251, 22.4058], [93.0335, 22.3979], [93.0191, 22.3926], [93.0183, 22.3788], [93.0857, 22.362], [93.113, 22.3255], [93.155, 22.3193], [93.173, 22.3292], [93.1785, 22.3694], [93.1631, 22.3855], [93.1612, 22.3967], [93.1789, 22.4224], [93.1667, 22.4442], [93.1367, 22.452], [93.1325, 22.4648], [93.1362, 22.4933], [93.1221, 22.5216], [93.0878, 22.525], [93.0684, 22.475], [93.0627, 22.4675], [93.0479, 22.4669], [93.0262, 22.4777], [92.9934, 22.4819], [92.9862, 22.4902], [92.9911, 22.501], [93.02, 22.5095], [93.0127, 22.5344], [92.9676, 22.5915], [92.9539, 22.6019], [92.941, 22.5593], [92.9388, 22.5577]]]}}, {"type": "Feature", "properties": {"SUBDISTRICT": "'N' Thingdawl", "STATE": "Mizoram", "shapeID": "7132399B88435022356620", "source": "geoBoundaries gbOpen IND ADM3 (ODbL 1.0); source: Local Government Directory lgdirectory.gov.in via Pathways Data", "DISTRICT": "Kolasib"}, "geometry": {"type": "Polygon", "coordinates": [[[92.5382, 24.0402], [92.5508, 24.0584], [92.5643, 24.0564], [92.564, 24.0386], [92.575, 24.0384], [92.5751, 24.0771], [92.5887, 24.0824], [92.612, 24.0414], [92.6298, 24.038], [92.6165, 24.0186], [92.6298, 24.0006], [92.622, 23.981], [92.6165, 23.9817], [92.6099, 23.9523], [92.6159, 23.9473], [92.6204, 23.9213], [92.6362, 23.92], [92.6468, 23.9091], [92.6471, 23.8968], [92.6394, 23.8959], [92.6346, 23.8848], [92.6332, 23.8599], [92.6675, 23.843], [92.7129, 23.8523], [92.7586, 23.8425], [92.7945, 23.85], [92.8091, 23.8609], [92.7932, 23.8775], [92.8012, 23.889], [92.7952, 23.8985], [92.8047, 23.9236], [92.8142, 23.9876], [92.8385, 24.0286], [92.839, 24.0531], [92.851, 24.0843], [92.8578, 24.0879], [92.8727, 24.1579], [92.8845, 24.1729], [92.892, 24.213], [92.8983, 24.2166], [92.8988, 24.2438], [92.8862, 24.244], [92.885, 24.2367], [92.8604, 24.2408], [92.8606, 24.2528], [92.8549, 24.2561], [92.8609, 24.2691], [92.8627, 24.311], [92.8508, 24.3233], [92.8234, 24.321], [92.784, 24.2968], [92.7368, 24.2233], [92.6957, 24.1857], [92.6277, 24.1777], [92.5785, 24.1374], [92.5388, 24.114], [92.5396, 24.0869], [92.5382, 24.0402]]]}}, {"type": "Feature", "properties": {"SUBDISTRICT": "Serchhip", "STATE": "Mizoram", "shapeID": "7132399B93610807132567", "source": "geoBoundaries gbOpen IND ADM3 (ODbL 1.0); source: Local Government Directory lgdirectory.gov.in via Pathways Data", "DISTRICT": "Serchhip"}, "geometry": {"type": "Polygon", "coordinates": [[[92.6866, 23.2803], [92.6947, 23.2221], [92.7075, 23.2077], [92.7033, 23.1978], [92.7164, 23.1912], [92.7235, 23.1929], [92.7274, 23.2104], [92.725, 23.2407], [92.7409, 23.2324], [92.755, 23.2329], [92.7586, 23.2268], [92.7734, 23.2333], [92.7832, 23.227], [92.8166, 23.2255], [92.8215, 23.2413], [92.8387, 23.2445], [92.8606, 23.2151], [92.8587, 23.1958], [92.8671, 23.1743], [92.8843, 23.1687], [92.9175, 23.1819], [92.9219, 23.19], [92.9384, 23.1866], [92.9398, 23.1694], [92.9465, 23.1778], [92.9448, 23.1888], [92.9354, 23.1943], [92.9275, 23.2113], [92.9265, 23.2239], [92.9195, 23.2227], [92.9276, 23.236], [92.9449, 23.2314], [92.9645, 23.2442], [92.9869, 23.2273], [93.0241, 23.2239], [93.0043, 23.2441], [92.9972, 23.2437], [92.9921, 23.2554], [92.9919, 23.2705], [93.0045, 23.2809], [93.0047, 23.2929], [93.0183, 23.3055], [93.0185, 23.3211], [93.0307, 23.3337], [93.0309, 23.3422], [93.0195, 23.3526], [93.0201, 23.3615], [93.0318, 23.3724], [93.0182, 23.3796], [93.0136, 23.3979], [93.0244, 23.4283], [93.0198, 23.4466], [93.0021, 23.4536], [93.0011, 23.4709], [92.9647, 23.4773], [92.9541, 23.5024], [92.9403, 23.5026], [92.9406, 23.4955], [92.9213, 23.4838], [92.9196, 23.5026], [92.8884, 23.5181], [92.8684, 23.5429], [92.8162, 23.5506], [92.7685, 23.537], [92.7801, 23.5172], [92.7673, 23.4949], [92.7653, 23.4319], [92.7937, 23.4261], [92.7993, 23.4158], [92.8161, 23.4084], [92.8077, 23.3637], [92.8156, 23.3574], [92.8258, 23.3288], [92.8251, 23.3137], [92.8141, 23.2948], [92.7758, 23.2906], [92.7536, 23.3163], [92.7287, 23.3158], [92.7284, 23.3238], [92.7169, 23.3302], [92.7043, 23.3176], [92.7029, 23.2901], [92.6886, 23.285], [92.6866, 23.2803]]]}}, {"type": "Feature", "properties": {"SUBDISTRICT": "Sangau", "STATE": "Mizoram", "shapeID": "7132399B97126218056957", "source": "geoBoundaries gbOpen IND ADM3 (ODbL 1.0); source: Local Government Directory lgdirectory.gov.in via Pathways Data", "DISTRICT": "Saiha"}, "geometry": {"type": "Polygon", "coordinates": [[[92.9186, 22.7365], [92.9211, 22.7226], [92.937, 22.7067], [92.934, 22.6634], [92.9551, 22.6274], [92.9539, 22.6019], [92.9896, 22.5694], [93.0127, 22.5344], [93.0314, 22.4715], [93.0627, 22.4675], [93.0878, 22.525], [93.1164, 22.5238], [93.1107, 22.5372], [93.1141, 22.5522], [93.1387, 22.5905], [93.1288, 22.6188], [93.1045, 22.6461], [93.0979, 22.7142], [93.1087, 22.7442], [93.1016, 22.7841], [93.082, 22.7971], [93.089, 22.8076], [93.0632, 22.8001], [93.0633, 22.7939], [93.0558, 22.7918], [93.0315, 22.7958], [93.0287, 22.7835], [93.0192, 22.7842], [93.01, 22.7733], [93.0059, 22.7535], [92.9801, 22.7574], [92.9604, 22.7804], [92.9419, 22.7897], [92.9244, 22.7886], [92.931, 22.7761], [92.9199, 22.7643], [92.9186, 22.7365]]]}}, {"type": "Feature", "properties": {"SUBDISTRICT": "S' Bungtlang", "STATE": "Mizoram", "shapeID": "7132399B23395447529424", "source": "geoBoundaries gbOpen IND ADM3 (ODbL 1.0); source: Local Government Directory lgdirectory.gov.in via Pathways Data", "DISTRICT": "Lawngtlai"}, "geometry": {"type": "Polygon", "coordinates": [[[92.6192, 22.4715], [92.6334, 22.4442], [92.6646, 22.4374], [92.6674, 22.4263], [92.6619, 22.4126], [92.642, 22.409], [92.6292, 22.3899], [92.6274, 22.3799], [92.6407, 22.3739], [92.6434, 22.3643], [92.628, 22.3388], [92.6396, 22.328], [92.6378, 22.3057], [92.645, 22.2947], [92.6448, 22.281], [92.6303, 22.2548], [92.6406, 22.2329], [92.6418, 22.1624], [92.6367, 22.1371], [92.6524, 22.1156], [92.6497, 22.1024], [92.6693, 22.0784], [92.6767, 22.048], [92.6823, 22.0433], [92.6919, 22.1382], [92.7071, 22.172], [92.7198, 22.1763], [92.7393, 22.1666], [92.7435, 22.1438], [92.7391, 22.1306], [92.7662, 22.1187], [92.7898, 22.1395], [92.7962, 22.1546], [92.7954, 22.1657], [92.766, 22.2029], [92.751, 22.264], [92.7335, 22.2917], [92.7311, 22.3092], [92.7383, 22.3187], [92.797, 22.3449], [92.8146, 22.3677], [92.8083, 22.4192], [92.7968, 22.4335], [92.6778, 22.4807], [92.6215, 22.4884], [92.6192, 22.4715]]]}}, {"type": "Feature", "properties": {"SUBDISTRICT": "Tlangnuam", "STATE": "Mizoram", "shapeID": "7132399B51216871704477", "source": "geoBoundaries gbOpen IND ADM3 (ODbL 1.0); source: Local Government Directory lgdirectory.gov.in via Pathways Data", "DISTRICT": "Aizawl"}, "geometry": {"type": "Polygon", "coordinates": [[[92.6179, 23.7472], [92.625, 23.7093], [92.6377, 23.705], [92.6498, 23.6858], [92.6433, 23.6562], [92.6353, 23.6553], [92.6301, 23.6425], [92.6299, 23.6256], [92.6368, 23.6245], [92.6396, 23.6125], [92.6485, 23.6124], [92.6539, 23.5997], [92.7158, 23.6315], [92.7352, 23.6348], [92.7478, 23.6235], [92.7677, 23.6288], [92.7623, 23.6699], [92.7782, 23.6835], [92.7906, 23.7518], [92.7805, 23.7766], [92.788, 23.7857], [92.7965, 23.8239], [92.8093, 23.8322], [92.8091, 23.8609], [92.7945, 23.85], [92.7586, 23.8425], [92.7129, 23.8523], [92.6675, 23.843], [92.6332, 23.8599], [92.6456, 23.8412], [92.6448, 23.8203], [92.6384, 23.8087], [92.6198, 23.7983], [92.6252, 23.7547], [92.6179, 23.7472]]]}}, {"type": "Feature", "properties": {"SUBDISTRICT": "Khawbung", "STATE": "Mizoram", "shapeID": "7132399B53855484051366", "source": "geoBoundaries gbOpen IND ADM3 (ODbL 1.0); source: Local Government Directory lgdirectory.gov.in via Pathways Data", "DISTRICT": "Champhai"}, "geometry": {"type": "Polygon", "coordinates": [[[93.1382, 23.1849], [93.1454, 23.1807], [93.1443, 23.1416], [93.1549, 23.1188], [93.1552, 23.0683], [93.161, 23.0541], [93.166, 23.0471], [93.1792, 23.0541], [93.199, 23.0524], [93.2355, 23.007], [93.2505, 23.0015], [93.293, 23.0035], [93.3129, 23.0185], [93.3511, 23.0723], [93.3433, 23.0818], [93.3598, 23.1141], [93.3877, 23.1359], [93.37, 23.1468], [93.3847, 23.2184], [93.3663, 23.2766], [93.3708, 23.3178], [93.3403, 23.3176], [93.317, 23.3416], [93.3077, 23.3411], [93.2899, 23.3249], [93.2769, 23.3245], [93.2654, 23.337], [93.2555, 23.3843], [93.2489, 23.3897], [93.2336, 23.3865], [93.2037, 23.3547], [93.1907, 23.2775], [93.1582, 23.229], [93.1569, 23.2065], [93.1383, 23.1905], [93.1382, 23.1849]]]}}, {"type": "Feature", "properties": {"SUBDISTRICT": "Phullen", "STATE": "Mizoram", "shapeID": "7132399B47095880230014", "source": "geoBoundaries gbOpen IND ADM3 (ODbL 1.0); source: Local Government Directory lgdirectory.gov.in via Pathways Data", "DISTRICT": "Aizawl"}, "geometry": {"type": "Polygon", "coordinates": [[[92.9668, 24.0964], [92.9805, 24.0756], [92.9821, 24.0362], [92.989, 24.0204], [92.9697, 23.8731], [92.9946, 23.843], [92.9857, 23.8101], [92.9941, 23.7842], [93.0071, 23.7742], [93.0568, 23.7796], [93.0991, 23.7959], [93.0993, 23.8094], [93.1209, 23.809], [93.1371, 23.8372], [93.1312, 23.8588], [93.1496, 23.8676], [93.1443, 23.8947], [93.1568, 23.906], [93.1567, 23.926], [93.1647, 23.9401], [93.1949, 23.9617], [93.1952, 23.9802], [93.1659, 24.0411], [93.1685, 24.0716], [93.1571, 24.0804], [93.1409, 24.0834], [93.128, 24.0607], [93.0996, 24.0417], [93.101, 24.0707], [93.0783, 24.0997], [93.0525, 24.0874], [92.9953, 24.1136], [92.9753, 24.1118], [92.9691, 24.1019], [92.9668, 24.0964]]]}}, {"type": "Feature", "properties": {"SUBDISTRICT": "Aibawk", "STATE": "Mizoram", "shapeID": "7132399B28720498129494", "source": "geoBoundaries gbOpen IND ADM3 (ODbL 1.0); source: Local Government Directory lgdirectory.gov.in via Pathways Data", "DISTRICT": "Aizawl"}, "geometry": {"type": "Polygon", "coordinates": [[[92.6276, 23.4956], [92.6346, 23.4955], [92.6462, 23.4765], [92.6447, 23.4507], [92.6398, 23.4498], [92.6437, 23.3921], [92.6515, 23.3814], [92.6784, 23.3788], [92.6741, 23.3666], [92.6847, 23.3671], [92.6906, 23.3548], [92.6901, 23.3279], [92.6842, 23.3263], [92.6919, 23.3073], [92.688, 23.2872], [92.7029, 23.2901], [92.7043, 23.3176], [92.7169, 23.3302], [92.7284, 23.3238], [92.7287, 23.3158], [92.7536, 23.3163], [92.7758, 23.2906], [92.8029, 23.2901], [92.8141, 23.2948], [92.8251, 23.3137], [92.8258, 23.3288], [92.8156, 23.3574], [92.8077, 23.3637], [92.8077, 23.385], [92.8153, 23.3866], [92.8144, 23.4128], [92.7993, 23.4158], [92.7937, 23.4261], [92.7653, 23.4319], [92.7673, 23.4949], [92.7736, 23.4987], [92.7803, 23.5248], [92.7685, 23.537], [92.7693, 23.5609], [92.7636, 23.5615], [92.763, 23.5797], [92.776, 23.5879], [92.7764, 23.611], [92.7689, 23.6163], [92.7677, 23.6288], [92.7478, 23.6235], [92.7352, 23.6348], [92.7158, 23.6315], [92.6539, 23.5997], [92.6579, 23.5815], [92.6345, 23.5511], [92.6394, 23.5421], [92.6278, 23.5036], [92.6276, 23.4956]]]}}, {"type": "Feature", "properties": {"SUBDISTRICT": "Thingsulthliah", "STATE": "Mizoram", "shapeID": "7132399B60567128531046", "source": "geoBoundaries gbOpen IND ADM3 (ODbL 1.0); source: Local Government Directory lgdirectory.gov.in via Pathways Data", "DISTRICT": "Aizawl"}, "geometry": {"type": "Polygon", "coordinates": [[[92.7617, 23.6608], [92.7703, 23.635], [92.7689, 23.6163], [92.7764, 23.611], [92.776, 23.5879], [92.763, 23.5797], [92.7685, 23.537], [92.8162, 23.5506], [92.8684, 23.5429], [92.8884, 23.5181], [92.9196, 23.5026], [92.9213, 23.4838], [92.9406, 23.4955], [92.9403, 23.5026], [92.9541, 23.5024], [92.9647, 23.4773], [92.9901, 23.4764], [92.9944, 23.4706], [93.0264, 23.4967], [93.0265, 23.5212], [93.015, 23.5327], [93.0163, 23.5884], [93.0106, 23.5943], [93.0114, 23.6447], [93.0167, 23.657], [93.011, 23.6618], [93.0108, 23.6946], [93.0047, 23.6991], [93.0113, 23.7041], [93.0184, 23.731], [93.0067, 23.7534], [93.0071, 23.7742], [92.9941, 23.7842], [92.9913, 23.8042], [92.9668, 23.7973], [92.9509, 23.7836], [92.8976, 23.7834], [92.8673, 23.7673], [92.8233, 23.8071], [92.8092, 23.8324], [92.8034, 23.8297], [92.7933, 23.8168], [92.788, 23.7857], [92.7805, 23.7766], [92.7906, 23.7518], [92.7829, 23.7289], [92.782, 23.6972], [92.7782, 23.6835], [92.7623, 23.6699], [92.7617, 23.6608]]]}}, {"type": "Feature", "properties": {"SUBDISTRICT": "Champhai", "STATE": "Mizoram", "shapeID": "7132399B36076747890795", "source": "geoBoundaries gbOpen IND ADM3 (ODbL 1.0); source: Local Government Directory lgdirectory.gov.in via Pathways Data", "DISTRICT": "Champhai"}, "geometry": {"type": "Polygon", "coordinates": [[[93.2465, 23.7297], [93.2629, 23.6793], [93.2637, 23.5371], [93.2667, 23.483], [93.2749, 23.4521], [93.3052, 23.4203], [93.3263, 23.4151], [93.3915, 23.423], [93.4, 23.4679], [93.3948, 23.4774], [93.398, 23.4947], [93.4183, 23.5349], [93.4171, 23.5607], [93.425, 23.5801], [93.4214, 23.65], [93.4376, 23.6805], [93.412, 23.7067], [93.3999, 23.7499], [93.4053, 23.8004], [93.3921, 23.8279], [93.3895, 23.8492], [93.3923, 23.9221], [93.3652, 23.9327], [93.3424, 23.9149], [93.3345, 23.8991], [93.3342, 23.8791], [93.3447, 23.8491], [93.3296, 23.8333], [93.3367, 23.8003], [93.3137, 23.8015], [93.3062, 23.7881], [93.2766, 23.7688], [93.2614, 23.7458], [93.2465, 23.7297]]]}}, {"type": "Feature", "properties": {"SUBDISTRICT": "Ngopa", "STATE": "Mizoram", "shapeID": "7132399B8947963734886", "source": "geoBoundaries gbOpen IND ADM3 (ODbL 1.0); source: Local Government Directory lgdirectory.gov.in via Pathways Data", "DISTRICT": "Champhai"}, "geometry": {"type": "Polygon", "coordinates": [[[93.0047, 23.6991], [93.0108, 23.6946], [93.0109, 23.6747], [93.0522, 23.6724], [93.0682, 23.6785], [93.099, 23.6421], [93.1168, 23.6399], [93.1538, 23.6612], [93.1599, 23.6811], [93.1492, 23.7214], [93.1493, 23.771], [93.1637, 23.7753], [93.1811, 23.7628], [93.1858, 23.7325], [93.1946, 23.7261], [93.236, 23.7254], [93.2465, 23.7297], [93.2766, 23.7688], [93.3062, 23.7881], [93.3137, 23.8015], [93.3367, 23.8003], [93.3296, 23.8333], [93.3447, 23.8491], [93.3342, 23.8791], [93.3345, 23.8991], [93.3466, 23.9201], [93.3652, 23.9327], [93.3479, 23.9703], [93.3313, 23.9831], [93.3353, 23.9944], [93.3286, 24.011], [93.3396, 24.0237], [93.3318, 24.0321], [93.3314, 24.0497], [93.2867, 24.0478], [93.2724, 24.0302], [93.2538, 24.0201], [93.2509, 24.0301], [93.2651, 24.0565], [93.2622, 24.0691], [93.2409, 24.0829], [93.2224, 24.0804], [93.2153, 24.0465], [93.1681, 24.0522], [93.1718, 24.0209], [93.1952, 23.9802], [93.1949, 23.9617], [93.1647, 23.9401], [93.1567, 23.926], [93.1568, 23.906], [93.1443, 23.8947], [93.1496, 23.8676], [93.1312, 23.8588], [93.1371, 23.8372], [93.1209, 23.809], [93.0993, 23.8094], [93.0991, 23.7959], [93.0568, 23.7796], [93.0071, 23.7742], [93.0067, 23.7534], [93.019, 23.7229], [93.0116, 23.7172], [93.0113, 23.7041], [93.0047, 23.6991]]]}}, {"type": "Feature", "properties": {"SUBDISTRICT": "Chawngte", "STATE": "Mizoram", "shapeID": "7132399B5272627215320", "source": "geoBoundaries gbOpen IND ADM3 (ODbL 1.0); source: Local Government Directory lgdirectory.gov.in via Pathways Data", "DISTRICT": "Lawngtlai"}, "geometry": {"type": "Polygon", "coordinates": [[[92.5083, 22.7306], [92.5163, 22.7163], [92.5285, 22.655], [92.526, 22.6354], [92.5313, 22.63], [92.5239, 22.6179], [92.5365, 22.5844], [92.536, 22.5688], [92.528, 22.565], [92.5253, 22.5539], [92.5456, 22.5169], [92.5452, 22.4653], [92.5801, 22.3132], [92.5768, 22.2712], [92.5888, 22.2505], [92.599, 22.1703], [92.609, 22.1642], [92.6039, 22.1259], [92.5901, 22.1268], [92.5842, 22.1375], [92.5644, 22.1293], [92.5963, 22.0583], [92.5925, 22.0408], [92.6088, 21.9759], [92.6313, 21.9869], [92.6436, 22.0117], [92.6775, 22.0155], [92.6823, 22.0433], [92.6693, 22.0784], [92.6497, 22.1024], [92.6524, 22.1156], [92.647, 22.1277], [92.6367, 22.1371], [92.6418, 22.1624], [92.6406, 22.2329], [92.6303, 22.2548], [92.6448, 22.281], [92.645, 22.2947], [92.6378, 22.3057], [92.6396, 22.328], [92.628, 22.3388], [92.6434, 22.3643], [92.6407, 22.3739], [92.6269, 22.3839], [92.642, 22.409], [92.6272, 22.4231], [92.6267, 22.4402], [92.6334, 22.4442], [92.6195, 22.4658], [92.6215, 22.4884], [92.6087, 22.5276], [92.6218, 22.5522], [92.6194, 22.5742], [92.6264, 22.5761], [92.629, 22.5899], [92.6413, 22.6005], [92.649, 22.6354], [92.6426, 22.6504], [92.6322, 22.6567], [92.6332, 22.6669], [92.6223, 22.6706], [92.6196, 22.6808], [92.6118, 22.6795], [92.6024, 22.6949], [92.6019, 22.7204], [92.588, 22.7469], [92.5838, 22.7489], [92.5806, 22.7372], [92.5702, 22.7307], [92.5466, 22.7565], [92.5239, 22.7606], [92.5086, 22.7434], [92.5126, 22.7394], [92.5083, 22.7306]]]}}, {"type": "Feature", "properties": {"SUBDISTRICT": "West Phaileng", "STATE": "Mizoram", "shapeID": "7132399B24724692185716", "source": "geoBoundaries gbOpen IND ADM3 (ODbL 1.0); source: Local Government Directory lgdirectory.gov.in via Pathways Data", "DISTRICT": "Mamit"}, "geometry": {"type": "Polygon", "coordinates": [[[92.2658, 23.7371], [92.2704, 23.7153], [92.2899, 23.6943], [92.2732, 23.6265], [92.2854, 23.6256], [92.2893, 23.6195], [92.2824, 23.5953], [92.3021, 23.5803], [92.3285, 23.4499], [92.3274, 23.4231], [92.3405, 23.4249], [92.3519, 23.4045], [92.3525, 23.3793], [92.3702, 23.3636], [92.3765, 23.3484], [92.367, 23.3232], [92.381, 23.3049], [92.3856, 23.2653], [92.4086, 23.266], [92.4208, 23.2566], [92.4183, 23.2615], [92.4409, 23.2766], [92.4365, 23.2842], [92.4538, 23.2864], [92.4659, 23.3183], [92.4751, 23.3215], [92.4706, 23.3418], [92.4626, 23.3491], [92.4677, 23.3593], [92.4599, 23.3651], [92.4668, 23.3886], [92.4781, 23.3897], [92.4908, 23.3813], [92.4971, 23.3898], [92.5116, 23.3786], [92.5436, 23.3792], [92.558, 23.3693], [92.5601, 23.421], [92.5368, 23.4678], [92.5302, 23.4965], [92.5163, 23.508], [92.5091, 23.5561], [92.5023, 23.5662], [92.5137, 23.6186], [92.5072, 23.6407], [92.5128, 23.6588], [92.5081, 23.684], [92.5196, 23.7283], [92.512, 23.7484], [92.5141, 23.763], [92.4368, 23.7515], [92.4405, 23.7672], [92.4109, 23.7883], [92.3899, 23.764], [92.3764, 23.7348], [92.3308, 23.7353], [92.3118, 23.7513], [92.2673, 23.7684], [92.2677, 23.7548], [92.2658, 23.7371]]]}}, {"type": "Feature", "properties": {"SUBDISTRICT": "Reiek", "STATE": "Mizoram", "shapeID": "7132399B89556864546409", "source": "geoBoundaries gbOpen IND ADM3 (ODbL 1.0); source: Local Government Directory lgdirectory.gov.in via Pathways Data", "DISTRICT": "Mamit"}, "geometry": {"type": "Polygon", "coordinates": [[[92.5023, 23.5662], [92.5091, 23.5561], [92.5163, 23.508], [92.5302, 23.4965], [92.5368, 23.4678], [92.5601, 23.421], [92.558, 23.3693], [92.5868, 23.3812], [92.5921, 23.4045], [92.6138, 23.3941], [92.6189, 23.385], [92.6372, 23.391], [92.6515, 23.3814], [92.6437, 23.3921], [92.6453, 23.4268], [92.6395, 23.4329], [92.6462, 23.4765], [92.6346, 23.4955], [92.6276, 23.4956], [92.6278, 23.5036], [92.6394, 23.5421], [92.6345, 23.5511], [92.6579, 23.5815], [92.6591, 23.5924], [92.6485, 23.6124], [92.6396, 23.6125], [92.6368, 23.6245], [92.6299, 23.6256], [92.6301, 23.6425], [92.6353, 23.6553], [92.6433, 23.6562], [92.6498, 23.6858], [92.6377, 23.705], [92.625, 23.7093], [92.6179, 23.7472], [92.6252, 23.7547], [92.6198, 23.7983], [92.6384, 23.8087], [92.6448, 23.8203], [92.6456, 23.8412], [92.6332, 23.8599], [92.6346, 23.8848], [92.6394, 23.8959], [92.6471, 23.8968], [92.6468, 23.9091], [92.6362, 23.92], [92.6204, 23.9213], [92.6159, 23.9473], [92.6099, 23.9523], [92.6165, 23.9817], [92.622, 23.981], [92.6298, 24.0006], [92.6165, 24.0186], [92.6298, 24.038], [92.612, 24.0414], [92.5941, 24.0755], [92.5801, 24.0819], [92.5751, 24.0771], [92.575, 24.0384], [92.564, 24.0386], [92.5643, 24.0564], [92.5508, 24.0584], [92.5445, 24.053], [92.5351, 24.0323], [92.537, 24.0113], [92.522, 23.9903], [92.5252, 23.9674], [92.5323, 23.9622], [92.5157, 23.9369], [92.5218, 23.9277], [92.5177, 23.8877], [92.523, 23.8631], [92.5168, 23.8483], [92.523, 23.7917], [92.512, 23.7583], [92.5196, 23.7283], [92.5081, 23.684], [92.5128, 23.6588], [92.5079, 23.6284], [92.5137, 23.6186], [92.5037, 23.5832], [92.5023, 23.5662]]]}}, {"type": "Feature", "properties": {"SUBDISTRICT": "Zawlnuam", "STATE": "Mizoram", "shapeID": "7132399B64005003667266", "source": "geoBoundaries gbOpen IND ADM3 (ODbL 1.0); source: Local Government Directory lgdirectory.gov.in via Pathways Data", "DISTRICT": "Mamit"}, "geometry": {"type": "Polygon", "coordinates": [[[92.2589, 23.8134], [92.2673, 23.7684], [92.3432, 23.7328], [92.3804, 23.738], [92.3899, 23.764], [92.4109, 23.7883], [92.4405, 23.7672], [92.4368, 23.7515], [92.5141, 23.763], [92.523, 23.7917], [92.5168, 23.8483], [92.523, 23.8631], [92.5177, 23.8877], [92.5218, 23.9277], [92.5157, 23.9369], [92.5323, 23.9622], [92.5252, 23.9674], [92.5217, 23.9842], [92.537, 24.0113], [92.5388, 24.114], [92.5444, 24.1194], [92.5449, 24.1489], [92.5341, 24.165], [92.5406, 24.1803], [92.5327, 24.1848], [92.5292, 24.1726], [92.5147, 24.1733], [92.5082, 24.167], [92.5123, 24.1604], [92.5044, 24.1652], [92.4997, 24.1584], [92.4854, 24.1601], [92.4804, 24.1392], [92.4655, 24.1327], [92.4435, 24.151], [92.4362, 24.1504], [92.4338, 24.1793], [92.4186, 24.1923], [92.4221, 24.2511], [92.2965, 24.2499], [92.2975, 24.2254], [92.3007, 24.2202], [92.3136, 24.2211], [92.3096, 24.213], [92.3244, 24.2039], [92.32, 24.2007], [92.3292, 24.1893], [92.3283, 24.1643], [92.3366, 24.1449], [92.328, 24.1368], [92.3312, 24.0969], [92.3287, 24.0803], [92.3225, 24.0757], [92.327, 24.0727], [92.3165, 24.065], [92.3214, 24.0569], [92.3138, 24.0329], [92.3286, 23.9879], [92.311, 23.9588], [92.313, 23.9328], [92.3292, 23.9213], [92.3307, 23.91], [92.3158, 23.8815], [92.3197, 23.8641], [92.2946, 23.8638], [92.2915, 23.8698], [92.2735, 23.84], [92.2863, 23.8151], [92.269, 23.8161], [92.2589, 23.8134]]]}}, {"type": "Feature", "properties": {"SUBDISTRICT": "West Bunghmun", "STATE": "Mizoram", "shapeID": "7132399B84020531906386", "source": "geoBoundaries gbOpen IND ADM3 (ODbL 1.0); source: Local Government Directory lgdirectory.gov.in via Pathways Data", "DISTRICT": "Lunglei"}, "geometry": {"type": "Polygon", "coordinates": [[[92.3484, 23.2343], [92.354, 23.2179], [92.3499, 23.1912], [92.358, 23.1631], [92.3556, 23.1374], [92.3637, 23.1199], [92.3583, 23.1037], [92.3833, 23.0735], [92.388, 23.0513], [92.3793, 23.0103], [92.4245, 23.0065], [92.4676, 23.0194], [92.4959, 23.0101], [92.5197, 23.0146], [92.5383, 23.0527], [92.5517, 23.0654], [92.556, 23.1058], [92.539, 23.1302], [92.541, 23.1382], [92.5544, 23.1457], [92.5725, 23.1393], [92.6219, 23.0951], [92.6493, 23.0581], [92.6571, 23.0569], [92.675, 22.9455], [92.7186, 22.9986], [92.7319, 23.0549], [92.7236, 23.0668], [92.7194, 23.1171], [92.704, 23.1493], [92.7075, 23.2077], [92.6947, 23.2221], [92.6866, 23.2803], [92.6919, 23.3073], [92.6842, 23.3263], [92.6901, 23.3279], [92.6906, 23.3548], [92.6847, 23.3671], [92.6741, 23.3666], [92.6796, 23.3718], [92.6727, 23.3827], [92.6471, 23.3817], [92.6372, 23.391], [92.6189, 23.385], [92.6138, 23.3941], [92.5921, 23.4045], [92.5868, 23.3812], [92.5686, 23.3775], [92.5637, 23.369], [92.5436, 23.3792], [92.5116, 23.3786], [92.4971, 23.3898], [92.4908, 23.3813], [92.4781, 23.3897], [92.4668, 23.3886], [92.4599, 23.3651], [92.4677, 23.3593], [92.4626, 23.3491], [92.4706, 23.3418], [92.4751, 23.3215], [92.4659, 23.3183], [92.4538, 23.2864], [92.4365, 23.2842], [92.4409, 23.2766], [92.4183, 23.2615], [92.4208, 23.2566], [92.4086, 23.266], [92.3688, 23.2627], [92.3624, 23.2419], [92.35, 23.2382], [92.3484, 23.2343]]]}}, {"type": "Feature", "properties": {"SUBDISTRICT": "Lungsen", "STATE": "Mizoram", "shapeID": "7132399B91573373787416", "source": "geoBoundaries gbOpen IND ADM3 (ODbL 1.0); source: Local Government Directory lgdirectory.gov.in via Pathways Data", "DISTRICT": "Lunglei"}, "geometry": {"type": "Polygon", "coordinates": [[[92.3722, 22.9404], [92.376, 22.9274], [92.3931, 22.9245], [92.3974, 22.9122], [92.416, 22.9092], [92.427, 22.8933], [92.4405, 22.8869], [92.4603, 22.8533], [92.4591, 22.8407], [92.4499, 22.8341], [92.4632, 22.8031], [92.4746, 22.7451], [92.5083, 22.7306], [92.5126, 22.7394], [92.5086, 22.7434], [92.5176, 22.7556], [92.54, 22.7593], [92.5702, 22.7307], [92.5806, 22.7372], [92.5838, 22.7489], [92.588, 22.7469], [92.6019, 22.7204], [92.6024, 22.6949], [92.6118, 22.6795], [92.6196, 22.6808], [92.6223, 22.6706], [92.6332, 22.6669], [92.6322, 22.6567], [92.6449, 22.6461], [92.6474, 22.6169], [92.675, 22.6245], [92.6966, 22.6205], [92.6984, 22.5899], [92.7555, 22.5415], [92.7648, 22.4979], [92.7819, 22.4982], [92.7786, 22.5299], [92.804, 22.567], [92.7972, 22.6024], [92.7726, 22.605], [92.7794, 22.6376], [92.7691, 22.6725], [92.7655, 22.7162], [92.76, 22.7185], [92.7342, 22.705], [92.7144, 22.7108], [92.697, 22.6992], [92.6893, 22.7016], [92.6628, 22.8253], [92.6484, 22.845], [92.6507, 22.8648], [92.6351, 22.8734], [92.6297, 22.897], [92.675, 22.9455], [92.6686, 23.0002], [92.6586, 23.0267], [92.6603, 23.0499], [92.6219, 23.0951], [92.5725, 23.1393], [92.5635, 23.145], [92.5471, 23.1436], [92.539, 23.1302], [92.556, 23.1058], [92.5567, 23.0851], [92.5517, 23.0654], [92.5383, 23.0527], [92.5197, 23.0146], [92.4959, 23.0101], [92.4676, 23.0194], [92.4245, 23.0065], [92.3793, 23.0103], [92.3824, 22.9934], [92.3743, 22.9666], [92.3722, 22.9404]]]}}, {"type": "Feature", "properties": {"SUBDISTRICT": "Lawngtlai", "STATE": "Mizoram", "shapeID": "7132399B73294925645165", "source": "geoBoundaries gbOpen IND ADM3 (ODbL 1.0); source: Local Government Directory lgdirectory.gov.in via Pathways Data", "DISTRICT": "Lawngtlai"}, "geometry": {"type": "MultiPolygon", "coordinates": [[[[92.6087, 22.5276], [92.6215, 22.4884], [92.6778, 22.4807], [92.7968, 22.4335], [92.8083, 22.4192], [92.8146, 22.3677], [92.797, 22.3449], [92.7383, 22.3187], [92.7311, 22.3092], [92.7335, 22.2917], [92.751, 22.264], [92.766, 22.2029], [92.7954, 22.1657], [92.7898, 22.1395], [92.7662, 22.1187], [92.8061, 22.0962], [92.8417, 22.0624], [92.8629, 22.0601], [92.8501, 22.1194], [92.8507, 22.2129], [92.8577, 22.2246], [92.8495, 22.2327], [92.8372, 22.3076], [92.8536, 22.3058], [92.8624, 22.2936], [92.8823, 22.3047], [92.8887, 22.3327], [92.9081, 22.3409], [92.9344, 22.3725], [92.9479, 22.3725], [92.9479, 22.3643], [92.9602, 22.3532], [92.9742, 22.3538], [92.9807, 22.3684], [92.9701, 22.3911], [92.9537, 22.4075], [92.9467, 22.4543], [92.9475, 22.5281], [92.9388, 22.5577], [92.913, 22.5448], [92.8997, 22.5837], [92.8837, 22.5816], [92.845, 22.6206], [92.8081, 22.6272], [92.8037, 22.6071], [92.7965, 22.6048], [92.804, 22.567], [92.7779, 22.527], [92.7819, 22.4982], [92.7648, 22.4979], [92.7555, 22.5415], [92.6984, 22.5899], [92.6966, 22.6205], [92.675, 22.6245], [92.6474, 22.6169], [92.6264, 22.5761], [92.6194, 22.5742], [92.6218, 22.5522], [92.613, 22.5368], [92.6087, 22.5276]]], [[[92.6267, 22.4402], [92.6272, 22.4231], [92.642, 22.409], [92.6619, 22.4126], [92.667, 22.4177], [92.6646, 22.4374], [92.6334, 22.4442], [92.6267, 22.4402]]], [[[92.6965, 22.149], [92.7224, 22.1484], [92.7391, 22.1306], [92.7435, 22.1438], [92.7393, 22.1666], [92.7279, 22.1747], [92.7125, 22.1759], [92.7007, 22.1624], [92.6965, 22.149]]]]}}, {"type": "Feature", "properties": {"SUBDISTRICT": "Darlawn", "STATE": "Mizoram", "shapeID": "7132399B65725360661602", "source": "geoBoundaries gbOpen IND ADM3 (ODbL 1.0); source: Local Government Directory lgdirectory.gov.in via Pathways Data", "DISTRICT": "Aizawl"}, "geometry": {"type": "Polygon", "coordinates": [[[92.7932, 23.8775], [92.8091, 23.8609], [92.8093, 23.8322], [92.8233, 23.8071], [92.8673, 23.7673], [92.8976, 23.7834], [92.9509, 23.7836], [92.9668, 23.7973], [92.9885, 23.8042], [92.9855, 23.8168], [92.9946, 23.843], [92.9697, 23.8731], [92.9889, 24.027], [92.9821, 24.0362], [92.9805, 24.0756], [92.9668, 24.0964], [92.9753, 24.1118], [92.9725, 24.1208], [92.9883, 24.1287], [92.9901, 24.1472], [93.0044, 24.1575], [93.0022, 24.1709], [93.0098, 24.1791], [93.002, 24.1944], [93.0155, 24.1969], [93.0212, 24.2069], [93.0184, 24.2257], [93.0255, 24.2294], [93.0057, 24.2508], [93.0129, 24.2685], [93.0072, 24.2773], [93.0343, 24.3152], [93.0424, 24.3402], [93.0206, 24.3436], [93.0212, 24.371], [93.0162, 24.3768], [93.0234, 24.3873], [92.9996, 24.4001], [92.9794, 24.4066], [92.9595, 24.3928], [92.9505, 24.4018], [92.9349, 24.3925], [92.9108, 24.4099], [92.9044, 24.3915], [92.8914, 24.3954], [92.8852, 24.3862], [92.8945, 24.3816], [92.8866, 24.3573], [92.8532, 24.3331], [92.8508, 24.3233], [92.8627, 24.311], [92.8609, 24.2691], [92.8549, 24.2561], [92.8606, 24.2528], [92.8604, 24.2408], [92.885, 24.2367], [92.8862, 24.244], [92.8988, 24.2438], [92.8983, 24.2166], [92.892, 24.213], [92.8845, 24.1729], [92.8727, 24.1579], [92.8578, 24.0879], [92.851, 24.0843], [92.839, 24.0531], [92.8385, 24.0286], [92.8142, 23.9876], [92.8047, 23.9236], [92.7952, 23.8985], [92.8012, 23.889], [92.7932, 23.8775]]]}}]}