{"type":"FeatureCollection","features":[{"type":"Feature","properties":{"SUBDISTRICT":"Sekruzu","STATE":"Nagaland","shapeID":"7132399B92088932792520","source":"geoBoundaries gbOpen IND ADM3 (ODbL 1.0); source: Local Government Directory lgdirectory.gov.in via Pathways Data","DISTRICT":"Phek"},"geometry":{"type":"Polygon","coordinates":[[[94.3164,25.7704],[94.3258,25.7553],[94.3436,25.7531],[94.3559,25.7297],[94.3645,25.7402],[94.3957,25.7471],[94.4092,25.7625],[94.4311,25.768],[94.4373,25.7772],[94.4325,25.779],[94.4347,25.8069],[94.4687,25.8306],[94.4614,25.8435],[94.4098,25.8369],[94.3318,25.8016],[94.3171,25.7725],[94.3164,25.7704]]]}},{"type":"Feature","properties":{"SUBDISTRICT":"Chingmei","STATE":"Nagaland","shapeID":"7132399B50242502980064","source":"geoBoundaries gbOpen IND ADM3 (ODbL 1.0); source: Local Government Directory lgdirectory.gov.in via Pathways Data","DISTRICT":"Tuensang"},"geometry":{"type":"Polygon","coordinates":[[[94.8931,26.2174],[94.9031,26.2016],[94.9163,26.1991],[95.0091,26.206],[95.0052,26.2226],[95.0102,26.2428],[95.0429,26.2819],[95.0483,26.3152],[95.0201,26.3047],[95.0096,26.2918],[94.9854,26.2967],[94.9599,26.2921],[94.9393,26.2981],[94.9397,26.28],[94.9278,26.2545],[94.895,26.2195],[94.8931,26.2174]]]}},{"type":"Feature","properties":{"SUBDISTRICT":"Changpang","STATE":"Nagaland","shapeID":"7132399B15494668365351","source":"geoBoundaries gbOpen IND ADM3 (ODbL 1.0); source: Local Government Directory lgdirectory.gov.in via Pathways Data","DISTRICT":"Wokha"},"geometry":{"type":"Polygon","coordinates":[[[94.1648,26.3556],[94.1676,26.3495],[94.1803,26.3495],[94.1803,26.3424],[94.2246,26.3357],[94.2331,26.3399],[94.241,26.354],[94.2534,26.3592],[94.2545,26.3745],[94.2768,26.3921],[94.2828,26.4049],[94.2805,26.417],[94.2927,26.4184],[94.3171,26.4551],[94.2943,26.4761],[94.2854,26.5357],[94.2903,26.5596],[94.2828,26.559],[94.2403,26.5069],[94.2119,26.4854],[94.2015,26.4654],[94.187,26.456],[94.1762,26.4273],[94.1794,26.3842],[94.1714,26.361],[94.1648,26.3556]]]}},{"type":"Feature","properties":{"SUBDISTRICT":"Englan","STATE":"Nagaland","shapeID":"7132399B39057896169254","source":"geoBoundaries gbOpen IND ADM3 (ODbL 1.0); source: Local Government Directory lgdirectory.gov.in via Pathways Data","DISTRICT":"Wokha"},"geometry":{"type":"Polygon","coordinates":[[[94.2272,26.1915],[94.2413,26.1796],[94.2391,26.1603],[94.2475,26.1498],[94.2761,26.1443],[94.2803,26.1534],[94.2916,26.1559],[94.295,26.1669],[94.3055,26.1684],[94.3043,26.1745],[94.3219,26.1802],[94.3279,26.1973],[94.318,26.1961],[94.3189,26.2068],[94.296,26.2173],[94.2971,26.2318],[94.286,26.2344],[94.2812,26.2291],[94.2743,26.2358],[94.2657,26.2262],[94.2529,26.224],[94.2555,26.219],[94.2284,26.1923],[94.2272,26.1915]]]}},{"type":"Feature","properties":{"SUBDISTRICT":"Niuland","STATE":"Nagaland","shapeID":"7132399B78352882527534","source":"geoBoundaries gbOpen IND ADM3 (ODbL 1.0); source: Local Government Directory lgdirectory.gov.in via Pathways Data","DISTRICT":"Wokha"},"geometry":{"type":"Polygon","coordinates":[[[93.9691,25.9563],[93.971,25.9403],[93.9825,25.9217],[94.0018,25.9228],[94.0019,25.9311],[94.021,25.9414],[94.0424,25.94],[94.0404,25.9678],[94.0211,25.9611],[94.0266,25.9542],[94.0149,25.9567],[94.016,25.9471],[93.9715,25.9568],[93.9691,25.9563]]]}},{"type":"Feature","properties":{"SUBDISTRICT":"Khongsa","STATE":"Nagaland","shapeID":"7132399B34092961669795","source":"geoBoundaries gbOpen IND ADM3 (ODbL 1.0); source: Local Government Directory lgdirectory.gov.in via Pathways Data","DISTRICT":"Tuensang"},"geometry":{"type":"Polygon","coordinates":[[[94.8697,25.795],[94.8754,25.7845],[94.9226,25.7724],[94.9835,25.7139],[94.9906,25.7208],[95.0337,25.7304],[95.0423,25.7476],[95.0307,25.8462],[95.0132,25.834],[94.9949,25.8403],[94.9822,25.8352],[94.9745,25.8464],[94.9505,25.8513],[94.9315,25.8307],[94.8869,25.8207],[94.8713,25.8049],[94.8697,25.795]]]}},{"type":"Feature","properties":{"SUBDISTRICT":"Mon Sadar","STATE":"Nagaland","shapeID":"7132399B8579934177771","source":"geoBoundaries gbOpen IND ADM3 (ODbL 1.0); source: Local Government Directory lgdirectory.gov.in via Pathways Data","DISTRICT":"Mon"},"geometry":{"type":"Polygon","coordinates":[[[94.8973,26.6267],[94.9049,26.6209],[94.9203,26.633],[94.9277,26.6279],[94.9523,26.6379],[94.9648,26.6254],[95.0228,26.616],[95.0411,26.6199],[95.0456,26.632],[95.0565,26.6371],[95.0557,26.6593],[95.0651,26.6579],[95.0678,26.6673],[95.0602,26.6652],[95.0661,26.6744],[95.0563,26.6696],[95.0511,26.6796],[95.0637,26.6918],[95.065,26.7028],[95.0798,26.7033],[95.1016,26.7209],[95.0934,26.7432],[95.1272,26.7876],[95.1156,26.7854],[95.0932,26.799],[95.0851,26.8479],[95.0774,26.8535],[95.0414,26.8556],[95.0337,26.8689],[95.0194,26.8615],[95.0197,26.8658],[94.9908,26.8652],[94.9465,26.8852],[94.9355,26.867],[94.9219,26.8583],[94.9407,26.8324],[94.9363,26.8178],[94.9437,26.7855],[94.9234,26.7706],[94.9375,26.7481],[94.9617,26.7496],[94.9723,26.7234],[94.9635,26.715],[94.9687,26.7153],[94.9633,26.7112],[94.9693,26.7042],[94.9578,26.6989],[94.9572,26.6922],[94.9531,26.6953],[94.9507,26.6821],[94.9247,26.6426],[94.9038,26.6375],[94.8981,26.6281],[94.8973,26.6267]]]}},{"type":"Feature","properties":{"SUBDISTRICT":"Aboi","STATE":"Nagaland","shapeID":"7132399B9972311974060","source":"geoBoundaries gbOpen IND ADM3 (ODbL 1.0); source: Local Government Directory lgdirectory.gov.in via Pathways Data","DISTRICT":"Mon"},"geometry":{"type":"Polygon","coordinates":[[[94.8842,26.5752],[94.8925,26.5456],[94.8983,26.5542],[94.9334,26.553],[94.9563,26.5618],[94.967,26.5357],[94.9737,26.5323],[95.0182,26.5303],[95.0306,26.5392],[95.0345,26.5542],[95.0361,26.5665],[95.0099,26.6034],[95.0117,26.621],[94.9648,26.6254],[94.9523,26.6379],[94.9277,26.6279],[94.9203,26.633],[94.8993,26.6216],[94.9036,26.6152],[94.8903,26.6108],[94.8946,26.603],[94.8891,26.5915],[94.8961,26.5922],[94.885,26.5805],[94.8842,26.5752]]]}},{"type":"Feature","properties":{"SUBDISTRICT":"Alongkima","STATE":"Nagaland","shapeID":"7132399B8113639290072","source":"geoBoundaries gbOpen IND ADM3 (ODbL 1.0); source: Local Government Directory lgdirectory.gov.in via Pathways Data","DISTRICT":"Mokokchung"},"geometry":{"type":"Polygon","coordinates":[[[94.4444,26.5118],[94.4534,26.4926],[94.4493,26.4615],[94.4621,26.4553],[94.4686,26.4429],[94.4812,26.443],[94.486,26.4312],[94.492,26.442],[94.5023,26.44],[94.497,26.4459],[94.4987,26.46],[94.508,26.4605],[94.5052,26.4651],[94.5107,26.4646],[94.5159,26.4781],[94.5325,26.4837],[94.5291,26.4885],[94.5445,26.5031],[94.5525,26.4978],[94.5475,26.5083],[94.5567,26.5202],[94.5536,26.5273],[94.5605,26.535],[94.5562,26.5375],[94.5637,26.5397],[94.5612,26.5469],[94.5697,26.552],[94.5655,26.563],[94.5955,26.5803],[94.6013,26.5875],[94.5989,26.5993],[94.6121,26.6039],[94.6126,26.6118],[94.6168,26.6081],[94.6397,26.6299],[94.6463,26.6276],[94.6453,26.647],[94.6547,26.6566],[94.6463,26.6642],[94.6338,26.7094],[94.6215,26.7161],[94.6105,26.7351],[94.6004,26.7328],[94.5938,26.7212],[94.6036,26.7188],[94.6051,26.7122],[94.5987,26.7149],[94.5928,26.6977],[94.5832,26.7006],[94.5719,26.6912],[94.5751,26.686],[94.5595,26.6742],[94.5644,26.6692],[94.5579,26.6676],[94.5592,26.6609],[94.5499,26.661],[94.5432,26.6527],[94.5373,26.6249],[94.5289,26.6226],[94.5353,26.6198],[94.5283,26.6179],[94.5358,26.6165],[94.5336,26.6079],[94.5155,26.6002],[94.5041,26.577],[94.4956,26.5805],[94.4978,26.57],[94.4737,26.5673],[94.4446,26.5133],[94.4444,26.5118]]]}},{"type":"Feature","properties":{"SUBDISTRICT":"Chuchuyimlang","STATE":"Nagaland","shapeID":"7132399B85519019962556","source":"geoBoundaries gbOpen IND ADM3 (ODbL 1.0); source: Local Government Directory lgdirectory.gov.in via Pathways Data","DISTRICT":"Mokokchung"},"geometry":{"type":"Polygon","coordinates":[[[94.529,26.488],[94.5825,26.4779],[94.5839,26.4628],[94.5655,26.4408],[94.5757,26.4006],[94.5681,26.3913],[94.5693,26.3767],[94.6412,26.3854],[94.6622,26.3761],[94.7061,26.4124],[94.7113,26.4395],[94.7022,26.4682],[94.6862,26.479],[94.6433,26.4793],[94.6254,26.4912],[94.6026,26.4919],[94.5944,26.5028],[94.5813,26.5061],[94.5906,26.5143],[94.5846,26.524],[94.589,26.5307],[94.5784,26.5399],[94.5572,26.5389],[94.5567,26.5202],[94.5475,26.5083],[94.5525,26.4978],[94.5445,26.5031],[94.5291,26.4885],[94.529,26.488]]]}},{"type":"Feature","properties":{"SUBDISTRICT":"Suruhuto","STATE":"Nagaland","shapeID":"7132399B4095921882891","source":"geoBoundaries gbOpen IND ADM3 (ODbL 1.0); source: Local Government Directory lgdirectory.gov.in via Pathways Data","DISTRICT":"Zunheboto"},"geometry":{"type":"Polygon","coordinates":[[[94.5049,26.2096],[94.5215,26.1807],[94.5189,26.175],[94.5452,26.1536],[94.5414,26.1454],[94.5455,26.1412],[94.5402,26.1428],[94.5364,26.1349],[94.5417,26.1259],[94.5394,26.1125],[94.6325,26.1001],[94.6304,26.1119],[94.6378,26.1221],[94.6376,26.1395],[94.6321,26.143],[94.6454,26.1561],[94.6413,26.1665],[94.6442,26.1769],[94.652,26.1794],[94.6472,26.1876],[94.6562,26.2019],[94.6425,26.218],[94.63,26.203],[94.6139,26.1971],[94.597,26.205],[94.5873,26.2185],[94.5504,26.2025],[94.5351,26.2171],[94.5241,26.2108],[94.5058,26.2124],[94.5049,26.2096]]]}},{"type":"Feature","properties":{"SUBDISTRICT":"Zunheboto Sadar","STATE":"Nagaland","shapeID":"7132399B52906960924755","source":"geoBoundaries gbOpen IND ADM3 (ODbL 1.0); source: Local Government Directory lgdirectory.gov.in via Pathways Data","DISTRICT":"Zunheboto"},"geometry":{"type":"Polygon","coordinates":[[[94.4299,26.0303],[94.4379,26.0211],[94.439,25.9885],[94.45,25.9859],[94.471,25.9661],[94.4816,25.9707],[94.4982,25.9589],[94.539,25.947],[94.5466,25.9719],[94.5617,25.9849],[94.5667,26.0024],[94.5959,26.0261],[94.5912,26.0358],[94.5977,26.0393],[94.5954,26.0441],[94.6031,26.0433],[94.6017,26.0516],[94.6079,26.0513],[94.6099,26.0625],[94.6167,26.0655],[94.6284,26.0958],[94.6015,26.108],[94.5422,26.1123],[94.5403,26.0907],[94.5085,26.0802],[94.4845,26.0494],[94.4682,26.0421],[94.4666,26.0293],[94.4473,26.0359],[94.4314,26.0309],[94.4299,26.0303]]]}},{"type":"Feature","properties":{"SUBDISTRICT":"Bhandari","STATE":"Nagaland","shapeID":"7132399B48788454678533","source":"geoBoundaries gbOpen IND ADM3 (ODbL 1.0); source: Local Government Directory lgdirectory.gov.in via Pathways Data","DISTRICT":"Wokha"},"geometry":{"type":"Polygon","coordinates":[[[93.9838,26.0582],[93.9973,26.0543],[93.9938,26.0485],[94.003,26.049],[94.0135,26.0625],[94.0376,26.0675],[94.0536,26.0862],[94.0647,26.0865],[94.0705,26.1002],[94.0801,26.0994],[94.0774,26.1075],[94.095,26.1134],[94.1078,26.1393],[94.1232,26.1451],[94.1331,26.1659],[94.1445,26.1665],[94.1523,26.1879],[94.1709,26.1969],[94.1692,26.2077],[94.1857,26.2282],[94.1794,26.2277],[94.1769,26.2365],[94.1817,26.2737],[94.1954,26.294],[94.207,26.2957],[94.2251,26.3233],[94.234,26.3208],[94.2341,26.3396],[94.2246,26.3357],[94.1781,26.3436],[94.1648,26.3348],[94.147,26.3309],[94.143,26.3376],[94.1197,26.3292],[94.129,26.3187],[94.1084,26.3219],[94.103,26.3042],[94.0771,26.2808],[94.0707,26.2556],[94.0649,26.2573],[94.0494,26.2458],[94.0384,26.2251],[94.0359,26.1988],[94.005,26.1689],[93.9998,26.1538],[94.0054,26.1374],[93.9909,26.1295],[93.9985,26.1266],[93.9914,26.1137],[94.0023,26.1069],[93.9865,26.0839],[93.9912,26.0682],[93.9838,26.0582]]]}},{"type":"Feature","properties":{"SUBDISTRICT":"Baghty","STATE":"Nagaland","shapeID":"7132399B52632378067060","source":"geoBoundaries gbOpen IND ADM3 (ODbL 1.0); source: Local Government Directory lgdirectory.gov.in via Pathways Data","DISTRICT":"Wokha"},"geometry":{"type":"Polygon","coordinates":[[[94.1769,26.2365],[94.1794,26.2277],[94.1871,26.2289],[94.1946,26.2185],[94.2121,26.2164],[94.2474,26.2687],[94.2236,26.2781],[94.2286,26.2837],[94.2194,26.2962],[94.1954,26.294],[94.1817,26.2737],[94.1778,26.237],[94.1769,26.2365]]]}},{"type":"Feature","properties":{"SUBDISTRICT":"Sanis","STATE":"Nagaland","shapeID":"7132399B17888364642411","source":"geoBoundaries gbOpen IND ADM3 (ODbL 1.0); source: Local Government Directory lgdirectory.gov.in via Pathways Data","DISTRICT":"Wokha"},"geometry":{"type":"Polygon","coordinates":[[[94.1148,26.1397],[94.1194,26.127],[94.143,26.1052],[94.1425,26.1099],[94.1546,26.113],[94.1536,26.1185],[94.1588,26.1173],[94.1568,26.1232],[94.1688,26.1277],[94.1643,26.1346],[94.18,26.1442],[94.1746,26.1494],[94.1959,26.1654],[94.206,26.1604],[94.1986,26.175],[94.2053,26.1874],[94.2343,26.197],[94.2555,26.219],[94.2529,26.224],[94.2667,26.2271],[94.2633,26.2453],[94.2704,26.2467],[94.271,26.2571],[94.278,26.2513],[94.2769,26.2585],[94.2907,26.2602],[94.2846,26.27],[94.247,26.2696],[94.2132,26.2171],[94.1946,26.2185],[94.1846,26.2297],[94.1692,26.2077],[94.1709,26.1969],[94.1523,26.1879],[94.1445,26.1665],[94.1331,26.1659],[94.1153,26.1402],[94.1148,26.1397]]]}},{"type":"Feature","properties":{"SUBDISTRICT":"Tizit","STATE":"Nagaland","shapeID":"7132399B26371173644471","source":"geoBoundaries gbOpen IND ADM3 (ODbL 1.0); source: Local Government Directory lgdirectory.gov.in via Pathways Data","DISTRICT":"Mon"},"geometry":{"type":"Polygon","coordinates":[[[94.9338,26.8905],[94.9908,26.8652],[95.0197,26.8658],[95.0194,26.8615],[95.0337,26.8689],[95.0414,26.8556],[95.0774,26.8535],[95.0851,26.8479],[95.0932,26.799],[95.1156,26.7854],[95.1272,26.7876],[95.1433,26.8168],[95.1387,26.8396],[95.1467,26.856],[95.1363,26.8624],[95.1366,26.8918],[95.1432,26.906],[95.1562,26.9084],[95.1598,26.9162],[95.1557,26.9295],[95.1615,26.9428],[95.153,26.9644],[95.1589,27.0039],[95.1173,26.978],[95.1104,26.9612],[95.0872,26.947],[95.0384,26.9329],[95.0217,26.9198],[94.9934,26.9206],[94.9924,26.9128],[94.986,26.9127],[94.9577,26.9381],[94.9341,26.9332],[94.9432,26.9149],[94.9375,26.9151],[94.9344,26.8918],[94.9338,26.8905]]]}},{"type":"Feature","properties":{"SUBDISTRICT":"Nihokhu","STATE":"Nagaland","shapeID":"7132399B30497390517632","source":"geoBoundaries gbOpen IND ADM3 (ODbL 1.0); source: Local Government Directory lgdirectory.gov.in via Pathways Data","DISTRICT":"Dimapur"},"geometry":{"type":"Polygon","coordinates":[[[93.8985,25.8593],[93.9018,25.846],[93.9321,25.8321],[93.9771,25.8743],[94.0031,25.8869],[93.9968,25.893],[94.0068,25.9203],[93.9825,25.9217],[93.9597,25.9007],[93.9158,25.8832],[93.9017,25.8666],[93.8985,25.8593]]]}},{"type":"Feature","properties":{"SUBDISTRICT":"Chumukedima","STATE":"Nagaland","shapeID":"7132399B94852793735175","source":"geoBoundaries gbOpen IND ADM3 (ODbL 1.0); source: Local Government Directory lgdirectory.gov.in via Pathways Data","DISTRICT":"Dimapur"},"geometry":{"type":"Polygon","coordinates":[[[93.6826,25.8367],[93.6946,25.8215],[93.7061,25.7838],[93.719,25.7693],[93.7429,25.7518],[93.7681,25.7547],[93.7952,25.7802],[93.8043,25.7977],[93.8242,25.7997],[93.8423,25.812],[93.8242,25.8428],[93.8187,25.8219],[93.8075,25.8121],[93.7912,25.8118],[93.7798,25.8421],[93.7814,25.8551],[93.7918,25.8655],[93.7874,25.8747],[93.7984,25.9055],[93.7853,25.9542],[93.7732,25.9619],[93.7704,25.9494],[93.7629,25.9508],[93.7495,25.938],[93.7515,25.8938],[93.7426,25.8951],[93.7424,25.8897],[93.7485,25.8896],[93.7348,25.8811],[93.7361,25.8691],[93.7226,25.87],[93.7205,25.8533],[93.7024,25.8429],[93.7036,25.8494],[93.6979,25.8473],[93.6921,25.8401],[93.6826,25.8367]]]}},{"type":"Feature","properties":{"SUBDISTRICT":"Dhansiripar","STATE":"Nagaland","shapeID":"7132399B10159091374056","source":"geoBoundaries gbOpen IND ADM3 (ODbL 1.0); source: Local Government Directory lgdirectory.gov.in via Pathways Data","DISTRICT":"Dimapur"},"geometry":{"type":"Polygon","coordinates":[[[93.5444,25.7021],[93.5597,25.692],[93.581,25.6935],[93.6055,25.6734],[93.6349,25.6724],[93.6613,25.6902],[93.678,25.6941],[93.6842,25.6684],[93.7425,25.6916],[93.7483,25.7112],[93.7437,25.717],[93.7542,25.728],[93.7441,25.7305],[93.7479,25.7366],[93.7413,25.7551],[93.7061,25.7838],[93.6981,25.8137],[93.6852,25.832],[93.6687,25.8206],[93.6568,25.8224],[93.6411,25.814],[93.6291,25.8005],[93.6224,25.7759],[93.6081,25.7729],[93.6056,25.7635],[93.5883,25.7643],[93.5838,25.7539],[93.5733,25.7569],[93.5655,25.7375],[93.5468,25.7306],[93.546,25.7063],[93.5444,25.7021]]]}},{"type":"Feature","properties":{"SUBDISTRICT":"Nokhu","STATE":"Nagaland","shapeID":"7132399B55765798023341","source":"geoBoundaries gbOpen IND ADM3 (ODbL 1.0); source: Local Government Directory lgdirectory.gov.in via Pathways Data","DISTRICT":"Tuensang"},"geometry":{"type":"Polygon","coordinates":[[[94.9909,26.0923],[95.0192,26.08],[95.0889,26.0671],[95.1303,26.0734],[95.1471,26.0862],[95.1756,26.094],[95.1681,26.0983],[95.1564,26.0931],[95.1263,26.1055],[95.1243,26.118],[95.1326,26.1296],[95.1238,26.1606],[95.1312,26.1748],[95.128,26.1861],[95.1468,26.2085],[95.1299,26.2196],[95.1066,26.2045],[95.0697,26.2018],[95.0571,26.194],[95.0167,26.1875],[95.0172,26.1564],[95.0091,26.1506],[95.0172,26.1392],[95.0192,26.1108],[95.0152,26.1035],[94.9918,26.0945],[94.9909,26.0923]]]}},{"type":"Feature","properties":{"SUBDISTRICT":"Mangko","STATE":"Nagaland","shapeID":"7132399B75247573032073","source":"geoBoundaries gbOpen IND ADM3 (ODbL 1.0); source: Local Government Directory lgdirectory.gov.in via Pathways Data","DISTRICT":"Tuensang"},"geometry":{"type":"Polygon","coordinates":[[[94.6741,26.0212],[94.695,26.0177],[94.7269,26.0271],[94.7408,26.0211],[94.7489,26.0295],[94.7657,26.0284],[94.7894,26.0145],[94.7954,26.0202],[94.8105,26.0195],[94.8195,26.0343],[94.831,26.0328],[94.8454,26.0406],[94.8397,26.0438],[94.8452,26.0564],[94.832,26.066],[94.8339,26.0757],[94.8207,26.0787],[94.8016,26.0952],[94.8094,26.115],[94.8043,26.1198],[94.7845,26.1136],[94.7723,26.0795],[94.7518,26.0603],[94.7338,26.0514],[94.7054,26.0519],[94.6784,26.0278],[94.6741,26.0212]]]}},{"type":"Feature","properties":{"SUBDISTRICT":"Namsang","STATE":"Nagaland","shapeID":"7132399B77283221854724","source":"geoBoundaries gbOpen IND ADM3 (ODbL 1.0); source: Local Government Directory lgdirectory.gov.in via Pathways Data","DISTRICT":"Tuensang"},"geometry":{"type":"Polygon","coordinates":[[[94.7381,26.7636],[94.7404,26.7484],[94.76,26.7283],[94.7466,26.73],[94.7525,26.7016],[94.8055,26.6912],[94.8361,26.7174],[94.8209,26.7406],[94.8109,26.7446],[94.8033,26.7611],[94.8073,26.7669],[94.7983,26.7674],[94.8021,26.7745],[94.8184,26.7794],[94.8093,26.7947],[94.7735,26.7897],[94.7597,26.7689],[94.7462,26.7769],[94.742,26.7684],[94.7381,26.7636]]]}},{"type":"Feature","properties":{"SUBDISTRICT":"Longmatra","STATE":"Nagaland","shapeID":"7132399B75432678155447","source":"geoBoundaries gbOpen IND ADM3 (ODbL 1.0); source: Local Government Directory lgdirectory.gov.in via Pathways Data","DISTRICT":"Tuensang"},"geometry":{"type":"Polygon","coordinates":[[[94.701,25.7859],[94.7202,25.7504],[94.7197,25.7251],[94.7292,25.7223],[94.723,25.74],[94.7433,25.7703],[94.7574,25.7802],[94.8003,25.7709],[94.8089,25.7791],[94.82,25.8131],[94.8061,25.8331],[94.7941,25.834],[94.7948,25.8449],[94.7829,25.8569],[94.7674,25.8624],[94.7607,25.856],[94.7585,25.8363],[94.7374,25.8208],[94.7293,25.799],[94.7039,25.787],[94.701,25.7859]]]}},{"type":"Feature","properties":{"SUBDISTRICT":"Chiephobozou","STATE":"Nagaland","shapeID":"7132399B71727889195675","source":"geoBoundaries gbOpen IND ADM3 (ODbL 1.0); source: Local Government Directory lgdirectory.gov.in via Pathways Data","DISTRICT":"Kohima"},"geometry":{"type":"Polygon","coordinates":[[[93.985,25.8674],[94.0317,25.8479],[94.0111,25.8286],[94.0013,25.7808],[94.0154,25.7702],[94.0444,25.7259],[94.0435,25.7061],[94.055,25.691],[94.0858,25.6766],[94.0966,25.6844],[94.1001,25.6916],[94.0914,25.704],[94.0916,25.7183],[94.1052,25.7179],[94.1061,25.7043],[94.1271,25.6941],[94.1411,25.6981],[94.1386,25.7107],[94.1897,25.7075],[94.173,25.7427],[94.1818,25.7636],[94.2022,25.7763],[94.1699,25.8066],[94.1601,25.8328],[94.1386,25.8354],[94.0961,25.8233],[94.0883,25.837],[94.0909,25.8445],[94.118,25.8589],[94.1157,25.8648],[94.1039,25.8664],[94.1043,25.8752],[94.1683,25.8797],[94.1611,25.8974],[94.1025,25.9006],[94.0857,25.9169],[94.0773,25.8991],[94.0317,25.8987],[94.0126,25.882],[94.0024,25.8889],[93.9861,25.8702],[93.985,25.8674]]]}},{"type":"Feature","properties":{"SUBDISTRICT":"Ngoungchung","STATE":"Nagaland","shapeID":"7132399B81928811146945","source":"geoBoundaries gbOpen IND ADM3 (ODbL 1.0); source: Local Government Directory lgdirectory.gov.in via Pathways Data","DISTRICT":"Tuensang"},"geometry":{"type":"Polygon","coordinates":[[[94.7424,26.3442],[94.7461,26.3285],[94.7567,26.3186],[94.7806,26.2982],[94.7958,26.2949],[94.8621,26.315],[94.8992,26.3418],[94.9148,26.3647],[94.9115,26.3696],[94.8936,26.3692],[94.888,26.3775],[94.8614,26.3694],[94.8211,26.4001],[94.8069,26.3703],[94.7779,26.3685],[94.7448,26.3517],[94.7424,26.3442]]]}},{"type":"Feature","properties":{"SUBDISTRICT":"Asuto","STATE":"Nagaland","shapeID":"7132399B22895234318564","source":"geoBoundaries gbOpen IND ADM3 (ODbL 1.0); source: Local Government Directory lgdirectory.gov.in via Pathways Data","DISTRICT":"Zunheboto"},"geometry":{"type":"Polygon","coordinates":[[[94.5912,26.0358],[94.6567,26.0254],[94.6715,26.0172],[94.7054,26.0519],[94.6887,26.1175],[94.7045,26.1721],[94.7003,26.1712],[94.6931,26.1929],[94.6687,26.2088],[94.656,26.2039],[94.6476,26.189],[94.652,26.1794],[94.6442,26.1769],[94.6403,26.1582],[94.6454,26.1561],[94.6321,26.143],[94.6376,26.1395],[94.6378,26.1221],[94.6304,26.1119],[94.6325,26.1001],[94.6241,26.0922],[94.627,26.0859],[94.6079,26.0513],[94.6017,26.0516],[94.6031,26.0433],[94.5954,26.0441],[94.5977,26.0393],[94.5919,26.0367],[94.5912,26.0358]]]}},{"type":"Feature","properties":{"SUBDISTRICT":"Sangsangnyu","STATE":"Nagaland","shapeID":"7132399B39338970331131","source":"geoBoundaries gbOpen IND ADM3 (ODbL 1.0); source: Local Government Directory lgdirectory.gov.in via Pathways Data","DISTRICT":"Tuensang"},"geometry":{"type":"Polygon","coordinates":[[[94.8331,26.2191],[94.8427,26.1886],[94.8633,26.1745],[94.893,26.2008],[94.8972,26.2095],[94.8931,26.2174],[94.9278,26.2545],[94.9397,26.28],[94.9393,26.2981],[94.9166,26.3123],[94.906,26.3344],[94.858,26.291],[94.8378,26.2524],[94.835,26.2269],[94.8331,26.2191]]]}},{"type":"Feature","properties":{"SUBDISTRICT":"Sitimi","STATE":"Nagaland","shapeID":"7132399B87941866868398","source":"geoBoundaries gbOpen IND ADM3 (ODbL 1.0); source: Local Government Directory lgdirectory.gov.in via Pathways Data","DISTRICT":"Tuensang"},"geometry":{"type":"Polygon","coordinates":[[[94.6056,25.8283],[94.6145,25.8161],[94.6481,25.8159],[94.701,25.7859],[94.7293,25.799],[94.7374,25.8208],[94.7585,25.8363],[94.7607,25.856],[94.7674,25.8624],[94.7121,25.8957],[94.7057,25.8968],[94.6748,25.8698],[94.6337,25.8557],[94.6128,25.8358],[94.6056,25.8283]]]}},{"type":"Feature","properties":{"SUBDISTRICT":"Angjangyang","STATE":"Nagaland","shapeID":"7132399B4175300202462","source":"geoBoundaries gbOpen IND ADM3 (ODbL 1.0); source: Local Government Directory lgdirectory.gov.in via Pathways Data","DISTRICT":"Mon"},"geometry":{"type":"Polygon","coordinates":[[[94.8925,26.5456],[94.8991,26.5042],[94.8938,26.4789],[94.9051,26.4578],[94.903,26.4395],[94.9116,26.434],[94.9358,26.4398],[94.988,26.4815],[95.0189,26.4814],[95.0211,26.5094],[95.0124,26.5222],[95.0153,26.5329],[94.9688,26.5334],[94.9563,26.5618],[94.9334,26.553],[94.8983,26.5542],[94.8947,26.545],[94.8925,26.5456]]]}},{"type":"Feature","properties":{"SUBDISTRICT":"Tuli","STATE":"Nagaland","shapeID":"7132399B98418003895899","source":"geoBoundaries gbOpen IND ADM3 (ODbL 1.0); source: Local Government Directory lgdirectory.gov.in via Pathways Data","DISTRICT":"Tuensang"},"geometry":{"type":"Polygon","coordinates":[[[94.6178,26.6129],[94.6715,26.5812],[94.7309,26.5753],[94.7371,26.5952],[94.7209,26.6263],[94.7117,26.6364],[94.6704,26.648],[94.7189,26.6797],[94.7272,26.6967],[94.7525,26.7016],[94.7466,26.73],[94.76,26.7283],[94.7404,26.7484],[94.7381,26.7636],[94.687,26.7274],[94.6287,26.7136],[94.6425,26.6912],[94.6463,26.6642],[94.6547,26.6566],[94.6453,26.647],[94.6463,26.6276],[94.6397,26.6299],[94.6308,26.6168],[94.6187,26.6139],[94.6178,26.6129]]]}},{"type":"Feature","properties":{"SUBDISTRICT":"Khezhakeno","STATE":"Nagaland","shapeID":"7132399B99994910645467","source":"geoBoundaries gbOpen IND ADM3 (ODbL 1.0); source: Local Government Directory lgdirectory.gov.in via Pathways Data","DISTRICT":"Phek"},"geometry":{"type":"Polygon","coordinates":[[[94.1892,25.5293],[94.2138,25.4949],[94.2345,25.493],[94.2217,25.5226],[94.193,25.5369],[94.1892,25.5293]]]}},{"type":"Feature","properties":{"SUBDISTRICT":"Sakshi","STATE":"Nagaland","shapeID":"7132399B98163096894850","source":"geoBoundaries gbOpen IND ADM3 (ODbL 1.0); source: Local Government Directory lgdirectory.gov.in via Pathways Data","DISTRICT":"Tuensang"},"geometry":{"type":"Polygon","coordinates":[[[94.852,26.4537],[94.8593,26.4262],[94.8842,26.4066],[94.8553,26.3726],[94.872,26.3698],[94.888,26.3775],[94.8936,26.3692],[94.9057,26.3681],[94.9224,26.3812],[94.9079,26.3998],[94.9113,26.4075],[94.8992,26.4144],[94.9029,26.4195],[94.8978,26.4249],[94.9059,26.423],[94.9011,26.4286],[94.9116,26.434],[94.903,26.4395],[94.9051,26.4578],[94.8938,26.4789],[94.8991,26.5042],[94.8798,26.4983],[94.8655,26.4693],[94.8543,26.4599],[94.852,26.4537]]]}},{"type":"Feature","properties":{"SUBDISTRICT":"Saptiqa","STATE":"Nagaland","shapeID":"7132399B35758518451518","source":"geoBoundaries gbOpen IND ADM3 (ODbL 1.0); source: Local Government Directory lgdirectory.gov.in via Pathways Data","DISTRICT":"Zunheboto"},"geometry":{"type":"Polygon","coordinates":[[[94.3488,25.9689],[94.3587,25.966],[94.379,25.9427],[94.4015,25.9718],[94.4379,25.9895],[94.4379,26.0211],[94.4304,26.0288],[94.4304,26.0419],[94.4152,26.0574],[94.3989,26.0636],[94.3853,26.0489],[94.3744,26.0533],[94.362,26.0268],[94.3635,25.987],[94.3521,25.9735],[94.3488,25.9689]]]}},{"type":"Feature","properties":{"SUBDISTRICT":"Noklak","STATE":"Nagaland","shapeID":"7132399B73189750755743","source":"geoBoundaries gbOpen IND ADM3 (ODbL 1.0); source: Local Government Directory lgdirectory.gov.in via Pathways Data","DISTRICT":"Tuensang"},"geometry":{"type":"Polygon","coordinates":[[[95.0052,26.2226],[95.0092,26.1999],[95.0183,26.1881],[95.0571,26.194],[95.0697,26.2018],[95.095,26.2018],[95.1216,26.2117],[95.1263,26.2194],[95.1189,26.2274],[95.1303,26.2495],[95.1225,26.2607],[95.1303,26.29],[95.122,26.3201],[95.1279,26.3326],[95.1077,26.3202],[95.0483,26.3152],[95.0429,26.2819],[95.0102,26.2428],[95.0058,26.2276],[95.0052,26.2226]]]}},{"type":"Feature","properties":{"SUBDISTRICT":"Razieba","STATE":"Nagaland","shapeID":"7132399B43143226393979","source":"geoBoundaries gbOpen IND ADM3 (ODbL 1.0); source: Local Government Directory lgdirectory.gov.in via Pathways Data","DISTRICT":"Phek"},"geometry":{"type":"Polygon","coordinates":[[[94.2857,25.5062],[94.3015,25.489],[94.3124,25.4888],[94.3279,25.5027],[94.3874,25.5308],[94.3579,25.5269],[94.3385,25.536],[94.3037,25.5324],[94.2904,25.529],[94.2877,25.5078],[94.2857,25.5062]]]}},{"type":"Feature","properties":{"SUBDISTRICT":"Sotokur","STATE":"Nagaland","shapeID":"7132399B95983198864825","source":"geoBoundaries gbOpen IND ADM3 (ODbL 1.0); source: Local Government Directory lgdirectory.gov.in via Pathways Data","DISTRICT":"Tuensang"},"geometry":{"type":"Polygon","coordinates":[[[94.6887,26.1175],[94.6915,26.0969],[94.7202,26.1153],[94.7698,26.1104],[94.8014,26.1148],[94.8087,26.1347],[94.8465,26.1662],[94.8607,26.1703],[94.8427,26.1886],[94.8356,26.2123],[94.811,26.2092],[94.788,26.2149],[94.7775,26.2249],[94.7568,26.2272],[94.7552,26.2128],[94.7403,26.2025],[94.7081,26.1943],[94.6919,26.198],[94.7003,26.1712],[94.7045,26.1721],[94.7016,26.1492],[94.6894,26.1291],[94.6887,26.1175]]]}},{"type":"Feature","properties":{"SUBDISTRICT":"Pungro","STATE":"Nagaland","shapeID":"7132399B55485472484329","source":"geoBoundaries gbOpen IND ADM3 (ODbL 1.0); source: Local Government Directory lgdirectory.gov.in via Pathways Data","DISTRICT":"Tuensang"},"geometry":{"type":"Polygon","coordinates":[[[94.7922,25.8403],[94.7941,25.834],[94.8061,25.8331],[94.8216,25.8084],[94.8003,25.7709],[94.8337,25.7524],[94.8612,25.7166],[94.8498,25.6336],[94.8557,25.6092],[94.8714,25.6063],[94.8838,25.5874],[94.9031,25.5974],[94.9264,25.6472],[94.967,25.6855],[94.9835,25.7139],[94.9226,25.7724],[94.8711,25.7885],[94.8772,25.8135],[94.9315,25.8307],[94.9417,25.8377],[94.9495,25.8549],[94.9375,25.8593],[94.9317,25.869],[94.8788,25.887],[94.8628,25.8718],[94.8427,25.8727],[94.835,25.8665],[94.8157,25.8786],[94.8126,25.8612],[94.8013,25.8547],[94.8007,25.8441],[94.7922,25.8403]]]}},{"type":"Feature","properties":{"SUBDISTRICT":"Satoi","STATE":"Nagaland","shapeID":"7132399B85783118537197","source":"geoBoundaries gbOpen IND ADM3 (ODbL 1.0); source: Local Government Directory lgdirectory.gov.in via Pathways Data","DISTRICT":"Zunheboto"},"geometry":{"type":"Polygon","coordinates":[[[94.5191,25.8249],[94.5463,25.809],[94.5285,25.7534],[94.5472,25.7498],[94.5585,25.7297],[94.5746,25.7382],[94.5865,25.7577],[94.6134,25.7792],[94.6315,25.7673],[94.6631,25.7753],[94.7155,25.7576],[94.701,25.7859],[94.6831,25.8004],[94.6481,25.8159],[94.6126,25.8176],[94.6056,25.8283],[94.6128,25.8358],[94.6129,25.8472],[94.6043,25.8647],[94.5758,25.8921],[94.5718,25.8827],[94.558,25.8796],[94.5363,25.8627],[94.5298,25.8482],[94.5366,25.8466],[94.5286,25.8448],[94.5191,25.8256],[94.5191,25.8249]]]}},{"type":"Feature","properties":{"SUBDISTRICT":"Aquqhnaqua","STATE":"Nagaland","shapeID":"7132399B89099983867033","source":"geoBoundaries gbOpen IND ADM3 (ODbL 1.0); source: Local Government Directory lgdirectory.gov.in via Pathways Data","DISTRICT":"Wokha"},"geometry":{"type":"Polygon","coordinates":[[[93.9586,25.9671],[93.9691,25.9563],[94.0005,25.9535],[94.0041,25.9471],[94.0185,25.9479],[94.0149,25.9567],[94.0266,25.9542],[94.0208,25.9607],[94.0385,25.9694],[94.0316,25.9822],[94.0008,25.9741],[93.9724,25.9802],[93.9604,25.9686],[93.9586,25.9671]]]}},{"type":"Feature","properties":{"SUBDISTRICT":"Chizami","STATE":"Nagaland","shapeID":"7132399B44340345549529","source":"geoBoundaries gbOpen IND ADM3 (ODbL 1.0); source: Local Government Directory lgdirectory.gov.in via Pathways Data","DISTRICT":"Phek"},"geometry":{"type":"Polygon","coordinates":[[[94.2904,25.529],[94.3385,25.536],[94.3616,25.5269],[94.4191,25.5368],[94.4252,25.5556],[94.4212,25.5702],[94.4289,25.5869],[94.428,25.6034],[94.4111,25.6203],[94.3873,25.6197],[94.3686,25.604],[94.3159,25.5789],[94.2981,25.558],[94.2904,25.5333],[94.2904,25.529]]]}},{"type":"Feature","properties":{"SUBDISTRICT":"Chukitong","STATE":"Nagaland","shapeID":"7132399B42194786303832","source":"geoBoundaries gbOpen IND ADM3 (ODbL 1.0); source: Local Government Directory lgdirectory.gov.in via Pathways Data","DISTRICT":"Wokha"},"geometry":{"type":"Polygon","coordinates":[[[94.2761,26.1443],[94.2971,26.1115],[94.2938,26.0946],[94.3088,26.076],[94.3464,26.0629],[94.3502,26.0685],[94.3744,26.0533],[94.3908,26.0812],[94.3829,26.0995],[94.3897,26.1146],[94.3866,26.1224],[94.3538,26.1544],[94.3516,26.1709],[94.3308,26.1778],[94.3274,26.1937],[94.3172,26.1756],[94.3043,26.1745],[94.3055,26.1684],[94.295,26.1669],[94.2916,26.1559],[94.2765,26.1472],[94.2761,26.1443]]]}},{"type":"Feature","properties":{"SUBDISTRICT":"Ralan","STATE":"Nagaland","shapeID":"7132399B68478541870511","source":"geoBoundaries gbOpen IND ADM3 (ODbL 1.0); source: Local Government Directory lgdirectory.gov.in via Pathways Data","DISTRICT":"Wokha"},"geometry":{"type":"Polygon","coordinates":[[[93.9549,26.0029],[93.9606,25.9926],[93.9586,25.9671],[93.9724,25.9802],[94.0154,25.9769],[94.014,25.992],[94.0221,26.0059],[94.0508,26.028],[94.0342,26.0463],[94.0264,26.0448],[94.0087,26.0557],[93.9938,26.0485],[93.9973,26.0543],[93.9838,26.0582],[93.9659,26.038],[93.9584,26.0075],[93.9549,26.0029]]]}},{"type":"Feature","properties":{"SUBDISTRICT":"Medziphema","STATE":"Nagaland","shapeID":"7132399B95074817249966","source":"geoBoundaries gbOpen IND ADM3 (ODbL 1.0); source: Local Government Directory lgdirectory.gov.in via Pathways Data","DISTRICT":"Dimapur"},"geometry":{"type":"Polygon","coordinates":[[[93.7398,25.7478],[93.7479,25.7366],[93.7441,25.7305],[93.7542,25.728],[93.7437,25.717],[93.7483,25.7112],[93.7413,25.6996],[93.7458,25.6871],[93.7737,25.6671],[93.8167,25.6804],[93.8749,25.6808],[93.8895,25.6737],[93.901,25.657],[93.9312,25.6961],[93.9536,25.7065],[93.985,25.7364],[93.9724,25.7578],[93.9822,25.7766],[94.0013,25.7808],[94.0111,25.8286],[94.0321,25.8464],[93.9879,25.8622],[93.9872,25.8751],[93.9791,25.8756],[93.923,25.8265],[93.8544,25.7965],[93.8439,25.8126],[93.8242,25.7997],[93.8125,25.8017],[93.7681,25.7547],[93.7399,25.7489],[93.7398,25.7478]]]}},{"type":"Feature","properties":{"SUBDISTRICT":"Dimapur Sadar","STATE":"Nagaland","shapeID":"7132399B85318306570252","source":"geoBoundaries gbOpen IND ADM3 (ODbL 1.0); source: Local Government Directory lgdirectory.gov.in via Pathways Data","DISTRICT":"Dimapur"},"geometry":{"type":"Polygon","coordinates":[[[93.686,25.9009],[93.7065,25.8492],[93.7205,25.8533],[93.7232,25.8704],[93.737,25.8699],[93.7348,25.8811],[93.7485,25.8896],[93.7424,25.8897],[93.7426,25.8951],[93.7515,25.8938],[93.7502,25.9332],[93.7052,25.9173],[93.6871,25.9036],[93.686,25.9009]]]}},{"type":"Feature","properties":{"SUBDISTRICT":"Shangnyu","STATE":"Nagaland","shapeID":"7132399B42541288927994","source":"geoBoundaries gbOpen IND ADM3 (ODbL 1.0); source: Local Government Directory lgdirectory.gov.in via Pathways Data","DISTRICT":"Mon"},"geometry":{"type":"Polygon","coordinates":[[[95.1005,26.7535],[95.1273,26.7424],[95.1553,26.7565],[95.1683,26.743],[95.1877,26.7431],[95.1901,26.7584],[95.2086,26.7656],[95.2093,26.7911],[95.215,26.7922],[95.199,26.8338],[95.2086,26.8446],[95.1956,26.8435],[95.1845,26.8588],[95.1647,26.8602],[95.1566,26.8714],[95.145,26.8635],[95.1402,26.8663],[95.1467,26.856],[95.1387,26.8396],[95.1433,26.8168],[95.1266,26.785],[95.1011,26.7546],[95.1005,26.7535]]]}},{"type":"Feature","properties":{"SUBDISTRICT":"Khuza","STATE":"Nagaland","shapeID":"7132399B32166619649115","source":"geoBoundaries gbOpen IND ADM3 (ODbL 1.0); source: Local Government Directory lgdirectory.gov.in via Pathways Data","DISTRICT":"Phek"},"geometry":{"type":"Polygon","coordinates":[[[94.4311,25.768],[94.4833,25.7487],[94.53,25.7506],[94.5463,25.809],[94.5304,25.8209],[94.5172,25.8153],[94.4925,25.8309],[94.4687,25.8306],[94.4347,25.8069],[94.4325,25.779],[94.4373,25.7772],[94.4318,25.7693],[94.4311,25.768]]]}},{"type":"Feature","properties":{"SUBDISTRICT":"Sakraba","STATE":"Nagaland","shapeID":"7132399B73545841191591","source":"geoBoundaries gbOpen IND ADM3 (ODbL 1.0); source: Local Government Directory lgdirectory.gov.in via Pathways Data","DISTRICT":"Phek"},"geometry":{"type":"Polygon","coordinates":[[[94.2953,25.6287],[94.3065,25.6119],[94.3625,25.6026],[94.3873,25.6197],[94.4056,25.624],[94.4249,25.6436],[94.4257,25.6588],[94.3874,25.6806],[94.3843,25.6908],[94.3747,25.6955],[94.3578,25.6854],[94.3597,25.6715],[94.3408,25.6539],[94.3333,25.6484],[94.3157,25.6583],[94.2958,25.6299],[94.2953,25.6287]]]}},{"type":"Feature","properties":{"SUBDISTRICT":"Monyakshu","STATE":"Nagaland","shapeID":"7132399B96225657004166","source":"geoBoundaries gbOpen IND ADM3 (ODbL 1.0); source: Local Government Directory lgdirectory.gov.in via Pathways Data","DISTRICT":"Mon"},"geometry":{"type":"Polygon","coordinates":[[[94.9681,26.4222],[94.9801,26.4026],[94.9779,26.3871],[95.0213,26.3695],[95.0207,26.3404],[95.0153,26.3351],[95.0286,26.3176],[95.0305,26.3043],[95.0386,26.3128],[95.0564,26.3125],[95.0714,26.3201],[95.0722,26.3377],[95.0983,26.4047],[95.096,26.421],[95.0724,26.4576],[95.0727,26.4715],[95.0573,26.4769],[95.0492,26.4717],[95.0428,26.4814],[95.0217,26.477],[94.9916,26.4812],[94.9995,26.4587],[94.9889,26.4476],[94.9871,26.4349],[94.97,26.4237],[94.9681,26.4222]]]}},{"type":"Feature","properties":{"SUBDISTRICT":"V.K.","STATE":"Nagaland","shapeID":"7132399B23930958334833","source":"geoBoundaries gbOpen IND ADM3 (ODbL 1.0); source: Local Government Directory lgdirectory.gov.in via Pathways Data","DISTRICT":"Zunheboto"},"geometry":{"type":"Polygon","coordinates":[[[94.3376,26.179],[94.3414,26.1707],[94.3516,26.1709],[94.3538,26.1544],[94.3866,26.1224],[94.3891,26.1083],[94.3965,26.1138],[94.4154,26.1101],[94.4199,26.1184],[94.4143,26.1283],[94.4235,26.1298],[94.4218,26.1353],[94.4393,26.1495],[94.4286,26.1577],[94.437,26.1615],[94.44,26.172],[94.4517,26.173],[94.4411,26.1795],[94.4434,26.2043],[94.4105,26.2116],[94.3457,26.1797],[94.3376,26.179]]]}},{"type":"Feature","properties":{"SUBDISTRICT":"Akuluto","STATE":"Nagaland","shapeID":"7132399B39363397883792","source":"geoBoundaries gbOpen IND ADM3 (ODbL 1.0); source: Local Government Directory lgdirectory.gov.in via Pathways Data","DISTRICT":"Zunheboto"},"geometry":{"type":"Polygon","coordinates":[[[94.4143,26.1283],[94.4195,26.1171],[94.4304,26.1174],[94.4893,26.1386],[94.5052,26.1527],[94.5025,26.1642],[94.5196,26.1742],[94.5215,26.1807],[94.5005,26.2196],[94.5136,26.2379],[94.4883,26.2899],[94.4776,26.2874],[94.4423,26.2003],[94.4411,26.1795],[94.4517,26.173],[94.4351,26.1674],[94.437,26.1615],[94.4322,26.1634],[94.4291,26.1546],[94.4389,26.1483],[94.4218,26.1353],[94.4235,26.1298],[94.4149,26.129],[94.4143,26.1283]]]}},{"type":"Feature","properties":{"SUBDISTRICT":"Naginimora","STATE":"Nagaland","shapeID":"7132399B8361682651672","source":"geoBoundaries gbOpen IND ADM3 (ODbL 1.0); source: Local Government Directory lgdirectory.gov.in via Pathways Data","DISTRICT":"Mon"},"geometry":{"type":"Polygon","coordinates":[[[94.7911,26.7962],[94.8144,26.7912],[94.8184,26.7794],[94.8021,26.7745],[94.7983,26.7674],[94.8073,26.7669],[94.8033,26.7611],[94.8109,26.7446],[94.8209,26.7406],[94.8314,26.724],[94.8522,26.7311],[94.8624,26.7415],[94.9324,26.7472],[94.9345,26.7585],[94.9234,26.7706],[94.9436,26.7842],[94.9363,26.8178],[94.9407,26.8324],[94.9219,26.8583],[94.9355,26.867],[94.9467,26.8864],[94.9338,26.8905],[94.9375,26.9151],[94.9432,26.9149],[94.9286,26.9467],[94.8867,26.9272],[94.8701,26.9097],[94.852,26.876],[94.8215,26.8492],[94.8134,26.8195],[94.797,26.8132],[94.8057,26.8069],[94.7953,26.7984],[94.7911,26.7962]]]}},{"type":"Feature","properties":{"SUBDISTRICT":"Hunta","STATE":"Nagaland","shapeID":"7132399B77410373935786","source":"geoBoundaries gbOpen IND ADM3 (ODbL 1.0); source: Local Government Directory lgdirectory.gov.in via Pathways Data","DISTRICT":"Mon"},"geometry":{"type":"Polygon","coordinates":[[[95.1363,26.8624],[95.1574,26.8714],[95.1647,26.8602],[95.1845,26.8588],[95.2129,26.8795],[95.23,26.8795],[95.2339,26.8847],[95.234,26.9145],[95.2257,26.9284],[95.2146,26.9309],[95.2094,26.9507],[95.2136,26.9528],[95.207,26.9566],[95.2152,26.9644],[95.2068,26.9729],[95.2102,26.9767],[95.1955,26.9841],[95.2004,27.0004],[95.1959,27.0372],[95.1589,27.0039],[95.153,26.9644],[95.1615,26.9428],[95.1557,26.9295],[95.1598,26.9162],[95.1562,26.9084],[95.1412,26.9038],[95.1368,26.8667],[95.1363,26.8624]]]}},{"type":"Feature","properties":{"SUBDISTRICT":"Wakching","STATE":"Nagaland","shapeID":"7132399B16962004408784","source":"geoBoundaries gbOpen IND ADM3 (ODbL 1.0); source: Local Government Directory lgdirectory.gov.in via Pathways Data","DISTRICT":"Mon"},"geometry":{"type":"Polygon","coordinates":[[[94.7831,26.6559],[94.7907,26.6505],[94.7953,26.6298],[94.8586,26.6104],[94.8903,26.6108],[94.9036,26.6152],[94.8973,26.6267],[94.9038,26.6375],[94.9247,26.6426],[94.9507,26.6821],[94.9531,26.6953],[94.9572,26.6922],[94.9578,26.6989],[94.9693,26.7042],[94.9633,26.7112],[94.9687,26.7153],[94.9635,26.715],[94.9719,26.7255],[94.956,26.753],[94.8624,26.7415],[94.8522,26.7311],[94.8314,26.724],[94.8361,26.7174],[94.808,26.6917],[94.7852,26.6982],[94.7918,26.6834],[94.7865,26.6645],[94.7831,26.6559]]]}},{"type":"Feature","properties":{"SUBDISTRICT":"Longshen","STATE":"Nagaland","shapeID":"7132399B29065829467734","source":"geoBoundaries gbOpen IND ADM3 (ODbL 1.0); source: Local Government Directory lgdirectory.gov.in via Pathways Data","DISTRICT":"Mon"},"geometry":{"type":"Polygon","coordinates":[[[95.0508,26.6787],[95.0563,26.6696],[95.0661,26.6744],[95.0602,26.6652],[95.0681,26.665],[95.0629,26.6566],[95.0557,26.6593],[95.0591,26.65],[95.0529,26.6312],[95.0778,26.6147],[95.1039,26.6028],[95.1297,26.6014],[95.1409,26.6032],[95.1647,26.6266],[95.1513,26.6313],[95.1523,26.653],[95.1437,26.6643],[95.1532,26.6849],[95.1623,26.6821],[95.1699,26.6892],[95.1693,26.6994],[95.1597,26.7048],[95.1651,26.7067],[95.1611,26.715],[95.1668,26.7133],[95.1594,26.7298],[95.172,26.7331],[95.1794,26.743],[95.1683,26.743],[95.1582,26.7551],[95.1273,26.7424],[95.1056,26.7546],[95.0972,26.7506],[95.0932,26.7387],[95.1016,26.7209],[95.0798,26.7033],[95.065,26.7028],[95.0637,26.6918],[95.0511,26.6796],[95.0508,26.6787]]]}},{"type":"Feature","properties":{"SUBDISTRICT":"Phomching","STATE":"Nagaland","shapeID":"7132399B2813720456217","source":"geoBoundaries gbOpen IND ADM3 (ODbL 1.0); source: Local Government Directory lgdirectory.gov.in via Pathways Data","DISTRICT":"Mon"},"geometry":{"type":"Polygon","coordinates":[[[95.1437,26.6643],[95.1523,26.653],[95.1513,26.6313],[95.1647,26.6266],[95.2,26.6391],[95.2382,26.6788],[95.2358,26.7058],[95.2159,26.729],[95.2199,26.7535],[95.2448,26.781],[95.215,26.7922],[95.2093,26.7911],[95.2066,26.763],[95.1926,26.7603],[95.1882,26.7435],[95.1597,26.7304],[95.1668,26.7133],[95.1611,26.715],[95.1651,26.7067],[95.1597,26.7048],[95.1693,26.6994],[95.1699,26.6892],[95.1623,26.6821],[95.1532,26.6849],[95.1442,26.6651],[95.1437,26.6643]]]}},{"type":"Feature","properties":{"SUBDISTRICT":"Chen","STATE":"Nagaland","shapeID":"7132399B53099766598863","source":"geoBoundaries gbOpen IND ADM3 (ODbL 1.0); source: Local Government Directory lgdirectory.gov.in via Pathways Data","DISTRICT":"Mon"},"geometry":{"type":"Polygon","coordinates":[[[95.0098,26.6071],[95.0361,26.5665],[95.0306,26.5392],[95.0133,26.5297],[95.0149,26.5144],[95.0211,26.5094],[95.0197,26.4774],[95.0428,26.4814],[95.0492,26.4717],[95.0573,26.4769],[95.0727,26.4715],[95.1087,26.5066],[95.1165,26.545],[95.1503,26.5727],[95.1409,26.6032],[95.1039,26.6028],[95.0518,26.6341],[95.0411,26.6199],[95.0142,26.6175],[95.0109,26.6089],[95.0098,26.6071]]]}},{"type":"Feature","properties":{"SUBDISTRICT":"Mopong","STATE":"Nagaland","shapeID":"7132399B27281422566371","source":"geoBoundaries gbOpen IND ADM3 (ODbL 1.0); source: Local Government Directory lgdirectory.gov.in via Pathways Data","DISTRICT":"Mon"},"geometry":{"type":"Polygon","coordinates":[[[94.8978,26.4249],[94.9029,26.4195],[94.8999,26.412],[94.9068,26.4138],[94.9044,26.4075],[94.9114,26.407],[94.9079,26.3998],[94.9184,26.3916],[94.9155,26.3839],[94.9563,26.3619],[94.9736,26.3743],[94.9863,26.3731],[94.9923,26.382],[94.9779,26.3871],[94.9801,26.4026],[94.9681,26.4222],[94.9871,26.4349],[94.9889,26.4476],[94.9995,26.4587],[94.9916,26.4812],[94.9358,26.4398],[94.9036,26.43],[94.9059,26.423],[94.8997,26.4259],[94.8978,26.4249]]]}},{"type":"Feature","properties":{"SUBDISTRICT":"Tobu","STATE":"Nagaland","shapeID":"7132399B54251222574196","source":"geoBoundaries gbOpen IND ADM3 (ODbL 1.0); source: Local Government Directory lgdirectory.gov.in via Pathways Data","DISTRICT":"Mon"},"geometry":{"type":"Polygon","coordinates":[[[94.8991,26.3439],[94.9062,26.344],[94.9061,26.3285],[94.9166,26.3123],[94.9393,26.2981],[94.9599,26.2921],[94.9854,26.2967],[95.0133,26.2927],[95.0173,26.3023],[95.031,26.3086],[95.0153,26.3351],[95.0236,26.3625],[95.0159,26.3752],[94.9911,26.3791],[94.9563,26.3619],[94.9224,26.3812],[94.9148,26.3784],[94.9136,26.361],[94.9008,26.3449],[94.8991,26.3439]]]}},{"type":"Feature","properties":{"SUBDISTRICT":"Longchem","STATE":"Nagaland","shapeID":"7132399B75070678079847","source":"geoBoundaries gbOpen IND ADM3 (ODbL 1.0); source: Local Government Directory lgdirectory.gov.in via Pathways Data","DISTRICT":"Mokokchung"},"geometry":{"type":"Polygon","coordinates":[[[94.4051,26.5504],[94.4192,26.5371],[94.4294,26.5393],[94.4561,26.5288],[94.4737,26.5673],[94.4978,26.57],[94.4956,26.5805],[94.5041,26.577],[94.5155,26.6002],[94.5346,26.6095],[94.5358,26.6165],[94.5283,26.6179],[94.5353,26.6198],[94.5289,26.6226],[94.5373,26.6249],[94.5432,26.6527],[94.5499,26.661],[94.5592,26.6609],[94.5579,26.6676],[94.5644,26.6692],[94.5595,26.6742],[94.5713,26.6851],[94.5634,26.6857],[94.5616,26.7032],[94.5455,26.706],[94.5282,26.6964],[94.5232,26.6995],[94.516,26.6824],[94.4987,26.6689],[94.465,26.6627],[94.459,26.6506],[94.4629,26.6306],[94.455,26.6342],[94.4083,26.6096],[94.4064,26.5972],[94.4152,26.5785],[94.4081,26.5566],[94.4123,26.5536],[94.4064,26.5526],[94.4051,26.5504]]]}},{"type":"Feature","properties":{"SUBDISTRICT":"Changtongya","STATE":"Nagaland","shapeID":"7132399B24335468604402","source":"geoBoundaries gbOpen IND ADM3 (ODbL 1.0); source: Local Government Directory lgdirectory.gov.in via Pathways Data","DISTRICT":"Mokokchung"},"geometry":{"type":"Polygon","coordinates":[[[94.5612,26.5469],[94.5886,26.5316],[94.5846,26.524],[94.5906,26.5134],[94.5813,26.5061],[94.5944,26.5028],[94.6026,26.4919],[94.6254,26.4912],[94.6433,26.4793],[94.6937,26.4757],[94.6969,26.4995],[94.6914,26.5238],[94.7309,26.5753],[94.6715,26.5812],[94.6165,26.613],[94.6068,26.5996],[94.5989,26.5993],[94.6013,26.5875],[94.5945,26.5792],[94.5655,26.563],[94.5697,26.552],[94.5615,26.5476],[94.5612,26.5469]]]}},{"type":"Feature","properties":{"SUBDISTRICT":"Kubolong","STATE":"Nagaland","shapeID":"7132399B88257331286643","source":"geoBoundaries gbOpen IND ADM3 (ODbL 1.0); source: Local Government Directory lgdirectory.gov.in via Pathways Data","DISTRICT":"Mokokchung"},"geometry":{"type":"Polygon","coordinates":[[[94.4446,26.4122],[94.4672,26.4101],[94.4716,26.3983],[94.4828,26.3935],[94.4818,26.3874],[94.5061,26.3813],[94.5137,26.3661],[94.5295,26.3633],[94.5693,26.3767],[94.5681,26.3913],[94.5757,26.4006],[94.5655,26.4408],[94.5857,26.4668],[94.581,26.4793],[94.5307,26.4866],[94.519,26.4752],[94.5159,26.4781],[94.5107,26.4646],[94.5052,26.4651],[94.508,26.4605],[94.4987,26.46],[94.497,26.4459],[94.5023,26.44],[94.492,26.442],[94.4873,26.4314],[94.4832,26.4381],[94.4744,26.4349],[94.4674,26.4253],[94.458,26.4282],[94.4467,26.4161],[94.4446,26.4122]]]}},{"type":"Feature","properties":{"SUBDISTRICT":"Mangkolemba","STATE":"Nagaland","shapeID":"7132399B71588626784369","source":"geoBoundaries gbOpen IND ADM3 (ODbL 1.0); source: Local Government Directory lgdirectory.gov.in via Pathways Data","DISTRICT":"Mokokchung"},"geometry":{"type":"Polygon","coordinates":[[[94.3206,26.3999],[94.3588,26.3563],[94.3507,26.3405],[94.353,26.3309],[94.3773,26.3431],[94.3907,26.3602],[94.4049,26.362],[94.458,26.4282],[94.4674,26.4253],[94.4831,26.4368],[94.4493,26.4615],[94.4534,26.4926],[94.4464,26.4985],[94.4446,26.5133],[94.4257,26.5159],[94.4118,26.5092],[94.3997,26.5155],[94.3948,26.5267],[94.3882,26.5051],[94.3974,26.4829],[94.3696,26.4603],[94.333,26.4041],[94.3223,26.402],[94.3206,26.3999]]]}},{"type":"Feature","properties":{"SUBDISTRICT":"Merangmen","STATE":"Nagaland","shapeID":"7132399B55888390681436","source":"geoBoundaries gbOpen IND ADM3 (ODbL 1.0); source: Local Government Directory lgdirectory.gov.in via Pathways Data","DISTRICT":"Mokokchung"},"geometry":{"type":"Polygon","coordinates":[[[94.3969,26.5249],[94.3997,26.5155],[94.4133,26.5089],[94.4511,26.5189],[94.4516,26.5312],[94.4071,26.5434],[94.3998,26.5275],[94.3969,26.5249]]]}},{"type":"Feature","properties":{"SUBDISTRICT":"Ongpangkong","STATE":"Nagaland","shapeID":"7132399B92195948027264","source":"geoBoundaries gbOpen IND ADM3 (ODbL 1.0); source: Local Government Directory lgdirectory.gov.in via Pathways Data","DISTRICT":"Mokokchung"},"geometry":{"type":"Polygon","coordinates":[[[94.338,26.2419],[94.3604,26.2414],[94.3877,26.2263],[94.382,26.2061],[94.3702,26.1923],[94.4105,26.2116],[94.4371,26.2037],[94.4476,26.2076],[94.459,26.2509],[94.435,26.2686],[94.4341,26.2794],[94.4416,26.2879],[94.4285,26.3022],[94.432,26.3156],[94.4247,26.329],[94.4584,26.3416],[94.5004,26.3238],[94.5164,26.3474],[94.5187,26.3665],[94.5066,26.3726],[94.5061,26.3813],[94.484,26.3855],[94.4672,26.4101],[94.4397,26.4097],[94.4049,26.362],[94.3907,26.3602],[94.3864,26.3504],[94.3804,26.3532],[94.3786,26.3443],[94.3668,26.3375],[94.3555,26.3149],[94.3599,26.2683],[94.3402,26.2451],[94.338,26.2419]]]}},{"type":"Feature","properties":{"SUBDISTRICT":"Aghunato","STATE":"Nagaland","shapeID":"7132399B21615269234090","source":"geoBoundaries gbOpen IND ADM3 (ODbL 1.0); source: Local Government Directory lgdirectory.gov.in via Pathways Data","DISTRICT":"Zunheboto"},"geometry":{"type":"Polygon","coordinates":[[[94.5292,25.8946],[94.5362,25.8571],[94.5515,25.8756],[94.5718,25.8827],[94.5762,25.8955],[94.6382,25.9725],[94.6301,25.9803],[94.6336,26.0005],[94.6141,26.0074],[94.5926,25.9997],[94.5667,26.0024],[94.5617,25.9849],[94.5404,25.9573],[94.5409,25.9316],[94.5318,25.9164],[94.535,25.9053],[94.5299,25.8949],[94.5292,25.8946]]]}},{"type":"Feature","properties":{"SUBDISTRICT":"Atoizu","STATE":"Nagaland","shapeID":"7132399B58397070415522","source":"geoBoundaries gbOpen IND ADM3 (ODbL 1.0); source: Local Government Directory lgdirectory.gov.in via Pathways Data","DISTRICT":"Zunheboto"},"geometry":{"type":"Polygon","coordinates":[[[94.4145,26.0563],[94.4365,26.03],[94.4473,26.0359],[94.4666,26.0293],[94.4682,26.0421],[94.4845,26.0494],[94.5085,26.0802],[94.5441,26.0958],[94.5364,26.1349],[94.5402,26.1428],[94.5455,26.1412],[94.5414,26.1454],[94.5452,26.1536],[94.5196,26.1742],[94.5025,26.1642],[94.5052,26.1527],[94.4935,26.1412],[94.4521,26.1262],[94.4721,26.1072],[94.4746,26.0882],[94.4693,26.0783],[94.4152,26.0574],[94.4145,26.0563]]]}},{"type":"Feature","properties":{"SUBDISTRICT":"Akuhaito","STATE":"Nagaland","shapeID":"7132399B67362560442220","source":"geoBoundaries gbOpen IND ADM3 (ODbL 1.0); source: Local Government Directory lgdirectory.gov.in via Pathways Data","DISTRICT":"Zunheboto"},"geometry":{"type":"Polygon","coordinates":[[[94.3744,26.0533],[94.3853,26.0489],[94.3989,26.0636],[94.4152,26.0574],[94.4635,26.0738],[94.4746,26.0882],[94.4699,26.1113],[94.4521,26.1262],[94.4261,26.1201],[94.4154,26.1101],[94.3889,26.1118],[94.3829,26.0995],[94.3908,26.0812],[94.3772,26.0553],[94.3744,26.0533]]]}},{"type":"Feature","properties":{"SUBDISTRICT":"Pughoboto","STATE":"Nagaland","shapeID":"7132399B95954399119589","source":"geoBoundaries gbOpen IND ADM3 (ODbL 1.0); source: Local Government Directory lgdirectory.gov.in via Pathways Data","DISTRICT":"Zunheboto"},"geometry":{"type":"Polygon","coordinates":[[[94.2107,25.8702],[94.2172,25.8578],[94.2334,25.8523],[94.2324,25.8397],[94.245,25.8315],[94.2551,25.8125],[94.263,25.8237],[94.2723,25.8252],[94.2931,25.8016],[94.2922,25.8153],[94.2987,25.8161],[94.2944,25.8214],[94.3065,25.83],[94.3042,25.8425],[94.3207,25.8685],[94.3212,25.9094],[94.3268,25.9102],[94.3254,25.9236],[94.3166,25.9315],[94.3378,25.9449],[94.3333,25.9506],[94.3635,25.987],[94.3592,26.0096],[94.3397,25.9965],[94.317,26.0179],[94.3062,26.0084],[94.2872,26.0088],[94.287,25.9647],[94.2945,25.9563],[94.2967,25.9376],[94.2784,25.9247],[94.2601,25.9203],[94.2551,25.9249],[94.2372,25.9166],[94.228,25.8907],[94.2115,25.8711],[94.2107,25.8702]]]}},{"type":"Feature","properties":{"SUBDISTRICT":"Ghathashi","STATE":"Nagaland","shapeID":"7132399B7217875104452","source":"geoBoundaries gbOpen IND ADM3 (ODbL 1.0); source: Local Government Directory lgdirectory.gov.in via Pathways Data","DISTRICT":"Zunheboto"},"geometry":{"type":"Polygon","coordinates":[[[94.2854,25.7736],[94.2941,25.76],[94.2934,25.7463],[94.3083,25.7418],[94.3237,25.7577],[94.3164,25.7704],[94.3318,25.8016],[94.4098,25.8369],[94.4651,25.8421],[94.4422,25.8878],[94.3705,25.9226],[94.379,25.9427],[94.3587,25.966],[94.3458,25.9685],[94.3333,25.9506],[94.3378,25.9449],[94.3166,25.9315],[94.3254,25.9236],[94.3268,25.9102],[94.3212,25.9094],[94.3207,25.8685],[94.3042,25.8425],[94.3065,25.83],[94.2944,25.8214],[94.2987,25.8161],[94.2922,25.8153],[94.2957,25.8095],[94.2904,25.8006],[94.2952,25.7952],[94.2855,25.7761],[94.2854,25.7736]]]}},{"type":"Feature","properties":{"SUBDISTRICT":"Satakha","STATE":"Nagaland","shapeID":"7132399B767082542195","source":"geoBoundaries gbOpen IND ADM3 (ODbL 1.0); source: Local Government Directory lgdirectory.gov.in via Pathways Data","DISTRICT":"Zunheboto"},"geometry":{"type":"Polygon","coordinates":[[[94.3687,25.9267],[94.3969,25.9068],[94.4422,25.8878],[94.4687,25.8306],[94.4925,25.8309],[94.5194,25.8165],[94.5217,25.8328],[94.537,25.8478],[94.5298,25.8482],[94.5362,25.8571],[94.5292,25.8946],[94.535,25.9053],[94.5318,25.9164],[94.5394,25.923],[94.539,25.947],[94.4982,25.9589],[94.4816,25.9707],[94.471,25.9661],[94.4379,25.9895],[94.4015,25.9718],[94.3701,25.9283],[94.3687,25.9267]]]}},{"type":"Feature","properties":{"SUBDISTRICT":"Aitepyong","STATE":"Nagaland","shapeID":"7132399B33405510002917","source":"geoBoundaries gbOpen IND ADM3 (ODbL 1.0); source: Local Government Directory lgdirectory.gov.in via Pathways Data","DISTRICT":"Wokha"},"geometry":{"type":"Polygon","coordinates":[[[94.2065,26.2987],[94.2238,26.2926],[94.2286,26.2837],[94.2236,26.2781],[94.2726,26.2659],[94.2871,26.2747],[94.2781,26.2843],[94.287,26.2982],[94.3333,26.317],[94.3308,26.3218],[94.3514,26.3387],[94.3588,26.3563],[94.3156,26.4044],[94.3197,26.4162],[94.2968,26.4267],[94.2927,26.4184],[94.2805,26.417],[94.2828,26.4049],[94.2761,26.391],[94.2545,26.3745],[94.2534,26.3592],[94.2341,26.344],[94.234,26.3208],[94.2251,26.3233],[94.2072,26.2998],[94.2065,26.2987]]]}},{"type":"Feature","properties":{"SUBDISTRICT":"Sungro","STATE":"Nagaland","shapeID":"7132399B15277525038890","source":"geoBoundaries gbOpen IND ADM3 (ODbL 1.0); source: Local Government Directory lgdirectory.gov.in via Pathways Data","DISTRICT":"Wokha"},"geometry":{"type":"Polygon","coordinates":[[[94.2633,26.2453],[94.2687,26.2318],[94.2743,26.2358],[94.2812,26.2291],[94.286,26.2344],[94.2971,26.2318],[94.296,26.2173],[94.3189,26.2068],[94.3189,26.1955],[94.3281,26.1984],[94.3252,26.1939],[94.3349,26.1748],[94.3739,26.1952],[94.3877,26.2263],[94.3604,26.2414],[94.338,26.2419],[94.3599,26.2683],[94.3555,26.3149],[94.3668,26.3375],[94.353,26.3309],[94.3471,26.336],[94.3437,26.3276],[94.3308,26.3218],[94.3333,26.317],[94.287,26.2982],[94.2781,26.2843],[94.2871,26.2747],[94.279,26.2727],[94.2903,26.2594],[94.2769,26.2585],[94.278,26.2513],[94.271,26.2571],[94.2704,26.2467],[94.2642,26.2462],[94.2633,26.2453]]]}},{"type":"Feature","properties":{"SUBDISTRICT":"Lotsu","STATE":"Nagaland","shapeID":"7132399B15479707901224","source":"geoBoundaries gbOpen IND ADM3 (ODbL 1.0); source: Local Government Directory lgdirectory.gov.in via Pathways Data","DISTRICT":"Wokha"},"geometry":{"type":"Polygon","coordinates":[[[94.0087,26.0557],[94.0264,26.0448],[94.0342,26.0463],[94.0422,26.0324],[94.0707,26.0237],[94.0748,26.0341],[94.0905,26.0404],[94.09,26.0465],[94.0971,26.0452],[94.0921,26.0563],[94.105,26.0772],[94.1198,26.0809],[94.1221,26.0896],[94.1294,26.0917],[94.128,26.099],[94.141,26.1032],[94.1194,26.127],[94.118,26.1382],[94.1078,26.1393],[94.095,26.1134],[94.0774,26.1075],[94.0801,26.0994],[94.0705,26.1002],[94.0647,26.0865],[94.0594,26.0894],[94.0376,26.0675],[94.0135,26.0625],[94.0096,26.0563],[94.0087,26.0557]]]}},{"type":"Feature","properties":{"SUBDISTRICT":"Wozhuro","STATE":"Nagaland","shapeID":"7132399B38492183732829","source":"geoBoundaries gbOpen IND ADM3 (ODbL 1.0); source: Local Government Directory lgdirectory.gov.in via Pathways Data","DISTRICT":"Wokha"},"geometry":{"type":"Polygon","coordinates":[[[94.0135,25.9834],[94.0154,25.9769],[94.0316,25.9822],[94.0472,25.9759],[94.0637,25.9822],[94.0791,25.9801],[94.0907,25.9913],[94.1049,25.9907],[94.1071,25.9853],[94.1364,25.9894],[94.1689,25.9737],[94.194,25.9869],[94.2192,26.0244],[94.1801,26.0525],[94.1581,26.0584],[94.1315,26.0522],[94.1218,26.0614],[94.1125,26.0612],[94.0929,26.0556],[94.0971,26.0452],[94.09,26.0465],[94.0905,26.0404],[94.0748,26.0341],[94.0707,26.0237],[94.0571,26.0305],[94.0418,26.0248],[94.0221,26.0059],[94.0141,25.985],[94.0135,25.9834]]]}},{"type":"Feature","properties":{"SUBDISTRICT":"Seyochung","STATE":"Nagaland","shapeID":"7132399B50083259650682","source":"geoBoundaries gbOpen IND ADM3 (ODbL 1.0); source: Local Government Directory lgdirectory.gov.in via Pathways Data","DISTRICT":"Tuensang"},"geometry":{"type":"Polygon","coordinates":[[[94.5758,25.8921],[94.5955,25.878],[94.6167,25.8387],[94.6337,25.8557],[94.6748,25.8698],[94.7057,25.8968],[94.7121,25.8957],[94.7065,25.9094],[94.7012,25.9093],[94.7056,25.9588],[94.7115,25.9748],[94.7236,25.9816],[94.7445,26.0128],[94.7437,26.0214],[94.7269,26.0271],[94.695,26.0177],[94.6741,26.0212],[94.6095,25.9317],[94.5762,25.8955],[94.5758,25.8921]]]}},{"type":"Feature","properties":{"SUBDISTRICT":"Botsa","STATE":"Nagaland","shapeID":"7132399B33221983400060","source":"geoBoundaries gbOpen IND ADM3 (ODbL 1.0); source: Local Government Directory lgdirectory.gov.in via Pathways Data","DISTRICT":"Kohima"},"geometry":{"type":"Polygon","coordinates":[[[94.0883,25.837],[94.0961,25.8233],[94.1555,25.8357],[94.1699,25.8066],[94.2099,25.7702],[94.219,25.7721],[94.232,25.7934],[94.2461,25.7953],[94.2587,25.809],[94.245,25.8315],[94.2338,25.8374],[94.2334,25.8523],[94.2172,25.8578],[94.2093,25.8714],[94.188,25.8633],[94.1683,25.8797],[94.1118,25.8795],[94.1033,25.87],[94.1177,25.8628],[94.1154,25.8543],[94.0889,25.8409],[94.0883,25.837]]]}},{"type":"Feature","properties":{"SUBDISTRICT":"Wokha Sadar","STATE":"Nagaland","shapeID":"7132399B3265634714224","source":"geoBoundaries gbOpen IND ADM3 (ODbL 1.0); source: Local Government Directory lgdirectory.gov.in via Pathways Data","DISTRICT":"Wokha"},"geometry":{"type":"Polygon","coordinates":[[[94.0921,26.0563],[94.1218,26.0614],[94.1315,26.0522],[94.1581,26.0584],[94.1801,26.0525],[94.2427,26.0037],[94.2772,26.0112],[94.3062,26.0084],[94.317,26.0179],[94.3397,25.9965],[94.3592,26.0096],[94.3744,26.0533],[94.3711,26.0585],[94.3035,26.0793],[94.2938,26.0946],[94.2976,26.1093],[94.2851,26.1256],[94.2853,26.1372],[94.2475,26.1498],[94.2391,26.1603],[94.2413,26.1796],[94.2236,26.1958],[94.2005,26.1792],[94.206,26.1604],[94.1959,26.1654],[94.1746,26.1494],[94.18,26.1442],[94.1643,26.1346],[94.1688,26.1277],[94.1568,26.1232],[94.1588,26.1173],[94.1536,26.1185],[94.1546,26.113],[94.1425,26.1099],[94.143,26.1052],[94.1376,26.1075],[94.1404,26.1019],[94.128,26.099],[94.1294,26.0917],[94.1175,26.0792],[94.105,26.0772],[94.093,26.0574],[94.0921,26.0563]]]}},{"type":"Feature","properties":{"SUBDISTRICT":"Phek Sadar","STATE":"Nagaland","shapeID":"7132399B46650691179635","source":"geoBoundaries gbOpen IND ADM3 (ODbL 1.0); source: Local Government Directory lgdirectory.gov.in via Pathways Data","DISTRICT":"Phek"},"geometry":{"type":"Polygon","coordinates":[[[94.352,25.7129],[94.3622,25.6868],[94.3768,25.6954],[94.3874,25.6806],[94.4269,25.6573],[94.421,25.6352],[94.4056,25.624],[94.428,25.6034],[94.4289,25.5869],[94.4467,25.5922],[94.4729,25.6157],[94.49,25.6139],[94.4923,25.6084],[94.5042,25.611],[94.5097,25.6239],[94.523,25.6374],[94.5295,25.6366],[94.5304,25.6441],[94.5384,25.6451],[94.5639,25.6748],[94.5804,25.7142],[94.5864,25.7515],[94.5585,25.7297],[94.5472,25.7498],[94.4833,25.7487],[94.429,25.7679],[94.4092,25.7625],[94.3957,25.7471],[94.3645,25.7402],[94.3536,25.7142],[94.352,25.7129]]]}},{"type":"Feature","properties":{"SUBDISTRICT":"Phor","STATE":"Nagaland","shapeID":"7132399B24192627388347","source":"geoBoundaries gbOpen IND ADM3 (ODbL 1.0); source: Local Government Directory lgdirectory.gov.in via Pathways Data","DISTRICT":"Phek"},"geometry":{"type":"Polygon","coordinates":[[[94.6949,25.6732],[94.7049,25.6331],[94.7187,25.6106],[94.7375,25.6351],[94.739,25.6503],[94.7798,25.6734],[94.798,25.719],[94.8372,25.7459],[94.7885,25.7764],[94.7547,25.7798],[94.726,25.7474],[94.7228,25.7338],[94.7292,25.7223],[94.6973,25.6783],[94.6949,25.6732]]]}},{"type":"Feature","properties":{"SUBDISTRICT":"Phokhungri","STATE":"Nagaland","shapeID":"7132399B96690401605007","source":"geoBoundaries gbOpen IND ADM3 (ODbL 1.0); source: Local Government Directory lgdirectory.gov.in via Pathways Data","DISTRICT":"Phek"},"geometry":{"type":"MultiPolygon","coordinates":[[[[94.878,25.5818],[94.8838,25.5874],[94.8816,25.5881],[94.878,25.5818]]],[[[94.606,25.4761],[94.6314,25.4592],[94.6682,25.4488],[94.7491,25.495],[94.7685,25.4797],[94.7784,25.4827],[94.8077,25.5045],[94.8494,25.5607],[94.8916,25.5671],[94.8922,25.5738],[94.878,25.5818],[94.8131,25.5748],[94.7928,25.5881],[94.7489,25.5909],[94.7369,25.5989],[94.7332,25.6095],[94.7187,25.6106],[94.6976,25.5848],[94.6771,25.5725],[94.6652,25.5279],[94.6291,25.4984],[94.6168,25.48],[94.606,25.4761]]]]}},{"type":"Feature","properties":{"SUBDISTRICT":"Chozuba","STATE":"Nagaland","shapeID":"7132399B27123596829843","source":"geoBoundaries gbOpen IND ADM3 (ODbL 1.0); source: Local Government Directory lgdirectory.gov.in via Pathways Data","DISTRICT":"Phek"},"geometry":{"type":"Polygon","coordinates":[[[94.2657,25.7277],[94.2861,25.7028],[94.3126,25.6887],[94.3095,25.6788],[94.3184,25.6549],[94.3346,25.6492],[94.3597,25.6715],[94.3612,25.6881],[94.352,25.7129],[94.3616,25.7299],[94.3504,25.7367],[94.343,25.7537],[94.3336,25.7514],[94.3237,25.7577],[94.3143,25.7443],[94.2934,25.7463],[94.2734,25.7326],[94.2657,25.7277]]]}},{"type":"Feature","properties":{"SUBDISTRICT":"Chetheba","STATE":"Nagaland","shapeID":"7132399B61005525996679","source":"geoBoundaries gbOpen IND ADM3 (ODbL 1.0); source: Local Government Directory lgdirectory.gov.in via Pathways Data","DISTRICT":"Phek"},"geometry":{"type":"Polygon","coordinates":[[[94.2147,25.6376],[94.2426,25.6231],[94.2694,25.6598],[94.3162,25.6685],[94.3095,25.6788],[94.3126,25.6887],[94.2861,25.7028],[94.2657,25.7277],[94.2217,25.6933],[94.2169,25.6772],[94.2233,25.6749],[94.2243,25.6578],[94.2205,25.6376],[94.2161,25.6382],[94.2147,25.6376]]]}},{"type":"Feature","properties":{"SUBDISTRICT":"Pfutsero","STATE":"Nagaland","shapeID":"7132399B618048611600","source":"geoBoundaries gbOpen IND ADM3 (ODbL 1.0); source: Local Government Directory lgdirectory.gov.in via Pathways Data","DISTRICT":"Phek"},"geometry":{"type":"Polygon","coordinates":[[[94.2355,25.5561],[94.2558,25.5323],[94.2892,25.5169],[94.3006,25.5616],[94.3159,25.5789],[94.3614,25.6002],[94.3225,25.6131],[94.2903,25.605],[94.2737,25.612],[94.264,25.5977],[94.2505,25.5921],[94.2366,25.5563],[94.2355,25.5561]]]}},{"type":"Feature","properties":{"SUBDISTRICT":"Zuketsa","STATE":"Nagaland","shapeID":"7132399B49500162984446","source":"geoBoundaries gbOpen IND ADM3 (ODbL 1.0); source: Local Government Directory lgdirectory.gov.in via Pathways Data","DISTRICT":"Phek"},"geometry":{"type":"Polygon","coordinates":[[[94.1933,25.5398],[94.2265,25.5174],[94.2345,25.493],[94.2731,25.4975],[94.2917,25.5143],[94.2558,25.5323],[94.2273,25.5642],[94.2032,25.5749],[94.2047,25.5612],[94.194,25.5471],[94.1933,25.5398]]]}},{"type":"Feature","properties":{"SUBDISTRICT":"Noksen","STATE":"Nagaland","shapeID":"7132399B25011893319316","source":"geoBoundaries gbOpen IND ADM3 (ODbL 1.0); source: Local Government Directory lgdirectory.gov.in via Pathways Data","DISTRICT":"Tuensang"},"geometry":{"type":"Polygon","coordinates":[[[94.6419,26.334],[94.6893,26.3005],[94.7643,26.2877],[94.7778,26.2941],[94.7806,26.2982],[94.7461,26.3285],[94.7448,26.3517],[94.7779,26.3685],[94.8069,26.3703],[94.8211,26.4001],[94.7749,26.4306],[94.7636,26.4484],[94.7528,26.4465],[94.749,26.4528],[94.7113,26.4395],[94.7061,26.4124],[94.6622,26.3761],[94.6651,26.369],[94.65,26.3398],[94.6419,26.334]]]}},{"type":"Feature","properties":{"SUBDISTRICT":"Chare","STATE":"Nagaland","shapeID":"7132399B16764957795526","source":"geoBoundaries gbOpen IND ADM3 (ODbL 1.0); source: Local Government Directory lgdirectory.gov.in via Pathways Data","DISTRICT":"Tuensang"},"geometry":{"type":"Polygon","coordinates":[[[94.5649,26.2613],[94.5794,26.2385],[94.5881,26.2357],[94.5885,26.2208],[94.6098,26.2221],[94.6413,26.2376],[94.6514,26.2698],[94.6732,26.2934],[94.6739,26.3109],[94.6455,26.3325],[94.6315,26.3337],[94.584,26.2901],[94.5725,26.289],[94.5651,26.2791],[94.566,26.2642],[94.5649,26.2613]]]}},{"type":"Feature","properties":{"SUBDISTRICT":"Longkhim","STATE":"Nagaland","shapeID":"7132399B63135258979897","source":"geoBoundaries gbOpen IND ADM3 (ODbL 1.0); source: Local Government Directory lgdirectory.gov.in via Pathways Data","DISTRICT":"Tuensang"},"geometry":{"type":"Polygon","coordinates":[[[94.5873,26.2185],[94.6093,26.1977],[94.63,26.203],[94.6425,26.218],[94.656,26.2039],[94.6747,26.2075],[94.6906,26.1943],[94.7391,26.202],[94.7552,26.2128],[94.7566,26.2895],[94.6893,26.3005],[94.6739,26.3109],[94.6732,26.2934],[94.6514,26.2698],[94.6413,26.2376],[94.6098,26.2221],[94.5885,26.2208],[94.5873,26.2185]]]}},{"type":"Feature","properties":{"SUBDISTRICT":"Panso","STATE":"Nagaland","shapeID":"7132399B48085553147860","source":"geoBoundaries gbOpen IND ADM3 (ODbL 1.0); source: Local Government Directory lgdirectory.gov.in via Pathways Data","DISTRICT":"Tuensang"},"geometry":{"type":"Polygon","coordinates":[[[94.903,26.1408],[94.9296,26.1008],[94.9317,26.0711],[94.9376,26.0644],[94.9603,26.085],[95.0152,26.1035],[95.0192,26.1108],[95.0172,26.1392],[95.0091,26.1506],[95.0172,26.1564],[95.0182,26.1901],[95.0082,26.2064],[94.9714,26.1998],[94.9244,26.2022],[94.926,26.1695],[94.9209,26.1567],[94.9037,26.1435],[94.903,26.1408]]]}},{"type":"Feature","properties":{"SUBDISTRICT":"Shamator","STATE":"Nagaland","shapeID":"7132399B96862569444868","source":"geoBoundaries gbOpen IND ADM3 (ODbL 1.0); source: Local Government Directory lgdirectory.gov.in via Pathways Data","DISTRICT":"Tuensang"},"geometry":{"type":"Polygon","coordinates":[[[94.8016,26.0952],[94.8207,26.0787],[94.8339,26.0757],[94.8323,26.0653],[94.839,26.0642],[94.8349,26.0608],[94.8452,26.0564],[94.8402,26.0426],[94.8505,26.0502],[94.8573,26.0473],[94.8675,26.0287],[94.8892,26.0252],[94.8938,26.0162],[94.902,26.0294],[94.9152,26.0316],[94.9246,26.0498],[94.937,26.056],[94.9296,26.1008],[94.9174,26.1224],[94.9036,26.1334],[94.9037,26.1435],[94.9209,26.1567],[94.9272,26.1733],[94.9244,26.2022],[94.9057,26.201],[94.897,26.2074],[94.8598,26.1682],[94.8465,26.1662],[94.825,26.149],[94.8087,26.1347],[94.8031,26.097],[94.8016,26.0952]]]}},{"type":"Feature","properties":{"SUBDISTRICT":"Tsurungto","STATE":"Nagaland","shapeID":"7132399B88357739737172","source":"geoBoundaries gbOpen IND ADM3 (ODbL 1.0); source: Local Government Directory lgdirectory.gov.in via Pathways Data","DISTRICT":"Tuensang"},"geometry":{"type":"Polygon","coordinates":[[[94.7616,25.9947],[94.7697,25.99],[94.8187,25.9993],[94.8324,25.992],[94.8375,25.9666],[94.868,25.9595],[94.8855,25.9864],[94.8862,26.0022],[94.891,26.0009],[94.8855,26.0065],[94.8977,26.0116],[94.8892,26.0252],[94.8675,26.0287],[94.8505,26.0502],[94.84,26.0363],[94.8195,26.0343],[94.8105,26.0195],[94.7798,26.0129],[94.7619,25.9956],[94.7616,25.9947]]]}},{"type":"Feature","properties":{"SUBDISTRICT":"Thonoknyu","STATE":"Nagaland","shapeID":"7132399B34083908323844","source":"geoBoundaries gbOpen IND ADM3 (ODbL 1.0); source: Local Government Directory lgdirectory.gov.in via Pathways Data","DISTRICT":"Tuensang"},"geometry":{"type":"Polygon","coordinates":[[[94.849,25.9331],[94.8759,25.9483],[94.8978,25.9426],[94.9323,25.9485],[94.941,25.9385],[94.9395,25.9158],[94.9523,25.9033],[94.9652,25.9054],[94.9754,25.8823],[94.9862,25.8783],[95.0194,25.8955],[95.0238,25.9246],[95.0523,25.928],[95.0917,25.9561],[95.1556,26.0187],[95.1834,26.0636],[95.1781,26.0758],[95.1471,26.0862],[95.1303,26.0734],[95.0823,26.0671],[95.0192,26.08],[94.9918,26.0945],[94.9665,26.0879],[94.9376,26.0644],[94.937,26.056],[94.9246,26.0498],[94.9152,26.0316],[94.9011,26.0283],[94.8938,26.0162],[94.8977,26.0116],[94.8855,26.0065],[94.891,26.0009],[94.8862,26.0022],[94.8855,25.9864],[94.8697,25.9565],[94.8646,25.9479],[94.8571,25.9489],[94.8491,25.9333],[94.849,25.9331]]]}},{"type":"Feature","properties":{"SUBDISTRICT":"Tamlu","STATE":"Nagaland","shapeID":"7132399B29420390006555","source":"geoBoundaries gbOpen IND ADM3 (ODbL 1.0); source: Local Government Directory lgdirectory.gov.in via Pathways Data","DISTRICT":"Tuensang"},"geometry":{"type":"Polygon","coordinates":[[[94.6704,26.648],[94.7117,26.6364],[94.7247,26.6204],[94.7503,26.6445],[94.7831,26.6559],[94.7918,26.6834],[94.7852,26.6982],[94.7525,26.7016],[94.7272,26.6967],[94.7189,26.6797],[94.6732,26.6516],[94.6704,26.648]]]}},{"type":"Feature","properties":{"SUBDISTRICT":"Longleng","STATE":"Nagaland","shapeID":"7132399B3874276016459","source":"geoBoundaries gbOpen IND ADM3 (ODbL 1.0); source: Local Government Directory lgdirectory.gov.in via Pathways Data","DISTRICT":"Tuensang"},"geometry":{"type":"Polygon","coordinates":[[[94.6914,26.5238],[94.6969,26.4995],[94.6926,26.4793],[94.7113,26.4395],[94.749,26.4528],[94.7528,26.4465],[94.7658,26.4476],[94.7749,26.4306],[94.7986,26.4194],[94.8085,26.4056],[94.8553,26.3726],[94.8822,26.3998],[94.8842,26.4066],[94.8593,26.4262],[94.852,26.4537],[94.8798,26.4983],[94.8991,26.5042],[94.8942,26.533],[94.8395,26.5302],[94.8387,26.5371],[94.8272,26.5407],[94.7754,26.5324],[94.7606,26.5448],[94.74,26.5485],[94.7287,26.5674],[94.7028,26.5383],[94.6914,26.5238]]]}},{"type":"Feature","properties":{"SUBDISTRICT":"Amahator","STATE":"Nagaland","shapeID":"7132399B10683197878953","source":"geoBoundaries gbOpen IND ADM3 (ODbL 1.0); source: Local Government Directory lgdirectory.gov.in via Pathways Data","DISTRICT":"Tuensang"},"geometry":{"type":"Polygon","coordinates":[[[94.7012,25.9093],[94.7065,25.9094],[94.7182,25.8903],[94.7409,25.8812],[94.754,25.9167],[94.7669,25.9196],[94.785,25.942],[94.799,25.9466],[94.8277,25.989],[94.8282,25.9949],[94.8123,26.0013],[94.787,25.9922],[94.7623,25.9928],[94.771,26.0072],[94.7894,26.0145],[94.7657,26.0284],[94.7489,26.0295],[94.7424,26.0083],[94.7087,25.9687],[94.7018,25.9117],[94.7012,25.9093]]]}},{"type":"Feature","properties":{"SUBDISTRICT":"Kiphire Sadar","STATE":"Nagaland","shapeID":"7132399B90367082763923","source":"geoBoundaries gbOpen IND ADM3 (ODbL 1.0); source: Local Government Directory lgdirectory.gov.in via Pathways Data","DISTRICT":"Tuensang"},"geometry":{"type":"Polygon","coordinates":[[[94.7396,25.8815],[94.7829,25.8569],[94.7948,25.8449],[94.7922,25.8403],[94.8007,25.8441],[94.8013,25.8547],[94.8126,25.8612],[94.816,25.8879],[94.8381,25.9033],[94.8345,25.9151],[94.8458,25.9224],[94.8439,25.9287],[94.8507,25.9275],[94.8571,25.9489],[94.8646,25.9479],[94.8697,25.9565],[94.863,25.964],[94.8375,25.9666],[94.8292,25.9931],[94.799,25.9466],[94.785,25.942],[94.7669,25.9196],[94.754,25.9167],[94.7409,25.8812],[94.7396,25.8815]]]}},{"type":"Feature","properties":{"SUBDISTRICT":"Kiusam","STATE":"Nagaland","shapeID":"7132399B90984916132388","source":"geoBoundaries gbOpen IND ADM3 (ODbL 1.0); source: Local Government Directory lgdirectory.gov.in via Pathways Data","DISTRICT":"Tuensang"},"geometry":{"type":"Polygon","coordinates":[[[94.8155,25.8864],[94.8157,25.8786],[94.835,25.8665],[94.8427,25.8727],[94.8628,25.8718],[94.8788,25.887],[94.9054,25.8801],[94.9317,25.869],[94.9505,25.8513],[94.9745,25.8464],[94.9787,25.8357],[94.9949,25.8403],[95.0132,25.834],[95.0307,25.8462],[95.0202,25.8658],[95.0194,25.8955],[94.9849,25.8779],[94.9785,25.8804],[94.9652,25.9054],[94.9523,25.9033],[94.9395,25.9158],[94.9401,25.9418],[94.9298,25.9492],[94.8978,25.9426],[94.8759,25.9483],[94.8599,25.9404],[94.8345,25.9151],[94.8381,25.9033],[94.816,25.8879],[94.8155,25.8864]]]}},{"type":"Feature","properties":{"SUBDISTRICT":"Tseminyu","STATE":"Nagaland","shapeID":"7132399B84190135939450","source":"geoBoundaries gbOpen IND ADM3 (ODbL 1.0); source: Local Government Directory lgdirectory.gov.in via Pathways Data","DISTRICT":"Kohima"},"geometry":{"type":"Polygon","coordinates":[[[94.0863,25.9859],[94.1331,25.9346],[94.1524,25.9259],[94.1633,25.8859],[94.188,25.8633],[94.2115,25.8711],[94.228,25.8907],[94.2372,25.9166],[94.2551,25.9249],[94.2601,25.9203],[94.2784,25.9247],[94.2967,25.9376],[94.2939,25.9495],[94.2931,25.9447],[94.2544,25.9481],[94.2421,25.9407],[94.2275,25.9519],[94.1806,25.9546],[94.1647,25.9739],[94.1364,25.9894],[94.0869,25.9875],[94.0863,25.9859]]]}},{"type":"Feature","properties":{"SUBDISTRICT":"Tsogin","STATE":"Nagaland","shapeID":"7132399B42791235592308","source":"geoBoundaries gbOpen IND ADM3 (ODbL 1.0); source: Local Government Directory lgdirectory.gov.in via Pathways Data","DISTRICT":"Kohima"},"geometry":{"type":"Polygon","coordinates":[[[93.9968,25.893],[94.0126,25.882],[94.0397,25.9013],[94.0766,25.8989],[94.0857,25.9169],[94.1025,25.9006],[94.1573,25.8972],[94.1524,25.9259],[94.1331,25.9346],[94.0863,25.9859],[94.0472,25.9759],[94.0346,25.98],[94.0442,25.9423],[94.0215,25.9416],[94.0019,25.9311],[94.0085,25.9136],[93.9971,25.8939],[93.9968,25.893]]]}},{"type":"Feature","properties":{"SUBDISTRICT":"Kezocha","STATE":"Nagaland","shapeID":"7132399B41465501663275","source":"geoBoundaries gbOpen IND ADM3 (ODbL 1.0); source: Local Government Directory lgdirectory.gov.in via Pathways Data","DISTRICT":"Kohima"},"geometry":{"type":"Polygon","coordinates":[[[94.1593,25.55],[94.167,25.5418],[94.1997,25.5528],[94.2045,25.5889],[94.2207,25.6161],[94.2147,25.6376],[94.2205,25.6376],[94.2248,25.6646],[94.2177,25.6854],[94.253,25.7192],[94.2942,25.7471],[94.2854,25.7736],[94.2956,25.7972],[94.2813,25.8111],[94.2859,25.8133],[94.2815,25.8199],[94.263,25.8237],[94.2524,25.8007],[94.232,25.7934],[94.219,25.7721],[94.2099,25.7702],[94.2022,25.7763],[94.1882,25.7703],[94.1761,25.7518],[94.1744,25.7369],[94.1935,25.6995],[94.1855,25.6904],[94.2011,25.6537],[94.1773,25.6299],[94.1871,25.6167],[94.1729,25.5985],[94.1834,25.5856],[94.1637,25.5513],[94.1593,25.55]]]}},{"type":"Feature","properties":{"SUBDISTRICT":"Jakhama","STATE":"Nagaland","shapeID":"7132399B4451012613113","source":"geoBoundaries gbOpen IND ADM3 (ODbL 1.0); source: Local Government Directory lgdirectory.gov.in via Pathways Data","DISTRICT":"Kohima"},"geometry":{"type":"Polygon","coordinates":[[[94.0644,25.5962],[94.0837,25.5682],[94.0793,25.5566],[94.0941,25.5414],[94.0913,25.5276],[94.1378,25.5185],[94.1473,25.5265],[94.152,25.5426],[94.1729,25.5618],[94.1834,25.5856],[94.1733,25.6051],[94.1871,25.6167],[94.1773,25.6299],[94.2011,25.6537],[94.1898,25.6851],[94.1804,25.693],[94.1474,25.69],[94.1371,25.6834],[94.1242,25.6864],[94.115,25.6455],[94.0825,25.6616],[94.0748,25.6169],[94.0646,25.5977],[94.0644,25.5962]]]}},{"type":"Feature","properties":{"SUBDISTRICT":"Kohima Sadar","STATE":"Nagaland","shapeID":"7132399B95201249537593","source":"geoBoundaries gbOpen IND ADM3 (ODbL 1.0); source: Local Government Directory lgdirectory.gov.in via Pathways Data","DISTRICT":"Kohima"},"geometry":{"type":"Polygon","coordinates":[[[94.0825,25.6616],[94.1135,25.6446],[94.1242,25.6864],[94.1371,25.6834],[94.1679,25.6935],[94.1855,25.6904],[94.1935,25.6995],[94.1833,25.7099],[94.1392,25.7108],[94.1411,25.6981],[94.1271,25.6941],[94.1061,25.7043],[94.1052,25.7179],[94.0916,25.7183],[94.0998,25.6876],[94.0897,25.6833],[94.0826,25.6621],[94.0825,25.6616]]]}},{"type":"Feature","properties":{"SUBDISTRICT":"Sechu-Zubza","STATE":"Nagaland","shapeID":"7132399B34592440585583","source":"geoBoundaries gbOpen IND ADM3 (ODbL 1.0); source: Local Government Directory lgdirectory.gov.in via Pathways Data","DISTRICT":"Kohima"},"geometry":{"type":"Polygon","coordinates":[[[93.901,25.657],[93.9162,25.6203],[93.9538,25.5742],[93.9568,25.552],[93.972,25.5564],[93.9798,25.5664],[94.0097,25.5664],[94.007,25.5861],[94.0141,25.5913],[94.0249,25.5885],[94.0342,25.5766],[94.0534,25.5718],[94.0687,25.554],[94.0834,25.5631],[94.0644,25.5962],[94.0748,25.6169],[94.0859,25.6764],[94.0539,25.692],[94.0435,25.7061],[94.0444,25.7259],[94.0027,25.7804],[93.9822,25.7766],[93.9724,25.7578],[93.9845,25.7358],[93.9536,25.7065],[93.9312,25.6961],[93.902,25.659],[93.901,25.657]]]}},{"type":"Feature","properties":{"SUBDISTRICT":"Pedi (Ngwalwa)","STATE":"Nagaland","shapeID":"7132399B38651978746027","source":"geoBoundaries gbOpen IND ADM3 (ODbL 1.0); source: Local Government Directory lgdirectory.gov.in via Pathways Data","DISTRICT":"Kohima"},"geometry":{"type":"Polygon","coordinates":[[[93.7759,25.6667],[93.7873,25.6567],[93.7786,25.6448],[93.7828,25.6211],[93.7964,25.6023],[93.7903,25.592],[93.8246,25.5515],[93.836,25.5585],[93.8617,25.553],[93.8997,25.5641],[93.9568,25.552],[93.9538,25.5742],[93.9162,25.6203],[93.9031,25.6561],[93.8818,25.6795],[93.8167,25.6804],[93.776,25.6667],[93.7759,25.6667]]]}},{"type":"Feature","properties":{"SUBDISTRICT":"Jalukie","STATE":"Nagaland","shapeID":"7132399B77620098810348","source":"geoBoundaries gbOpen IND ADM3 (ODbL 1.0); source: Local Government Directory lgdirectory.gov.in via Pathways Data","DISTRICT":"Kohima"},"geometry":{"type":"Polygon","coordinates":[[[93.5102,25.6672],[93.521,25.6575],[93.523,25.647],[93.5181,25.6448],[93.5243,25.6383],[93.536,25.6401],[93.5369,25.6472],[93.577,25.6507],[93.6067,25.6214],[93.6364,25.6207],[93.6586,25.5742],[93.6956,25.5773],[93.6902,25.5501],[93.7142,25.5416],[93.7516,25.5607],[93.757,25.5721],[93.7959,25.5993],[93.7808,25.6291],[93.7786,25.6448],[93.7873,25.6567],[93.7467,25.6859],[93.7422,25.6971],[93.7366,25.6867],[93.6842,25.6684],[93.678,25.6941],[93.6613,25.6902],[93.6349,25.6724],[93.6055,25.6734],[93.581,25.6935],[93.5597,25.692],[93.5444,25.7021],[93.5306,25.6889],[93.526,25.6959],[93.5169,25.6843],[93.5203,25.6799],[93.5102,25.6672]]]}},{"type":"Feature","properties":{"SUBDISTRICT":"Athibung","STATE":"Nagaland","shapeID":"7132399B79511420851583","source":"geoBoundaries gbOpen IND ADM3 (ODbL 1.0); source: Local Government Directory lgdirectory.gov.in via Pathways Data","DISTRICT":"Kohima"},"geometry":{"type":"Polygon","coordinates":[[[93.3318,25.5433],[93.3405,25.5337],[93.3524,25.534],[93.365,25.5065],[93.3904,25.482],[93.5031,25.5099],[93.5725,25.5017],[93.6554,25.5312],[93.6584,25.5492],[93.6518,25.5598],[93.6586,25.5742],[93.6405,25.6175],[93.6067,25.6214],[93.577,25.6507],[93.5369,25.6472],[93.536,25.6401],[93.5243,25.6383],[93.5181,25.6448],[93.523,25.647],[93.521,25.6575],[93.5102,25.6672],[93.5,25.6527],[93.4836,25.648],[93.4834,25.642],[93.4572,25.6369],[93.462,25.6297],[93.4468,25.6351],[93.4276,25.6278],[93.4077,25.6058],[93.4069,25.5928],[93.3901,25.5911],[93.3825,25.5811],[93.3848,25.5743],[93.3652,25.5662],[93.3642,25.5571],[93.3484,25.5597],[93.3335,25.5455],[93.3318,25.5433]]]}},{"type":"Feature","properties":{"SUBDISTRICT":"Kebai Khelma","STATE":"Nagaland","shapeID":"7132399B45304029367084","source":"geoBoundaries gbOpen IND ADM3 (ODbL 1.0); source: Local Government Directory lgdirectory.gov.in via Pathways Data","DISTRICT":"Kohima"},"geometry":{"type":"Polygon","coordinates":[[[93.3903,25.4655],[93.417,25.4491],[93.4434,25.4468],[93.4616,25.4309],[93.463,25.4071],[93.4779,25.376],[93.4659,25.3579],[93.4654,25.3459],[93.4802,25.3381],[93.5142,25.3368],[93.5315,25.3607],[93.5459,25.3653],[93.5399,25.3798],[93.5437,25.3835],[93.5328,25.393],[93.5296,25.4289],[93.5186,25.4447],[93.5248,25.4719],[93.5725,25.5017],[93.5031,25.5099],[93.3904,25.482],[93.3918,25.4705],[93.3903,25.4655]]]}},{"type":"Feature","properties":{"SUBDISTRICT":"Nsong","STATE":"Nagaland","shapeID":"7132399B63038214129799","source":"geoBoundaries gbOpen IND ADM3 (ODbL 1.0); source: Local Government Directory lgdirectory.gov.in via Pathways Data","DISTRICT":"Kohima"},"geometry":{"type":"Polygon","coordinates":[[[93.4516,25.3403],[93.4616,25.3327],[93.4563,25.3214],[93.4736,25.3054],[93.4763,25.2751],[93.5103,25.2716],[93.5046,25.2401],[93.5542,25.2464],[93.5852,25.2181],[93.593,25.2293],[93.6061,25.2308],[93.6032,25.2517],[93.5818,25.2968],[93.589,25.3027],[93.5956,25.2995],[93.5901,25.311],[93.5946,25.3152],[93.5786,25.3301],[93.5814,25.3414],[93.5749,25.3616],[93.5562,25.3682],[93.5403,25.3656],[93.5142,25.3368],[93.4802,25.3381],[93.4654,25.3459],[93.4659,25.3579],[93.4534,25.3443],[93.4516,25.3403]]]}},{"type":"Feature","properties":{"SUBDISTRICT":"Tening","STATE":"Nagaland","shapeID":"7132399B26447987465718","source":"geoBoundaries gbOpen IND ADM3 (ODbL 1.0); source: Local Government Directory lgdirectory.gov.in via Pathways Data","DISTRICT":"Kohima"},"geometry":{"type":"Polygon","coordinates":[[[93.5186,25.4447],[93.5296,25.4289],[93.5328,25.393],[93.5437,25.3835],[93.5399,25.3798],[93.5459,25.3666],[93.5749,25.3616],[93.5814,25.3414],[93.5786,25.3301],[93.5941,25.3171],[93.5902,25.3092],[93.5971,25.302],[93.5818,25.2968],[93.6063,25.2339],[93.593,25.2293],[93.5874,25.218],[93.5924,25.1997],[93.6119,25.202],[93.665,25.2941],[93.6655,25.304],[93.6723,25.3072],[93.6715,25.3244],[93.6865,25.3269],[93.6946,25.3645],[93.6903,25.3686],[93.7064,25.387],[93.7071,25.4071],[93.682,25.4342],[93.6838,25.4702],[93.6464,25.4891],[93.6561,25.5311],[93.5588,25.4957],[93.5248,25.4719],[93.5195,25.4492],[93.5186,25.4447]]]}},{"type":"Feature","properties":{"SUBDISTRICT":"Peren","STATE":"Nagaland","shapeID":"7132399B99291447986081","source":"geoBoundaries gbOpen IND ADM3 (ODbL 1.0); source: Local Government Directory lgdirectory.gov.in via Pathways Data","DISTRICT":"Kohima"},"geometry":{"type":"Polygon","coordinates":[[[93.6446,25.498],[93.6493,25.4865],[93.6838,25.4702],[93.682,25.4342],[93.7071,25.4071],[93.7064,25.387],[93.7008,25.3762],[93.6929,25.3744],[93.6922,25.3573],[93.7174,25.3572],[93.7225,25.3712],[93.7392,25.38],[93.7461,25.4013],[93.7805,25.4202],[93.8084,25.4611],[93.8133,25.4802],[93.7967,25.4999],[93.7653,25.4955],[93.7702,25.5359],[93.8192,25.5399],[93.8246,25.5515],[93.7895,25.5951],[93.757,25.5721],[93.7516,25.5607],[93.7185,25.541],[93.6902,25.5501],[93.6956,25.5773],[93.6586,25.5742],[93.6518,25.5598],[93.6576,25.5352],[93.6457,25.4994],[93.6446,25.498]]]}},{"type":"Feature","properties":{"SUBDISTRICT":"Tuensang Sadar","STATE":"Nagaland","shapeID":"7132399B60392548057515","source":"geoBoundaries gbOpen IND ADM3 (ODbL 1.0); source: Local Government Directory lgdirectory.gov.in via Pathways Data","DISTRICT":"Tuensang"},"geometry":{"type":"Polygon","coordinates":[[[94.7519,26.2503],[94.7584,26.2393],[94.7533,26.2344],[94.7568,26.2272],[94.7775,26.2249],[94.788,26.2149],[94.811,26.2092],[94.8356,26.2123],[94.835,26.2431],[94.858,26.291],[94.906,26.3344],[94.9062,26.344],[94.8992,26.3418],[94.8402,26.3045],[94.7958,26.2949],[94.7806,26.2982],[94.768,26.2879],[94.7566,26.2895],[94.7529,26.2524],[94.7519,26.2503]]]}},{"type":"Feature","properties":{"SUBDISTRICT":"Meluri","STATE":"Nagaland","shapeID":"7132399B87195668904210","source":"geoBoundaries gbOpen IND ADM3 (ODbL 1.0); source: Local Government Directory lgdirectory.gov.in via Pathways Data","DISTRICT":"Phek"},"geometry":{"type":"Polygon","coordinates":[[[94.5544,25.5797],[94.5633,25.5618],[94.556,25.5066],[94.606,25.4761],[94.6168,25.48],[94.6291,25.4984],[94.6652,25.5279],[94.6728,25.5662],[94.7187,25.6106],[94.7049,25.6331],[94.6949,25.6732],[94.7244,25.7128],[94.7202,25.7504],[94.7155,25.7576],[94.6631,25.7753],[94.6315,25.7673],[94.6134,25.7792],[94.5865,25.7577],[94.5851,25.7308],[94.5723,25.6967],[94.5719,25.6916],[94.5958,25.6808],[94.5841,25.6687],[94.5749,25.6386],[94.5939,25.6377],[94.5583,25.588],[94.5544,25.5797]]]}},{"type":"Feature","properties":{"SUBDISTRICT":"Chessore","STATE":"Nagaland","shapeID":"7132399B59668320177665","source":"geoBoundaries gbOpen IND ADM3 (ODbL 1.0); source: Local Government Directory lgdirectory.gov.in via Pathways Data","DISTRICT":"Tuensang"},"geometry":{"type":"Polygon","coordinates":[[[94.6901,26.0978],[94.7054,26.0519],[94.72,26.049],[94.7518,26.0603],[94.7695,26.0765],[94.7845,26.1136],[94.7202,26.1153],[94.6915,26.0969],[94.6901,26.0978]]]}},{"type":"Feature","properties":{"SUBDISTRICT":"Kuhoboto","STATE":"Nagaland","shapeID":"7132399B47260692594627","source":"geoBoundaries gbOpen IND ADM3 (ODbL 1.0); source: Local Government Directory lgdirectory.gov.in via Pathways Data","DISTRICT":"Dimapur"},"geometry":{"type":"Polygon","coordinates":[[[93.8242,25.8428],[93.8544,25.7965],[93.9274,25.8308],[93.9018,25.846],[93.8985,25.8593],[93.8933,25.8604],[93.8826,25.8415],[93.8516,25.8586],[93.8327,25.8519],[93.8242,25.8428]]]}},{"type":"Feature","properties":{"SUBDISTRICT":"Yongnyah","STATE":"Nagaland","shapeID":"7132399B88403544982952","source":"geoBoundaries gbOpen IND ADM3 (ODbL 1.0); source: Local Government Directory lgdirectory.gov.in via Pathways Data","DISTRICT":"Tuensang"},"geometry":{"type":"Polygon","coordinates":[[[94.7236,26.6148],[94.7371,26.5952],[94.7276,26.5622],[94.745,26.545],[94.7606,26.5448],[94.7772,26.5321],[94.8272,26.5407],[94.8387,26.5371],[94.8395,26.5302],[94.8942,26.533],[94.8842,26.5752],[94.8961,26.5922],[94.8891,26.5915],[94.8946,26.603],[94.8903,26.6108],[94.8586,26.6104],[94.7953,26.6298],[94.7907,26.6505],[94.7831,26.6559],[94.7503,26.6445],[94.7247,26.6204],[94.7236,26.6148]]]}},{"type":"Feature","properties":{"SUBDISTRICT":"Chunlikha","STATE":"Nagaland","shapeID":"7132399B38640224359945","source":"geoBoundaries gbOpen IND ADM3 (ODbL 1.0); source: Local Government Directory lgdirectory.gov.in via Pathways Data","DISTRICT":"Kohima"},"geometry":{"type":"Polygon","coordinates":[[[94.1616,25.9729],[94.1806,25.9546],[94.2275,25.9519],[94.2421,25.9407],[94.257,25.9484],[94.2931,25.9447],[94.285,25.9803],[94.2872,26.0088],[94.2427,26.0037],[94.2192,26.0244],[94.194,25.9869],[94.1632,25.9731],[94.1616,25.9729]]]}},{"type":"Feature","properties":{"SUBDISTRICT":"Tsurangkong","STATE":"Nagaland","shapeID":"7132399B17283004575489","source":"geoBoundaries gbOpen IND ADM3 (ODbL 1.0); source: Local Government Directory lgdirectory.gov.in via Pathways Data","DISTRICT":"Mokokchung"},"geometry":{"type":"Polygon","coordinates":[[[94.2968,26.4267],[94.3197,26.4162],[94.3178,26.4018],[94.3301,26.4024],[94.3696,26.4603],[94.3974,26.4829],[94.3885,26.5008],[94.3917,26.528],[94.3786,26.5205],[94.3779,26.5083],[94.3514,26.5039],[94.3559,26.4987],[94.3524,26.491],[94.3242,26.4747],[94.3246,26.466],[94.3015,26.4365],[94.2968,26.4267]]]}},{"type":"Feature","properties":{"SUBDISTRICT":"Ongpangkong (N)","STATE":"Nagaland","shapeID":"7132399B91546136029331","source":"geoBoundaries gbOpen IND ADM3 (ODbL 1.0); source: Local Government Directory lgdirectory.gov.in via Pathways Data","DISTRICT":"Mokokchung"},"geometry":{"type":"Polygon","coordinates":[[[94.4247,26.329],[94.432,26.3156],[94.4285,26.3022],[94.4416,26.2879],[94.4341,26.2794],[94.435,26.2686],[94.4574,26.2483],[94.4776,26.2874],[94.4883,26.2899],[94.5146,26.2346],[94.5039,26.2293],[94.5014,26.2146],[94.5241,26.2108],[94.5351,26.2171],[94.5504,26.2025],[94.5621,26.2036],[94.5873,26.2185],[94.5889,26.2281],[94.5881,26.2357],[94.5654,26.2558],[94.5651,26.2791],[94.6315,26.3337],[94.6529,26.3409],[94.6569,26.3614],[94.6651,26.369],[94.6606,26.3797],[94.6574,26.3755],[94.6412,26.3854],[94.6262,26.3853],[94.5693,26.3767],[94.5295,26.3633],[94.5187,26.3665],[94.5164,26.3474],[94.5004,26.3238],[94.4584,26.3416],[94.4306,26.3302],[94.4247,26.329]]]}},{"type":"Feature","properties":{"SUBDISTRICT":"Kikruma","STATE":"Nagaland","shapeID":"7132399B35406696955474","source":"geoBoundaries gbOpen IND ADM3 (ODbL 1.0); source: Local Government Directory lgdirectory.gov.in via Pathways Data","DISTRICT":"Phek"},"geometry":{"type":"Polygon","coordinates":[[[94.2031,25.5799],[94.2366,25.5563],[94.2505,25.5921],[94.264,25.5977],[94.2737,25.612],[94.2903,25.605],[94.3065,25.6119],[94.2986,25.6189],[94.2966,25.6362],[94.3141,25.65],[94.3175,25.6609],[94.315,25.6674],[94.3068,25.668],[94.2694,25.6598],[94.2426,25.6231],[94.2159,25.6337],[94.2191,25.607],[94.2032,25.5816],[94.2031,25.5799]]]}},{"type":"Feature","properties":{"SUBDISTRICT":"Weziho","STATE":"Nagaland","shapeID":"7132399B4429770967064","source":"geoBoundaries gbOpen IND ADM3 (ODbL 1.0); source: Local Government Directory lgdirectory.gov.in via Pathways Data","DISTRICT":"Phek"},"geometry":{"type":"Polygon","coordinates":[[[94.7187,25.6106],[94.7332,25.6095],[94.7369,25.5989],[94.7489,25.5909],[94.7928,25.5881],[94.8131,25.5748],[94.878,25.5818],[94.8816,25.5881],[94.8714,25.6063],[94.8548,25.6106],[94.8498,25.6336],[94.8612,25.7166],[94.8372,25.7459],[94.798,25.719],[94.7798,25.6734],[94.739,25.6503],[94.7375,25.6351],[94.7229,25.6151],[94.7187,25.6106]]]}},{"type":"Feature","properties":{"SUBDISTRICT":"Tokiye","STATE":"Nagaland","shapeID":"7132399B35964525855841","source":"geoBoundaries gbOpen IND ADM3 (ODbL 1.0); source: Local Government Directory lgdirectory.gov.in via Pathways Data","DISTRICT":"Zunheboto"},"geometry":{"type":"Polygon","coordinates":[[[94.5702,26.0061],[94.5926,25.9997],[94.6141,26.0074],[94.6336,26.0005],[94.6301,25.9803],[94.6382,25.9725],[94.6715,26.0172],[94.6567,26.0254],[94.5963,26.0342],[94.5959,26.0261],[94.5712,26.0077],[94.5702,26.0061]]]}}]}