{"type": "FeatureCollection", "features": [{"type": "Feature", "properties": {"SUBDISTRICT": "Karaikal Taluk", "STATE": "Puducherry", "shapeID": "7132399B60419324423486", "source": "geoBoundaries gbOpen IND ADM3 (ODbL 1.0); source: Local Government Directory lgdirectory.gov.in via Pathways Data", "DISTRICT": "Karaikal"}, "geometry": {"type": "Polygon", "coordinates": [[[79.8005, 10.9827], [79.8132, 10.9642], [79.8144, 10.9449], [79.8089, 10.9424], [79.8166, 10.9259], [79.8075, 10.9239], [79.811, 10.903], [79.8063, 10.8974], [79.8334, 10.8942], [79.8279, 10.8847], [79.8328, 10.8754], [79.8108, 10.8741], [79.8282, 10.8692], [79.8309, 10.8619], [79.8196, 10.8562], [79.8137, 10.8609], [79.8138, 10.8502], [79.8257, 10.8413], [79.8341, 10.8463], [79.8377, 10.8233], [79.8272, 10.8175], [79.8519, 10.8255], [79.8548, 10.9877], [79.8415, 10.995], [79.8419, 11.0021], [79.831, 11.0026], [79.8269, 10.9975], [79.8145, 11.0003], [79.8042, 10.9852], [79.8005, 10.9827]]]}}, {"type": "Feature", "properties": {"SUBDISTRICT": "Ozhukarai Taluk", "STATE": "Puducherry", "shapeID": "7132399B81776382826318", "source": "geoBoundaries gbOpen IND ADM3 (ODbL 1.0); source: Local Government Directory lgdirectory.gov.in via Pathways Data", "DISTRICT": null}, "geometry": {"type": "MultiPolygon", "coordinates": [[[[79.8409, 12.0132], [79.8573, 12.0048], [79.8737, 12.0382], [79.85, 12.0502], [79.8448, 12.0265], [79.8409, 12.0132]]], [[[79.7909, 12.0185], [79.8034, 12.0169], [79.8071, 12.0242], [79.7915, 12.027], [79.7912, 12.0229], [79.7909, 12.0185]]], [[[79.7709, 11.9445], [79.7765, 11.9391], [79.7929, 11.9407], [79.7963, 11.9309], [79.7947, 11.9231], [79.7852, 11.9226], [79.7893, 11.9188], [79.808, 11.9199], [79.8083, 11.933], [79.8205, 11.9319], [79.8317, 11.947], [79.8331, 11.9549], [79.8232, 11.961], [79.8196, 11.9776], [79.8103, 11.9764], [79.8026, 11.9529], [79.7878, 11.9612], [79.7732, 11.9448], [79.7709, 11.9445]]]]}}, {"type": "Feature", "properties": {"SUBDISTRICT": "Thirunallar Taluk", "STATE": "Puducherry", "shapeID": "7132399B9087403674427", "source": "geoBoundaries gbOpen IND ADM3 (ODbL 1.0); source: Local Government Directory lgdirectory.gov.in via Pathways Data", "DISTRICT": "Karaikal"}, "geometry": {"type": "Polygon", "coordinates": [[[79.7198, 10.9274], [79.7474, 10.9185], [79.7484, 10.9084], [79.7655, 10.9114], [79.7618, 10.885], [79.7735, 10.887], [79.7698, 10.8952], [79.766, 10.8931], [79.7692, 10.9053], [79.7746, 10.891], [79.7823, 10.8911], [79.7849, 10.9038], [79.8006, 10.8982], [79.7878, 10.8841], [79.7969, 10.8904], [79.7998, 10.8822], [79.8097, 10.886], [79.8302, 10.8797], [79.8337, 10.889], [79.8311, 10.8964], [79.8063, 10.8974], [79.811, 10.903], [79.8075, 10.9239], [79.8166, 10.9255], [79.8089, 10.9424], [79.8144, 10.9449], [79.814, 10.9598], [79.7893, 10.9949], [79.7489, 11.0023], [79.7472, 10.9863], [79.7609, 10.9823], [79.7552, 10.9739], [79.7626, 10.9586], [79.7497, 10.9564], [79.7438, 10.9676], [79.7207, 10.967], [79.7214, 10.9504], [79.7319, 10.9494], [79.7363, 10.9558], [79.7383, 10.9506], [79.7215, 10.9363], [79.7276, 10.9344], [79.7255, 10.9298], [79.7204, 10.9312], [79.7198, 10.9274]]]}}, {"type": "Feature", "properties": {"SUBDISTRICT": "Puducherry Taluk", "STATE": "Puducherry", "shapeID": "7132399B73577080070653", "source": "geoBoundaries gbOpen IND ADM3 (ODbL 1.0); source: Local Government Directory lgdirectory.gov.in via Pathways Data", "DISTRICT": "Puducherry"}, "geometry": {"type": "Polygon", "coordinates": [[[79.7625, 11.8472], [79.7734, 11.8366], [79.7824, 11.855], [79.797, 11.8548], [79.8086, 11.8452], [79.8081, 11.8374], [79.8253, 11.8793], [79.8401, 11.9546], [79.8331, 11.9549], [79.8205, 11.9319], [79.8083, 11.933], [79.808, 11.9199], [79.7814, 11.9134], [79.7781, 11.8973], [79.7863, 11.8908], [79.7972, 11.8941], [79.7925, 11.8749], [79.7808, 11.8561], [79.7754, 11.86], [79.7787, 11.8714], [79.7703, 11.8708], [79.7639, 11.8503], [79.7625, 11.8472]]]}}]}