{"type": "FeatureCollection", "features": [{"type": "Feature", "properties": {"SUBDISTRICT": "Namchi", "STATE": "Sikkim", "shapeID": "7132399B13278353181618", "source": "geoBoundaries gbOpen IND ADM3 (ODbL 1.0); source: Local Government Directory lgdirectory.gov.in via Pathways Data", "DISTRICT": "South Sikkim"}, "geometry": {"type": "Polygon", "coordinates": [[[88.3251, 27.15], [88.3268, 27.1326], [88.3326, 27.1294], [88.3274, 27.107], [88.3481, 27.1104], [88.3683, 27.0988], [88.3645, 27.1145], [88.3882, 27.1296], [88.4108, 27.1309], [88.4193, 27.1193], [88.4166, 27.11], [88.4425, 27.1046], [88.4739, 27.1134], [88.4939, 27.1265], [88.5028, 27.1251], [88.5289, 27.1501], [88.5371, 27.1499], [88.537, 27.1655], [88.528, 27.1779], [88.5063, 27.1848], [88.4936, 27.202], [88.4933, 27.2392], [88.4495, 27.2609], [88.4441, 27.2736], [88.4149, 27.2602], [88.4046, 27.2364], [88.4078, 27.2241], [88.4023, 27.2093], [88.3943, 27.2239], [88.3715, 27.2319], [88.3408, 27.2286], [88.3256, 27.2202], [88.3369, 27.1942], [88.3299, 27.187], [88.3333, 27.1793], [88.3442, 27.1606], [88.3588, 27.1613], [88.3608, 27.1519], [88.3301, 27.1549], [88.3251, 27.15]]]}}, {"type": "Feature", "properties": {"SUBDISTRICT": "Rongli", "STATE": "Sikkim", "shapeID": "7132399B95596351272468", "source": "geoBoundaries gbOpen IND ADM3 (ODbL 1.0); source: Local Government Directory lgdirectory.gov.in via Pathways Data", "DISTRICT": "East"}, "geometry": {"type": "Polygon", "coordinates": [[[88.6009, 27.1913], [88.6262, 27.1876], [88.6459, 27.1675], [88.6636, 27.1622], [88.6806, 27.1764], [88.6986, 27.1785], [88.7189, 27.1649], [88.7316, 27.1383], [88.7587, 27.148], [88.7734, 27.138], [88.7813, 27.1409], [88.7998, 27.1593], [88.8136, 27.2107], [88.8596, 27.2267], [88.8823, 27.2242], [88.9159, 27.2399], [88.9289, 27.2866], [88.8894, 27.3132], [88.8808, 27.3053], [88.8578, 27.3036], [88.7678, 27.3117], [88.7463, 27.2888], [88.7232, 27.2922], [88.7127, 27.2738], [88.7093, 27.2436], [88.7016, 27.2369], [88.6112, 27.197], [88.6009, 27.1913]]]}}, {"type": "Feature", "properties": {"SUBDISTRICT": "Mangan", "STATE": "Sikkim", "shapeID": "7132399B29558246736893", "source": "geoBoundaries gbOpen IND ADM3 (ODbL 1.0); source: Local Government Directory lgdirectory.gov.in via Pathways Data", "DISTRICT": "North Sikkim"}, "geometry": {"type": "Polygon", "coordinates": [[[88.5071, 27.4445], [88.5123, 27.4325], [88.5489, 27.4331], [88.5711, 27.4264], [88.6079, 27.4638], [88.6241, 27.4649], [88.6482, 27.4424], [88.6793, 27.4517], [88.6445, 27.406], [88.6567, 27.3957], [88.6529, 27.3915], [88.6778, 27.3999], [88.6974, 27.3981], [88.7213, 27.4164], [88.7699, 27.4134], [88.7885, 27.4218], [88.783, 27.4408], [88.785, 27.4939], [88.7715, 27.5149], [88.7334, 27.5049], [88.7025, 27.5184], [88.6275, 27.5289], [88.6184, 27.5518], [88.6099, 27.5575], [88.573, 27.5445], [88.575, 27.5299], [88.5342, 27.5264], [88.523, 27.4787], [88.5087, 27.4644], [88.5088, 27.4477], [88.5071, 27.4445]]]}}, {"type": "Feature", "properties": {"SUBDISTRICT": "Ravong", "STATE": "Sikkim", "shapeID": "7132399B39328910146943", "source": "geoBoundaries gbOpen IND ADM3 (ODbL 1.0); source: Local Government Directory lgdirectory.gov.in via Pathways Data", "DISTRICT": "South Sikkim"}, "geometry": {"type": "Polygon", "coordinates": [[[88.2687, 27.4895], [88.2818, 27.4055], [88.3083, 27.4166], [88.3341, 27.4168], [88.3415, 27.406], [88.3506, 27.4139], [88.3602, 27.399], [88.3608, 27.378], [88.3332, 27.3685], [88.3253, 27.349], [88.3007, 27.3307], [88.3132, 27.3154], [88.312, 27.3024], [88.2817, 27.2861], [88.2836, 27.2779], [88.3066, 27.2606], [88.3103, 27.2258], [88.3256, 27.2202], [88.3408, 27.2286], [88.3715, 27.2319], [88.3943, 27.2239], [88.4023, 27.2093], [88.4078, 27.2241], [88.4046, 27.2364], [88.4149, 27.2602], [88.4378, 27.2719], [88.4035, 27.271], [88.3857, 27.2938], [88.4123, 27.2951], [88.4117, 27.3148], [88.4182, 27.3236], [88.4119, 27.3292], [88.4246, 27.3301], [88.4434, 27.3534], [88.4328, 27.3603], [88.4244, 27.3818], [88.412, 27.3854], [88.4184, 27.3998], [88.4377, 27.4012], [88.4193, 27.4232], [88.4186, 27.4463], [88.4082, 27.4754], [88.3782, 27.4972], [88.3583, 27.521], [88.3378, 27.5273], [88.2936, 27.5185], [88.2709, 27.4978], [88.2687, 27.4895]]]}}, {"type": "Feature", "properties": {"SUBDISTRICT": "Soreng", "STATE": "Sikkim", "shapeID": "7132399B6091976048576", "source": "geoBoundaries gbOpen IND ADM3 (ODbL 1.0); source: Local Government Directory lgdirectory.gov.in via Pathways Data", "DISTRICT": "West Sikkim"}, "geometry": {"type": "Polygon", "coordinates": [[[88.0053, 27.2135], [88.0406, 27.2206], [88.0659, 27.2135], [88.0826, 27.2004], [88.0751, 27.1898], [88.0908, 27.1646], [88.0934, 27.1411], [88.1598, 27.1113], [88.1865, 27.1343], [88.2213, 27.1348], [88.2399, 27.1194], [88.2854, 27.131], [88.2847, 27.1485], [88.3034, 27.1734], [88.3369, 27.1942], [88.3256, 27.2202], [88.3103, 27.2258], [88.3081, 27.2458], [88.2803, 27.2401], [88.2761, 27.2491], [88.2649, 27.2465], [88.2534, 27.2589], [88.2311, 27.2463], [88.2128, 27.2479], [88.174, 27.2341], [88.1415, 27.2432], [88.1342, 27.2351], [88.1259, 27.242], [88.1086, 27.2413], [88.0773, 27.2799], [88.0249, 27.2788], [88.021, 27.2491], [88.01, 27.23], [88.0053, 27.2135]]]}}, {"type": "Feature", "properties": {"SUBDISTRICT": "Gyalshing", "STATE": "Sikkim", "shapeID": "7132399B71585240367157", "source": "geoBoundaries gbOpen IND ADM3 (ODbL 1.0); source: Local Government Directory lgdirectory.gov.in via Pathways Data", "DISTRICT": "West Sikkim"}, "geometry": {"type": "Polygon", "coordinates": [[[88.0249, 27.2788], [88.0603, 27.279], [88.0727, 27.301], [88.072, 27.3183], [88.0935, 27.3144], [88.0992, 27.3018], [88.113, 27.2929], [88.1691, 27.2959], [88.1768, 27.2636], [88.2546, 27.2669], [88.281, 27.2782], [88.2931, 27.2718], [88.2817, 27.2861], [88.3136, 27.3054], [88.3113, 27.3185], [88.2968, 27.3267], [88.2765, 27.3166], [88.2679, 27.3276], [88.2417, 27.3287], [88.2291, 27.3464], [88.2218, 27.3262], [88.1979, 27.3294], [88.1948, 27.3397], [88.1159, 27.3625], [88.1249, 27.3736], [88.177, 27.3609], [88.1792, 27.3657], [88.167, 27.3713], [88.1701, 27.3834], [88.1902, 27.3714], [88.1875, 27.3921], [88.2062, 27.3977], [88.2137, 27.4082], [88.236, 27.3892], [88.2373, 27.3708], [88.2562, 27.3643], [88.2834, 27.3666], [88.293, 27.3797], [88.2793, 27.3968], [88.2867, 27.4049], [88.2774, 27.4116], [88.2691, 27.4615], [88.2709, 27.4978], [88.2842, 27.5126], [88.2441, 27.5345], [88.2346, 27.5568], [88.2123, 27.581], [88.1131, 27.6201], [88.0788, 27.5918], [88.0729, 27.5633], [88.053, 27.5427], [88.0595, 27.5284], [88.0396, 27.4858], [88.0583, 27.4591], [88.0659, 27.4316], [88.0448, 27.4116], [88.037, 27.371], [88.0561, 27.3415], [88.028, 27.2905], [88.0249, 27.2788]]]}}, {"type": "Feature", "properties": {"SUBDISTRICT": "Chungthang", "STATE": "Sikkim", "shapeID": "7132399B49408829509797", "source": "geoBoundaries gbOpen IND ADM3 (ODbL 1.0); source: Local Government Directory lgdirectory.gov.in via Pathways Data", "DISTRICT": "North Sikkim"}, "geometry": {"type": "Polygon", "coordinates": [[[88.1242, 27.9145], [88.1387, 27.8893], [88.136, 27.8792], [88.1937, 27.8548], [88.1993, 27.8428], [88.1739, 27.8223], [88.1922, 27.7905], [88.1751, 27.7763], [88.172, 27.7463], [88.1526, 27.7402], [88.1493, 27.7174], [88.2173, 27.7104], [88.285, 27.6826], [88.3102, 27.6691], [88.3345, 27.6336], [88.3585, 27.6212], [88.4124, 27.6189], [88.4672, 27.5977], [88.536, 27.5812], [88.5554, 27.5655], [88.5596, 27.5396], [88.6099, 27.5575], [88.6184, 27.5518], [88.6275, 27.5289], [88.7025, 27.5184], [88.7334, 27.5049], [88.7715, 27.5149], [88.7692, 27.5279], [88.799, 27.5601], [88.8149, 27.6086], [88.8331, 27.6183], [88.8448, 27.6378], [88.8456, 27.6642], [88.8381, 27.674], [88.8554, 27.7037], [88.8463, 27.743], [88.8512, 27.7782], [88.8741, 27.7981], [88.8789, 27.818], [88.8689, 27.8715], [88.8362, 27.9058], [88.8428, 27.9299], [88.8388, 27.9806], [88.8432, 28.0008], [88.7972, 28.0474], [88.7613, 28.0683], [88.6916, 28.0807], [88.6746, 28.0737], [88.6685, 28.0891], [88.6502, 28.1003], [88.6306, 28.1288], [88.6174, 28.1245], [88.6268, 28.1133], [88.6143, 28.0973], [88.5626, 28.0819], [88.551, 28.037], [88.5361, 28.0353], [88.4948, 28.0467], [88.4466, 28.0091], [88.4007, 27.9844], [88.3703, 27.9919], [88.3445, 27.9877], [88.3106, 27.9689], [88.2744, 27.9613], [88.2594, 27.9467], [88.2284, 27.966], [88.2059, 27.9614], [88.2015, 27.9434], [88.1452, 27.9605], [88.1336, 27.9497], [88.1369, 27.9349], [88.1253, 27.9197], [88.1242, 27.9145]]]}}, {"type": "Feature", "properties": {"SUBDISTRICT": "Gangtok", "STATE": "Sikkim", "shapeID": "7132399B56680192444561", "source": "geoBoundaries gbOpen IND ADM3 (ODbL 1.0); source: Local Government Directory lgdirectory.gov.in via Pathways Data", "DISTRICT": "East"}, "geometry": {"type": "Polygon", "coordinates": [[[88.4441, 27.2736], [88.4495, 27.2609], [88.4834, 27.2464], [88.4971, 27.2303], [88.5496, 27.2541], [88.5573, 27.2533], [88.5647, 27.2416], [88.5604, 27.2612], [88.5922, 27.2689], [88.6014, 27.2838], [88.666, 27.2887], [88.6724, 27.3107], [88.7043, 27.3278], [88.7218, 27.3289], [88.7615, 27.3128], [88.8176, 27.3052], [88.8808, 27.3053], [88.8894, 27.3132], [88.8632, 27.3454], [88.8367, 27.3512], [88.8119, 27.3751], [88.7885, 27.4218], [88.7699, 27.4134], [88.7341, 27.4191], [88.7213, 27.4164], [88.6974, 27.3981], [88.6778, 27.3999], [88.6614, 27.3908], [88.6294, 27.387], [88.5933, 27.396], [88.5574, 27.3921], [88.5258, 27.3968], [88.4886, 27.3781], [88.4829, 27.3602], [88.4888, 27.3334], [88.457, 27.3151], [88.4451, 27.2809], [88.4441, 27.2736]], [[88.5258, 27.3967], [88.5258, 27.3967], [88.5289, 27.3961], [88.5258, 27.3967]]]}}, {"type": "Feature", "properties": {"SUBDISTRICT": "Pakyong", "STATE": "Sikkim", "shapeID": "7132399B29026797709122", "source": "geoBoundaries gbOpen IND ADM3 (ODbL 1.0); source: Local Government Directory lgdirectory.gov.in via Pathways Data", "DISTRICT": "East"}, "geometry": {"type": "Polygon", "coordinates": [[[88.5195, 27.218], [88.5611, 27.2189], [88.5532, 27.1999], [88.5562, 27.1857], [88.6009, 27.1913], [88.7016, 27.2369], [88.7093, 27.2436], [88.7127, 27.2738], [88.7232, 27.2922], [88.7463, 27.2888], [88.7631, 27.3036], [88.7678, 27.3117], [88.7218, 27.3289], [88.7043, 27.3278], [88.6724, 27.3107], [88.666, 27.2887], [88.6014, 27.2838], [88.5922, 27.2689], [88.5657, 27.2652], [88.5594, 27.258], [88.5666, 27.2479], [88.5617, 27.2379], [88.5489, 27.2307], [88.5382, 27.2358], [88.5321, 27.225], [88.5214, 27.2212], [88.5195, 27.218]]]}}, {"type": "Feature", "properties": {"SUBDISTRICT": "Rangpo", "STATE": "Sikkim", "shapeID": "7132399B56688973613642", "source": "geoBoundaries gbOpen IND ADM3 (ODbL 1.0); source: Local Government Directory lgdirectory.gov.in via Pathways Data", "DISTRICT": "East"}, "geometry": {"type": "Polygon", "coordinates": [[[88.4936, 27.202], [88.5063, 27.1848], [88.5363, 27.1775], [88.5562, 27.1857], [88.5532, 27.1999], [88.563, 27.2168], [88.5195, 27.216], [88.5382, 27.2358], [88.5489, 27.2307], [88.5617, 27.2379], [88.5647, 27.2416], [88.5553, 27.2548], [88.4971, 27.2303], [88.4948, 27.2182], [88.4936, 27.202]]]}}, {"type": "Feature", "properties": {"SUBDISTRICT": "Dzongu", "STATE": "Sikkim", "shapeID": "7132399B91038773523105", "source": "geoBoundaries gbOpen IND ADM3 (ODbL 1.0); source: Local Government Directory lgdirectory.gov.in via Pathways Data", "DISTRICT": "North Sikkim"}, "geometry": {"type": "MultiPolygon", "coordinates": [[[[88.5258, 27.3967], [88.5289, 27.3961], [88.5258, 27.3967], [88.5258, 27.3967]]], [[[88.1131, 27.6201], [88.2123, 27.581], [88.2346, 27.5568], [88.2441, 27.5345], [88.2842, 27.5126], [88.3218, 27.5268], [88.3583, 27.521], [88.3782, 27.4972], [88.4082, 27.4754], [88.4186, 27.4463], [88.4193, 27.4232], [88.4461, 27.3932], [88.4886, 27.3781], [88.5258, 27.3967], [88.5088, 27.4211], [88.5087, 27.4644], [88.523, 27.4787], [88.5342, 27.5264], [88.575, 27.5299], [88.573, 27.5445], [88.5596, 27.5396], [88.5554, 27.5655], [88.536, 27.5812], [88.4672, 27.5977], [88.4124, 27.6189], [88.3585, 27.6212], [88.3345, 27.6336], [88.3041, 27.6729], [88.2421, 27.7011], [88.1941, 27.7142], [88.1493, 27.7174], [88.1411, 27.6747], [88.1141, 27.6411], [88.116, 27.6224], [88.1131, 27.6201]]]]}}, {"type": "Feature", "properties": {"SUBDISTRICT": "Kabi", "STATE": "Sikkim", "shapeID": "7132399B61105267343368", "source": "geoBoundaries gbOpen IND ADM3 (ODbL 1.0); source: Local Government Directory lgdirectory.gov.in via Pathways Data", "DISTRICT": "North Sikkim"}, "geometry": {"type": "Polygon", "coordinates": [[[88.5088, 27.4211], [88.5232, 27.3971], [88.5553, 27.3924], [88.5907, 27.3963], [88.6184, 27.3875], [88.6401, 27.3883], [88.6567, 27.3957], [88.6445, 27.406], [88.6805, 27.451], [88.6482, 27.4424], [88.6241, 27.4649], [88.6079, 27.4638], [88.5711, 27.4264], [88.5489, 27.4331], [88.5123, 27.4325], [88.5097, 27.4383], [88.5088, 27.4211]]]}}, {"type": "Feature", "properties": {"SUBDISTRICT": "Jorethang", "STATE": "Sikkim", "shapeID": "7132399B68632437493965", "source": "geoBoundaries gbOpen IND ADM3 (ODbL 1.0); source: Local Government Directory lgdirectory.gov.in via Pathways Data", "DISTRICT": "South Sikkim"}, "geometry": {"type": "MultiPolygon", "coordinates": [[[[88.3645, 27.1145], [88.3683, 27.0988], [88.3948, 27.0981], [88.4391, 27.0813], [88.4534, 27.0851], [88.4674, 27.0956], [88.4739, 27.1134], [88.4425, 27.1046], [88.4166, 27.11], [88.4167, 27.1257], [88.4057, 27.1325], [88.3882, 27.1296], [88.3737, 27.1187], [88.3645, 27.1145]]], [[[88.2826, 27.1422], [88.2854, 27.131], [88.3023, 27.1244], [88.3119, 27.1283], [88.3271, 27.1174], [88.3326, 27.1294], [88.3268, 27.1326], [88.3251, 27.15], [88.3331, 27.1579], [88.3608, 27.1519], [88.3588, 27.1613], [88.3442, 27.1606], [88.3299, 27.187], [88.3034, 27.1734], [88.2841, 27.1442], [88.2826, 27.1422]]]]}}, {"type": "Feature", "properties": {"SUBDISTRICT": "Yangang", "STATE": "Sikkim", "shapeID": "7132399B604551565027", "source": "geoBoundaries gbOpen IND ADM3 (ODbL 1.0); source: Local Government Directory lgdirectory.gov.in via Pathways Data", "DISTRICT": "South Sikkim"}, "geometry": {"type": "Polygon", "coordinates": [[[88.3857, 27.2938], [88.4035, 27.271], [88.4441, 27.2736], [88.457, 27.3151], [88.4888, 27.3334], [88.4829, 27.3602], [88.4886, 27.3781], [88.4563, 27.3882], [88.4377, 27.4012], [88.4198, 27.4004], [88.412, 27.3854], [88.4244, 27.3818], [88.4328, 27.3603], [88.4434, 27.3534], [88.4246, 27.3301], [88.4119, 27.3292], [88.4182, 27.3236], [88.4117, 27.3148], [88.4123, 27.2951], [88.3895, 27.2951], [88.3857, 27.2938]]]}}, {"type": "Feature", "properties": {"SUBDISTRICT": "Dentam", "STATE": "Sikkim", "shapeID": "7132399B74432566671690", "source": "geoBoundaries gbOpen IND ADM3 (ODbL 1.0); source: Local Government Directory lgdirectory.gov.in via Pathways Data", "DISTRICT": "West Sikkim"}, "geometry": {"type": "Polygon", "coordinates": [[[88.0598, 27.2795], [88.0799, 27.2787], [88.1086, 27.2413], [88.1259, 27.242], [88.1342, 27.2351], [88.1415, 27.2432], [88.174, 27.2341], [88.2128, 27.2479], [88.2311, 27.2463], [88.2534, 27.2589], [88.2649, 27.2465], [88.2761, 27.2491], [88.2803, 27.2401], [88.3055, 27.2461], [88.304, 27.2609], [88.281, 27.2782], [88.2546, 27.2669], [88.1768, 27.2636], [88.1691, 27.2959], [88.113, 27.2929], [88.0905, 27.3155], [88.072, 27.3183], [88.0727, 27.301], [88.0603, 27.2846], [88.0598, 27.2795]]]}}, {"type": "Feature", "properties": {"SUBDISTRICT": "Yuksom", "STATE": "Sikkim", "shapeID": "7132399B12452380206291", "source": "geoBoundaries gbOpen IND ADM3 (ODbL 1.0); source: Local Government Directory lgdirectory.gov.in via Pathways Data", "DISTRICT": "West Sikkim"}, "geometry": {"type": "Polygon", "coordinates": [[[88.1159, 27.3625], [88.1948, 27.3397], [88.1979, 27.3294], [88.2218, 27.3262], [88.2291, 27.3464], [88.2417, 27.3287], [88.2679, 27.3276], [88.2765, 27.3166], [88.3016, 27.3242], [88.3029, 27.3339], [88.3253, 27.349], [88.3332, 27.3685], [88.3608, 27.378], [88.3602, 27.399], [88.3506, 27.4139], [88.3415, 27.406], [88.3341, 27.4168], [88.3083, 27.4166], [88.2793, 27.3968], [88.293, 27.3797], [88.2834, 27.3666], [88.2562, 27.3643], [88.2373, 27.3708], [88.236, 27.3892], [88.2137, 27.4082], [88.2062, 27.3977], [88.1875, 27.3921], [88.1902, 27.3714], [88.1701, 27.3834], [88.167, 27.3713], [88.1792, 27.3657], [88.177, 27.3609], [88.1249, 27.3736], [88.1168, 27.3642], [88.1159, 27.3625]]]}}]}