{"type":"FeatureCollection","features":[{"type":"Feature","properties":{"SUBDISTRICT":"Ambassa","STATE":"Tripura","shapeID":"7132399B10510657226313","source":"geoBoundaries gbOpen IND ADM3 (ODbL 1.0); source: Local Government Directory lgdirectory.gov.in via Pathways Data","DISTRICT":"Dhalai","ELEV_MEAN_M":139.7,"ELEV_MIN_M":58.0,"ELEV_MAX_M":500.0,"PCT_BELOW_5M":0.0,"PCT_BELOW_10M":0.0},"geometry":{"type":"Polygon","coordinates":[[[91.7548,23.9561],[91.7616,23.9524],[91.7663,23.9324],[91.7619,23.9188],[91.7775,23.9113],[91.779,23.8889],[91.7862,23.8826],[91.7823,23.8192],[91.7666,23.823],[91.7767,23.8068],[91.7824,23.8068],[91.7753,23.7994],[91.774,23.7807],[91.7798,23.7496],[91.787,23.7421],[91.7728,23.7186],[91.7788,23.6907],[91.7888,23.6868],[91.7945,23.6929],[91.813,23.6889],[91.8386,23.696],[91.8386,23.6861],[91.8685,23.657],[91.8785,23.6743],[91.9085,23.6877],[91.9156,23.7013],[91.9228,23.7013],[91.9385,23.6815],[91.9464,23.6921],[91.9538,23.7265],[91.9833,23.7242],[91.9608,23.8061],[91.9574,23.8327],[91.9629,23.843],[91.9572,23.8761],[91.9206,23.9444],[91.8937,23.9515],[91.8834,23.9771],[91.8693,23.968],[91.8468,23.9665],[91.8398,23.9895],[91.8339,23.981],[91.8121,23.972],[91.7985,23.98],[91.7857,23.9711],[91.7581,23.9723],[91.7555,23.9623],[91.7548,23.9561]]]}},{"type":"Feature","properties":{"SUBDISTRICT":"Gandacherra","STATE":"Tripura","shapeID":"7132399B16682384589882","source":"geoBoundaries gbOpen IND ADM3 (ODbL 1.0); source: Local Government Directory lgdirectory.gov.in via Pathways Data","DISTRICT":"Dhalai","ELEV_MEAN_M":134.8,"ELEV_MIN_M":63.0,"ELEV_MAX_M":394.0,"PCT_BELOW_5M":0.0,"PCT_BELOW_10M":0.0},"geometry":{"type":"Polygon","coordinates":[[[91.7516,23.6133],[91.7631,23.6019],[91.7677,23.5879],[91.7642,23.5768],[91.7783,23.5399],[91.7876,23.5322],[91.7977,23.5368],[91.8122,23.5256],[91.8195,23.507],[91.8101,23.4946],[91.8165,23.4807],[91.8255,23.4699],[91.8343,23.4703],[91.8397,23.4595],[91.8485,23.4629],[91.8611,23.455],[91.8536,23.4245],[91.8785,23.4248],[91.9162,23.4358],[91.9358,23.4298],[91.9391,23.4347],[91.9416,23.463],[91.9613,23.4776],[91.9664,23.5039],[91.9385,23.6815],[91.9299,23.695],[91.9156,23.7013],[91.9085,23.6877],[91.8785,23.6743],[91.8685,23.657],[91.8386,23.6861],[91.8386,23.696],[91.813,23.6889],[91.7945,23.6929],[91.7888,23.6868],[91.7788,23.6907],[91.7559,23.6747],[91.7647,23.6464],[91.7574,23.6445],[91.7655,23.6249],[91.7569,23.6246],[91.7531,23.6157],[91.7516,23.6133]]]}},{"type":"Feature","properties":{"SUBDISTRICT":"Kamalpur","STATE":"Tripura","shapeID":"7132399B82259755270427","source":"geoBoundaries gbOpen IND ADM3 (ODbL 1.0); source: Local Government Directory lgdirectory.gov.in via Pathways Data","DISTRICT":"Dhalai","ELEV_MEAN_M":97.1,"ELEV_MIN_M":31.0,"ELEV_MAX_M":417.0,"PCT_BELOW_5M":0.0,"PCT_BELOW_10M":0.0},"geometry":{"type":"Polygon","coordinates":[[[91.744,24.2316],[91.7441,24.2121],[91.7595,24.1591],[91.7563,24.1419],[91.7615,24.1383],[91.752,24.0728],[91.7577,24.065],[91.7609,24.0266],[91.7581,23.9723],[91.7857,23.9711],[91.7985,23.98],[91.8121,23.972],[91.8405,23.9894],[91.8468,23.9665],[91.8693,23.968],[91.8834,23.9771],[91.8937,23.9515],[91.9206,23.9444],[91.9095,23.9823],[91.9136,23.9962],[91.9046,24.0261],[91.9083,24.0497],[91.9027,24.0829],[91.9097,24.0908],[91.9162,24.1295],[91.9061,24.1452],[91.8937,24.141],[91.8773,24.1477],[91.862,24.1781],[91.838,24.1952],[91.8469,24.2175],[91.8415,24.2254],[91.8098,24.2114],[91.7482,24.2359],[91.744,24.2316]]]}},{"type":"Feature","properties":{"SUBDISTRICT":"Longtharai Valley","STATE":"Tripura","shapeID":"7132399B74748457858496","source":"geoBoundaries gbOpen IND ADM3 (ODbL 1.0); source: Local Government Directory lgdirectory.gov.in via Pathways Data","DISTRICT":"Dhalai","ELEV_MEAN_M":150.5,"ELEV_MIN_M":40.0,"ELEV_MAX_M":771.0,"PCT_BELOW_5M":0.0,"PCT_BELOW_10M":0.0},"geometry":{"type":"Polygon","coordinates":[[[91.9027,24.0858],[91.9128,23.9636],[91.9387,23.9151],[91.9402,23.9005],[91.9572,23.8761],[91.9629,23.843],[91.9574,23.8327],[91.9608,23.8061],[91.9848,23.7015],[92.0224,23.6452],[92.0297,23.6394],[92.0741,23.6452],[92.0846,23.6741],[92.0979,23.6776],[92.144,23.7265],[92.1689,23.7349],[92.1696,23.8125],[92.1581,23.8725],[92.1395,23.9054],[92.1052,23.9383],[92.0975,23.9955],[92.0814,24.0264],[92.0854,24.1208],[92.0123,24.1081],[92.0055,24.0953],[91.9747,24.0819],[91.9592,24.1027],[91.9498,24.1088],[91.9364,24.1074],[91.9173,24.1218],[91.9095,24.0903],[91.9032,24.0871],[91.9027,24.0858]]]}},{"type":"Feature","properties":{"SUBDISTRICT":"Amarpur","STATE":"Tripura","shapeID":"7132399B83478790498348","source":"geoBoundaries gbOpen IND ADM3 (ODbL 1.0); source: Local Government Directory lgdirectory.gov.in via Pathways Data","DISTRICT":"South Tripura","ELEV_MEAN_M":90.7,"ELEV_MIN_M":28.0,"ELEV_MAX_M":333.0,"PCT_BELOW_5M":0.0,"PCT_BELOW_10M":0.0},"geometry":{"type":"Polygon","coordinates":[[[91.5542,23.7248],[91.5718,23.6913],[91.5722,23.6716],[91.5853,23.6336],[91.5932,23.5508],[91.5786,23.5457],[91.5788,23.53],[91.5886,23.5128],[91.5994,23.514],[91.5987,23.4991],[91.6094,23.4939],[91.606,23.4845],[91.6206,23.4411],[91.615,23.4266],[91.6226,23.4143],[91.6373,23.4089],[91.6633,23.4337],[91.6658,23.4436],[91.6809,23.4391],[91.6685,23.4284],[91.6757,23.4253],[91.6857,23.4327],[91.7025,23.426],[91.7043,23.4355],[91.7211,23.4315],[91.7225,23.4247],[91.7335,23.4387],[91.7347,23.4286],[91.7711,23.433],[91.7727,23.4248],[91.7922,23.4337],[91.7923,23.4164],[91.8011,23.4259],[91.8125,23.4242],[91.8028,23.4561],[91.7453,23.5387],[91.7309,23.5876],[91.729,23.6463],[91.721,23.6557],[91.7286,23.6703],[91.721,23.6946],[91.7289,23.6935],[91.7416,23.7233],[91.7373,23.7332],[91.7202,23.7445],[91.7131,23.7619],[91.6888,23.7533],[91.6417,23.7623],[91.5975,23.7587],[91.5861,23.7526],[91.5704,23.7563],[91.5719,23.7389],[91.5553,23.7258],[91.5542,23.7248]]]}},{"type":"Feature","properties":{"SUBDISTRICT":"Karbook","STATE":"Tripura","shapeID":"7132399B13596087919457","source":"geoBoundaries gbOpen IND ADM3 (ODbL 1.0); source: Local Government Directory lgdirectory.gov.in via Pathways Data","DISTRICT":"South Tripura","ELEV_MEAN_M":112.0,"ELEV_MIN_M":39.0,"ELEV_MAX_M":393.0,"PCT_BELOW_5M":0.0,"PCT_BELOW_10M":0.0},"geometry":{"type":"Polygon","coordinates":[[[91.6362,23.4027],[91.6407,23.371],[91.653,23.3525],[91.6879,23.3612],[91.7,23.3468],[91.6994,23.3363],[91.7362,23.3098],[91.7226,23.2823],[91.7423,23.2537],[91.7737,23.2617],[91.7704,23.2676],[91.7855,23.3078],[91.7972,23.3186],[91.8069,23.3429],[91.828,23.3638],[91.8421,23.3999],[91.8851,23.4264],[91.8536,23.4245],[91.8611,23.455],[91.8485,23.4629],[91.8397,23.4595],[91.8343,23.4703],[91.8255,23.4699],[91.8101,23.4946],[91.8195,23.507],[91.8115,23.5267],[91.7977,23.5368],[91.7876,23.5322],[91.7765,23.5427],[91.7642,23.5768],[91.7677,23.5879],[91.7631,23.6019],[91.7517,23.6124],[91.7569,23.6246],[91.7655,23.6249],[91.7574,23.6445],[91.7647,23.6453],[91.7575,23.6789],[91.7474,23.6698],[91.7374,23.6885],[91.723,23.6952],[91.7286,23.6703],[91.721,23.6538],[91.729,23.6463],[91.7309,23.5876],[91.7453,23.5387],[91.8028,23.4561],[91.8133,23.4264],[91.8,23.4254],[91.7923,23.4164],[91.7922,23.4337],[91.7727,23.4248],[91.7711,23.433],[91.7347,23.4286],[91.7335,23.4387],[91.7225,23.4247],[91.7211,23.4315],[91.7043,23.4355],[91.7025,23.426],[91.6857,23.4327],[91.6757,23.4253],[91.6685,23.4284],[91.6809,23.4391],[91.6651,23.4435],[91.6633,23.4337],[91.6445,23.4195],[91.6365,23.4045],[91.6362,23.4027]]]}},{"type":"Feature","properties":{"SUBDISTRICT":"Khowai","STATE":"Tripura","shapeID":"7132399B98962819559783","source":"geoBoundaries gbOpen IND ADM3 (ODbL 1.0); source: Local Government Directory lgdirectory.gov.in via Pathways Data","DISTRICT":"West Tripura","ELEV_MEAN_M":76.8,"ELEV_MIN_M":21.0,"ELEV_MAX_M":439.0,"PCT_BELOW_5M":0.0,"PCT_BELOW_10M":0.0},"geometry":{"type":"Polygon","coordinates":[[[91.4751,24.0665],[91.4766,24.0568],[91.494,24.0405],[91.4953,24.0169],[91.5045,24.0021],[91.4984,23.9951],[91.5228,23.9551],[91.5176,23.942],[91.5257,23.9278],[91.5388,23.9251],[91.5487,23.9352],[91.5552,23.9294],[91.5944,23.9311],[91.6056,23.9696],[91.6176,23.9641],[91.6274,23.9678],[91.6266,23.9731],[91.6618,23.9662],[91.6598,23.9355],[91.6788,23.9324],[91.6938,23.9385],[91.7173,23.9228],[91.7398,23.9319],[91.7343,23.9358],[91.7339,23.9577],[91.7463,23.9514],[91.7561,23.9549],[91.7609,24.0266],[91.7577,24.065],[91.752,24.0728],[91.7615,24.1383],[91.7563,24.1419],[91.7447,24.134],[91.7339,24.1358],[91.6928,24.1593],[91.6588,24.2283],[91.6479,24.217],[91.6527,24.1875],[91.6409,24.1664],[91.6379,24.1053],[91.6304,24.0964],[91.5855,24.0745],[91.5369,24.071],[91.4886,24.0927],[91.4754,24.0676],[91.4751,24.0665]]]}},{"type":"Feature","properties":{"SUBDISTRICT":"Teliamura","STATE":"Tripura","shapeID":"7132399B6617503483215","source":"geoBoundaries gbOpen IND ADM3 (ODbL 1.0); source: Local Government Directory lgdirectory.gov.in via Pathways Data","DISTRICT":"West Tripura","ELEV_MEAN_M":111.5,"ELEV_MIN_M":35.0,"ELEV_MAX_M":395.0,"PCT_BELOW_5M":0.0,"PCT_BELOW_10M":0.0},"geometry":{"type":"Polygon","coordinates":[[[91.5232,23.9303],[91.5319,23.9198],[91.5417,23.9206],[91.5322,23.8966],[91.5438,23.8912],[91.5506,23.8944],[91.5534,23.8785],[91.5484,23.8649],[91.5568,23.8516],[91.552,23.8165],[91.5611,23.7596],[91.5861,23.7526],[91.5975,23.7587],[91.6417,23.7623],[91.6888,23.7533],[91.7131,23.7619],[91.7202,23.7445],[91.7373,23.7332],[91.7416,23.7233],[91.7274,23.696],[91.7474,23.6698],[91.7788,23.6907],[91.7728,23.7186],[91.787,23.7421],[91.774,23.7708],[91.7753,23.7994],[91.7824,23.8068],[91.7767,23.8068],[91.7666,23.823],[91.7823,23.8192],[91.7862,23.8826],[91.779,23.8889],[91.7775,23.9113],[91.7619,23.9188],[91.7663,23.9324],[91.7616,23.9524],[91.7521,23.9562],[91.7463,23.9514],[91.7352,23.9587],[91.7323,23.9451],[91.7398,23.9319],[91.7173,23.9228],[91.6938,23.9385],[91.6788,23.9324],[91.6598,23.9355],[91.6618,23.9662],[91.6266,23.9731],[91.6274,23.9678],[91.6176,23.9641],[91.6056,23.9696],[91.5944,23.9311],[91.5552,23.9294],[91.5487,23.9352],[91.5388,23.9251],[91.5281,23.9284],[91.5232,23.9303]]]}},{"type":"Feature","properties":{"SUBDISTRICT":"Dharmanagar","STATE":"Tripura","shapeID":"7132399B18346136025344","source":"geoBoundaries gbOpen IND ADM3 (ODbL 1.0); source: Local Government Directory lgdirectory.gov.in via Pathways Data","DISTRICT":"North Tripura","ELEV_MEAN_M":53.9,"ELEV_MIN_M":17.0,"ELEV_MAX_M":293.0,"PCT_BELOW_5M":0.0,"PCT_BELOW_10M":0.0},"geometry":{"type":"Polygon","coordinates":[[[92.0692,24.3124],[92.0791,24.3],[92.0786,24.2703],[92.102,24.2635],[92.1356,24.2853],[92.1495,24.2815],[92.1469,24.3005],[92.1568,24.3229],[92.1676,24.3217],[92.165,24.3097],[92.1726,24.3079],[92.1981,24.3223],[92.2089,24.3155],[92.2279,24.3215],[92.2433,24.3148],[92.2731,24.3867],[92.256,24.4172],[92.2566,24.4345],[92.2312,24.4586],[92.2347,24.489],[92.2081,24.4944],[92.1737,24.5208],[92.1626,24.5181],[92.1552,24.4813],[92.1693,24.416],[92.1427,24.4172],[92.1325,24.3921],[92.1056,24.3746],[92.0732,24.3759],[92.0692,24.3145],[92.0692,24.3124]]]}},{"type":"Feature","properties":{"SUBDISTRICT":"Kanchanpur","STATE":"Tripura","shapeID":"7132399B87279414471766","source":"geoBoundaries gbOpen IND ADM3 (ODbL 1.0); source: Local Government Directory lgdirectory.gov.in via Pathways Data","DISTRICT":"North Tripura","ELEV_MEAN_M":193.0,"ELEV_MIN_M":46.0,"ELEV_MAX_M":917.0,"PCT_BELOW_5M":0.0,"PCT_BELOW_10M":0.0},"geometry":{"type":"Polygon","coordinates":[[[92.0975,23.9955],[92.1052,23.9383],[92.1395,23.9054],[92.1581,23.8725],[92.1696,23.8125],[92.1689,23.7349],[92.1888,23.7247],[92.1998,23.7032],[92.2115,23.6963],[92.209,23.6541],[92.2208,23.6518],[92.2261,23.6588],[92.2425,23.7181],[92.2549,23.7227],[92.2704,23.7153],[92.2589,23.8134],[92.2863,23.8151],[92.2743,23.8474],[92.2915,23.8698],[92.2946,23.8638],[92.3197,23.8641],[92.3158,23.8815],[92.3307,23.91],[92.3302,23.9197],[92.313,23.9328],[92.3108,23.9439],[92.3122,23.9685],[92.3286,23.9879],[92.3138,24.0329],[92.3214,24.0569],[92.3063,24.0648],[92.3134,24.0821],[92.2955,24.0944],[92.2763,24.0913],[92.2743,24.1307],[92.2652,24.1503],[92.2577,24.1496],[92.2523,24.1378],[92.2365,24.1472],[92.2347,24.1375],[92.2146,24.1819],[92.1989,24.1815],[92.1985,24.1658],[92.188,24.151],[92.1611,24.1355],[92.1731,24.111],[92.1651,24.0834],[92.1462,24.055],[92.1514,24.0478],[92.1439,24.0408],[92.1298,24.0456],[92.1201,24.0321],[92.1195,24.0156],[92.1307,24.01],[92.1166,23.9983],[92.0984,23.9976],[92.0975,23.9955]]]}},{"type":"Feature","properties":{"SUBDISTRICT":"Panisagar","STATE":"Tripura","shapeID":"7132399B36864064590678","source":"geoBoundaries gbOpen IND ADM3 (ODbL 1.0); source: Local Government Directory lgdirectory.gov.in via Pathways Data","DISTRICT":"North Tripura","ELEV_MEAN_M":99.2,"ELEV_MIN_M":33.0,"ELEV_MAX_M":579.0,"PCT_BELOW_5M":0.0,"PCT_BELOW_10M":0.0},"geometry":{"type":"Polygon","coordinates":[[[92.1037,24.2656],[92.115,24.2615],[92.1209,24.2411],[92.1408,24.234],[92.1481,24.2217],[92.1508,24.2277],[92.1578,24.2245],[92.1666,24.1977],[92.1778,24.2],[92.1855,24.1904],[92.1968,24.1933],[92.1996,24.181],[92.2122,24.1844],[92.2347,24.1375],[92.2365,24.1472],[92.2523,24.1378],[92.2577,24.1496],[92.2652,24.1503],[92.2743,24.1307],[92.2763,24.0913],[92.2929,24.095],[92.3079,24.0884],[92.3134,24.0821],[92.3067,24.0638],[92.3172,24.0633],[92.327,24.0727],[92.3225,24.0757],[92.3287,24.0803],[92.3321,24.105],[92.328,24.1368],[92.3366,24.1449],[92.3283,24.1643],[92.3292,24.1893],[92.32,24.2007],[92.3244,24.2039],[92.3096,24.213],[92.3136,24.2211],[92.3007,24.2202],[92.2975,24.2254],[92.2965,24.2499],[92.2128,24.2476],[92.243,24.3151],[92.2279,24.3215],[92.2089,24.3155],[92.1981,24.3223],[92.1726,24.3079],[92.165,24.3097],[92.1676,24.3217],[92.1568,24.3229],[92.1469,24.3005],[92.1495,24.2815],[92.1356,24.2853],[92.1037,24.2663],[92.1037,24.2656]]]}},{"type":"Feature","properties":{"SUBDISTRICT":"Bishalgarh","STATE":"Tripura","shapeID":"7132399B6692429286167","source":"geoBoundaries gbOpen IND ADM3 (ODbL 1.0); source: Local Government Directory lgdirectory.gov.in via Pathways Data","DISTRICT":"West Tripura","ELEV_MEAN_M":31.3,"ELEV_MIN_M":8.0,"ELEV_MAX_M":80.0,"PCT_BELOW_5M":0.0,"PCT_BELOW_10M":0.4},"geometry":{"type":"Polygon","coordinates":[[[91.1512,23.7018],[91.1556,23.6904],[91.1644,23.687],[91.1981,23.6849],[91.1971,23.6498],[91.2069,23.6479],[91.2097,23.6251],[91.2207,23.6214],[91.2117,23.6132],[91.2099,23.5977],[91.2189,23.5955],[91.2295,23.5815],[91.2384,23.5879],[91.2525,23.579],[91.2537,23.5711],[91.2719,23.5659],[91.2983,23.5661],[91.3034,23.5806],[91.3513,23.5728],[91.3711,23.5874],[91.347,23.6098],[91.3486,23.6263],[91.3302,23.6301],[91.321,23.6252],[91.3189,23.6358],[91.3291,23.6577],[91.3569,23.6577],[91.3611,23.649],[91.3681,23.6497],[91.3683,23.6557],[91.3807,23.6549],[91.3744,23.6796],[91.3557,23.6724],[91.3435,23.6816],[91.3266,23.6802],[91.3308,23.7011],[91.3109,23.7156],[91.3052,23.711],[91.2886,23.7346],[91.2811,23.733],[91.2687,23.7131],[91.2558,23.7155],[91.2512,23.7238],[91.2428,23.7221],[91.2376,23.7308],[91.2221,23.7222],[91.2133,23.7392],[91.1996,23.748],[91.1765,23.7469],[91.1627,23.742],[91.1513,23.7155],[91.1512,23.7018]]]}},{"type":"Feature","properties":{"SUBDISTRICT":"Jampuijala","STATE":"Tripura","shapeID":"7132399B68741800227458","source":"geoBoundaries gbOpen IND ADM3 (ODbL 1.0); source: Local Government Directory lgdirectory.gov.in via Pathways Data","DISTRICT":"West Tripura","ELEV_MEAN_M":59.2,"ELEV_MIN_M":17.0,"ELEV_MAX_M":242.0,"PCT_BELOW_5M":0.0,"PCT_BELOW_10M":0.0},"geometry":{"type":"Polygon","coordinates":[[[91.308,23.7259],[91.3097,23.7156],[91.3308,23.7011],[91.3266,23.6802],[91.3435,23.6816],[91.3557,23.6724],[91.3735,23.6799],[91.38,23.666],[91.38,23.6534],[91.3683,23.6557],[91.3681,23.6497],[91.3611,23.649],[91.3569,23.6577],[91.3291,23.6577],[91.3216,23.6484],[91.321,23.6252],[91.3302,23.6301],[91.3486,23.6263],[91.347,23.6098],[91.3711,23.5874],[91.3972,23.5779],[91.4298,23.6027],[91.4369,23.6126],[91.4341,23.6176],[91.4568,23.6374],[91.4624,23.6548],[91.4923,23.6746],[91.5064,23.6994],[91.5235,23.6969],[91.5349,23.7055],[91.5363,23.7217],[91.5506,23.7216],[91.5719,23.7389],[91.5747,23.7464],[91.5704,23.7563],[91.5611,23.7596],[91.5607,23.7748],[91.5009,23.7389],[91.4681,23.7327],[91.4349,23.7381],[91.4307,23.7523],[91.4214,23.7557],[91.3816,23.7604],[91.3813,23.7369],[91.3728,23.7397],[91.3545,23.7322],[91.3402,23.7467],[91.311,23.7525],[91.3086,23.7272],[91.308,23.7259]]]}},{"type":"Feature","properties":{"SUBDISTRICT":"Sonamura","STATE":"Tripura","shapeID":"7132399B83581978089056","source":"geoBoundaries gbOpen IND ADM3 (ODbL 1.0); source: Local Government Directory lgdirectory.gov.in via Pathways Data","DISTRICT":"West Tripura","ELEV_MEAN_M":36.1,"ELEV_MIN_M":7.0,"ELEV_MAX_M":99.0,"PCT_BELOW_5M":0.0,"PCT_BELOW_10M":0.5},"geometry":{"type":"Polygon","coordinates":[[[91.1509,23.6411],[91.1626,23.5952],[91.1899,23.5648],[91.1965,23.5445],[91.2073,23.5418],[91.1971,23.5195],[91.2143,23.5076],[91.2185,23.4953],[91.2309,23.4954],[91.2326,23.4877],[91.2434,23.4841],[91.2509,23.4357],[91.2648,23.4282],[91.2588,23.4207],[91.2711,23.4009],[91.2742,23.3796],[91.2871,23.3745],[91.2821,23.3656],[91.2898,23.3493],[91.3135,23.3556],[91.3142,23.3495],[91.2902,23.3284],[91.2878,23.3194],[91.3077,23.3023],[91.2977,23.2956],[91.3078,23.2805],[91.3072,23.27],[91.3389,23.2761],[91.3714,23.2984],[91.3912,23.3344],[91.3897,23.3518],[91.4209,23.3716],[91.4194,23.3852],[91.3838,23.4015],[91.3865,23.4276],[91.3765,23.4388],[91.382,23.4661],[91.3905,23.476],[91.382,23.481],[91.3833,23.4972],[91.3747,23.5109],[91.4003,23.522],[91.3944,23.5531],[91.3972,23.5779],[91.3738,23.5885],[91.3574,23.5822],[91.3513,23.5728],[91.3034,23.5806],[91.2952,23.5654],[91.2537,23.5711],[91.2525,23.579],[91.2384,23.5879],[91.23,23.5812],[91.2099,23.5977],[91.2117,23.6132],[91.2207,23.6214],[91.2097,23.6251],[91.2069,23.6479],[91.1816,23.6455],[91.1635,23.667],[91.1576,23.6512],[91.1509,23.6411]]]}},{"type":"Feature","properties":{"SUBDISTRICT":"Belonia","STATE":"Tripura","shapeID":"7132399B90317331301680","source":"geoBoundaries gbOpen IND ADM3 (ODbL 1.0); source: Local Government Directory lgdirectory.gov.in via Pathways Data","DISTRICT":"South Tripura","ELEV_MEAN_M":41.1,"ELEV_MIN_M":7.0,"ELEV_MAX_M":133.0,"PCT_BELOW_5M":0.0,"PCT_BELOW_10M":1.2},"geometry":{"type":"Polygon","coordinates":[[[91.3069,23.269],[91.3198,23.2473],[91.3155,23.2394],[91.3263,23.1486],[91.3495,23.0854],[91.3715,23.0644],[91.4003,23.0542],[91.4081,23.0677],[91.3798,23.1752],[91.3842,23.2182],[91.3967,23.2472],[91.3917,23.2581],[91.4137,23.2594],[91.4277,23.259],[91.4612,23.2315],[91.4532,23.2173],[91.4688,23.2181],[91.4804,23.2044],[91.4699,23.192],[91.4973,23.1869],[91.489,23.1739],[91.4951,23.1676],[91.4919,23.1595],[91.5011,23.151],[91.5009,23.1418],[91.5088,23.1411],[91.5048,23.1254],[91.5287,23.0884],[91.5224,23.0508],[91.5343,23.043],[91.5393,23.0515],[91.568,23.0535],[91.5736,23.065],[91.5903,23.0692],[91.5868,23.0924],[91.5938,23.1056],[91.5823,23.1164],[91.5811,23.1481],[91.5907,23.1602],[91.5636,23.2091],[91.5436,23.2651],[91.5335,23.2642],[91.5231,23.2864],[91.5049,23.2929],[91.5149,23.3133],[91.5123,23.3221],[91.5063,23.3279],[91.4969,23.3249],[91.4745,23.3426],[91.4812,23.3442],[91.4845,23.3596],[91.4656,23.3816],[91.4594,23.3803],[91.456,23.367],[91.4466,23.3675],[91.439,23.377],[91.3897,23.3518],[91.3912,23.3344],[91.3714,23.2984],[91.3389,23.2761],[91.3072,23.27],[91.3069,23.269]]]}},{"type":"Feature","properties":{"SUBDISTRICT":"Sabroom","STATE":"Tripura","shapeID":"7132399B75886252109714","source":"geoBoundaries gbOpen IND ADM3 (ODbL 1.0); source: Local Government Directory lgdirectory.gov.in via Pathways Data","DISTRICT":"South Tripura","ELEV_MEAN_M":48.0,"ELEV_MIN_M":5.0,"ELEV_MAX_M":140.0,"PCT_BELOW_5M":0.0,"PCT_BELOW_10M":0.4},"geometry":{"type":"Polygon","coordinates":[[[91.5343,23.043],[91.5416,23.0358],[91.5383,23.0221],[91.5446,22.9926],[91.552,22.9919],[91.557,22.9768],[91.5753,22.9632],[91.5822,22.9699],[91.6045,22.9675],[91.6125,22.958],[91.5995,22.9526],[91.6138,22.9468],[91.614,22.9296],[91.6204,22.9291],[91.6244,22.9546],[91.6424,22.9752],[91.6587,22.9713],[91.7177,22.9855],[91.7581,23.0236],[91.7792,23.0298],[91.7756,23.0642],[91.7864,23.0686],[91.8027,23.0618],[91.8207,23.0809],[91.7988,23.0908],[91.7805,23.1246],[91.7761,23.1156],[91.7622,23.1355],[91.7553,23.1296],[91.7338,23.1335],[91.7266,23.144],[91.7209,23.1791],[91.6701,23.1621],[91.6572,23.1665],[91.5814,23.1492],[91.5823,23.1164],[91.5938,23.1056],[91.5868,23.0924],[91.5893,23.0659],[91.575,23.0658],[91.5691,23.0539],[91.5393,23.0515],[91.5353,23.0447],[91.5343,23.043]]]}},{"type":"Feature","properties":{"SUBDISTRICT":"Santirbazar","STATE":"Tripura","shapeID":"7132399B8324207708023","source":"geoBoundaries gbOpen IND ADM3 (ODbL 1.0); source: Local Government Directory lgdirectory.gov.in via Pathways Data","DISTRICT":"South Tripura","ELEV_MEAN_M":62.6,"ELEV_MIN_M":19.0,"ELEV_MAX_M":189.0,"PCT_BELOW_5M":0.0,"PCT_BELOW_10M":0.0},"geometry":{"type":"Polygon","coordinates":[[[91.4656,23.3816],[91.4845,23.3596],[91.4812,23.3442],[91.4745,23.3434],[91.4788,23.3357],[91.5123,23.3221],[91.5149,23.3133],[91.5038,23.2987],[91.5058,23.2913],[91.5231,23.2864],[91.5335,23.2642],[91.5429,23.2659],[91.5545,23.2458],[91.5632,23.2102],[91.5901,23.1533],[91.6572,23.1665],[91.6701,23.1621],[91.7279,23.1845],[91.7562,23.1795],[91.7465,23.2045],[91.748,23.2225],[91.7389,23.2307],[91.7412,23.2546],[91.7226,23.2823],[91.7362,23.3098],[91.6994,23.3363],[91.7,23.3468],[91.6879,23.3612],[91.653,23.3525],[91.6407,23.371],[91.6329,23.4129],[91.6249,23.4128],[91.6253,23.3974],[91.5912,23.3925],[91.5822,23.3961],[91.5715,23.4138],[91.5505,23.406],[91.5285,23.4107],[91.5159,23.3984],[91.4694,23.3956],[91.474,23.3865],[91.4658,23.3818],[91.4656,23.3816]]]}},{"type":"Feature","properties":{"SUBDISTRICT":"Kailashahar","STATE":"Tripura","shapeID":"7132399B87995848747430","source":"geoBoundaries gbOpen IND ADM3 (ODbL 1.0); source: Local Government Directory lgdirectory.gov.in via Pathways Data","DISTRICT":"North Tripura","ELEV_MEAN_M":57.8,"ELEV_MIN_M":21.0,"ELEV_MAX_M":229.0,"PCT_BELOW_5M":0.0,"PCT_BELOW_10M":0.0},"geometry":{"type":"Polygon","coordinates":[[[91.9201,24.3177],[91.9333,24.2794],[91.9238,24.2253],[91.9447,24.2204],[91.9479,24.2063],[91.9687,24.2127],[91.9854,24.2029],[92.0021,24.21],[92.0052,24.2231],[92.0186,24.2338],[92.0489,24.2239],[92.0755,24.2264],[92.0716,24.2379],[92.0799,24.2659],[92.0788,24.3015],[92.0692,24.3124],[92.0732,24.3759],[92.0105,24.3832],[91.9879,24.3758],[91.9706,24.3775],[91.9653,24.3705],[91.9903,24.3426],[91.9936,24.3195],[91.9779,24.3277],[91.9663,24.3494],[91.9587,24.3522],[91.9203,24.3264],[91.9201,24.3177]]]}},{"type":"Feature","properties":{"SUBDISTRICT":"Kumarghat","STATE":"Tripura","shapeID":"7132399B75287225461928","source":"geoBoundaries gbOpen IND ADM3 (ODbL 1.0); source: Local Government Directory lgdirectory.gov.in via Pathways Data","DISTRICT":"North Tripura","ELEV_MEAN_M":80.5,"ELEV_MIN_M":27.0,"ELEV_MAX_M":263.0,"PCT_BELOW_5M":0.0,"PCT_BELOW_10M":0.0},"geometry":{"type":"Polygon","coordinates":[[[91.9061,24.1452],[91.9189,24.1202],[91.925,24.1208],[91.9364,24.1074],[91.9498,24.1088],[91.9592,24.1027],[91.9747,24.0819],[92.0055,24.0953],[92.0123,24.1081],[92.0854,24.1208],[92.0814,24.0264],[92.0975,23.9955],[92.1022,24.0011],[92.1261,24.003],[92.1307,24.01],[92.1195,24.0156],[92.1201,24.0321],[92.1298,24.0456],[92.1439,24.0408],[92.1514,24.0478],[92.1462,24.055],[92.1651,24.0834],[92.1731,24.111],[92.1611,24.1355],[92.1818,24.1459],[92.197,24.1626],[92.1979,24.1927],[92.1855,24.1904],[92.1778,24.2],[92.1661,24.1981],[92.1588,24.2232],[92.1508,24.2277],[92.1481,24.2217],[92.1408,24.234],[92.1209,24.2411],[92.1088,24.267],[92.1009,24.2635],[92.08,24.2691],[92.0716,24.2379],[92.0761,24.2267],[92.0489,24.2239],[92.041,24.2302],[92.0135,24.2329],[92.0021,24.21],[91.9854,24.2029],[91.9687,24.2127],[91.9479,24.2063],[91.9447,24.2204],[91.9238,24.2253],[91.9101,24.1551],[91.9061,24.1452]]]}},{"type":"Feature","properties":{"SUBDISTRICT":"Jirania","STATE":"Tripura","shapeID":"7132399B1773394303274","source":"geoBoundaries gbOpen IND ADM3 (ODbL 1.0); source: Local Government Directory lgdirectory.gov.in via Pathways Data","DISTRICT":"West Tripura","ELEV_MEAN_M":64.2,"ELEV_MIN_M":12.0,"ELEV_MAX_M":254.0,"PCT_BELOW_5M":0.0,"PCT_BELOW_10M":0.0},"geometry":{"type":"Polygon","coordinates":[[[91.3027,23.8297],[91.3153,23.8301],[91.3303,23.8067],[91.3386,23.8043],[91.337,23.7729],[91.3506,23.7774],[91.3661,23.7663],[91.3759,23.7721],[91.3843,23.7655],[91.3816,23.7604],[91.3948,23.7553],[91.4299,23.7528],[91.4338,23.7392],[91.4477,23.7337],[91.5009,23.7389],[91.5607,23.7748],[91.552,23.8165],[91.5568,23.8516],[91.5484,23.8649],[91.5534,23.8785],[91.5506,23.8944],[91.5438,23.8912],[91.5322,23.8966],[91.5417,23.9206],[91.5319,23.9198],[91.5231,23.9298],[91.4918,23.9027],[91.4766,23.9135],[91.4483,23.921],[91.4241,23.9185],[91.4163,23.8974],[91.3814,23.8933],[91.3601,23.8695],[91.3305,23.8858],[91.312,23.8668],[91.3131,23.8547],[91.3229,23.848],[91.3052,23.841],[91.3028,23.8318],[91.3027,23.8297]]]}},{"type":"Feature","properties":{"SUBDISTRICT":"Mohanpur","STATE":"Tripura","shapeID":"7132399B79393895151869","source":"geoBoundaries gbOpen IND ADM3 (ODbL 1.0); source: Local Government Directory lgdirectory.gov.in via Pathways Data","DISTRICT":"West Tripura","ELEV_MEAN_M":49.0,"ELEV_MIN_M":6.0,"ELEV_MAX_M":149.0,"PCT_BELOW_5M":0.0,"PCT_BELOW_10M":0.7},"geometry":{"type":"Polygon","coordinates":[[[91.2271,23.8808],[91.2451,23.8453],[91.2455,23.821],[91.2584,23.8217],[91.2552,23.8025],[91.2756,23.8152],[91.2917,23.8169],[91.3045,23.8403],[91.3229,23.848],[91.3131,23.8547],[91.312,23.8668],[91.3305,23.8858],[91.3601,23.8695],[91.3814,23.8933],[91.4163,23.8974],[91.4241,23.9185],[91.4483,23.921],[91.4766,23.9135],[91.4918,23.9027],[91.5231,23.9298],[91.517,23.9482],[91.5228,23.9551],[91.4984,23.9951],[91.5045,24.0021],[91.4953,24.0169],[91.494,24.0405],[91.4751,24.0601],[91.4886,24.0927],[91.4508,24.0947],[91.3967,24.1096],[91.3766,24.0956],[91.3957,24.0443],[91.3683,24.0061],[91.3702,23.9776],[91.3025,23.9877],[91.2893,23.9714],[91.2619,23.9587],[91.2666,23.9254],[91.2418,23.9194],[91.2408,23.9043],[91.2294,23.8927],[91.2271,23.8808]]]}},{"type":"Feature","properties":{"SUBDISTRICT":"Sadar","STATE":"Tripura","shapeID":"7132399B6038025106008","source":"geoBoundaries gbOpen IND ADM3 (ODbL 1.0); source: Local Government Directory lgdirectory.gov.in via Pathways Data","DISTRICT":"West Tripura","ELEV_MEAN_M":30.0,"ELEV_MIN_M":5.0,"ELEV_MAX_M":65.0,"PCT_BELOW_5M":0.0,"PCT_BELOW_10M":3.7},"geometry":{"type":"Polygon","coordinates":[[[91.2133,23.7392],[91.2221,23.7222],[91.2376,23.7308],[91.2428,23.7221],[91.2512,23.7238],[91.2558,23.7155],[91.2707,23.7129],[91.2811,23.733],[91.2886,23.7346],[91.3052,23.711],[91.3112,23.7198],[91.311,23.7525],[91.3402,23.7467],[91.3545,23.7322],[91.3728,23.7397],[91.3813,23.7369],[91.3843,23.7655],[91.3755,23.7722],[91.3616,23.7676],[91.3506,23.7774],[91.3366,23.7732],[91.3386,23.8043],[91.332,23.8048],[91.3141,23.8305],[91.3014,23.8295],[91.2917,23.8169],[91.2756,23.8152],[91.2552,23.8025],[91.2584,23.8217],[91.2469,23.82],[91.2438,23.8281],[91.2315,23.8096],[91.2275,23.7641],[91.2193,23.7458],[91.2133,23.7392]]]}},{"type":"Feature","properties":{"SUBDISTRICT":"Udaipur","STATE":"Tripura","shapeID":"7132399B31373604979149","source":"geoBoundaries gbOpen IND ADM3 (ODbL 1.0); source: Local Government Directory lgdirectory.gov.in via Pathways Data","DISTRICT":"South Tripura","ELEV_MEAN_M":57.4,"ELEV_MIN_M":13.0,"ELEV_MAX_M":172.0,"PCT_BELOW_5M":0.0,"PCT_BELOW_10M":0.0},"geometry":{"type":"Polygon","coordinates":[[[91.3747,23.5109],[91.3833,23.4972],[91.382,23.481],[91.3905,23.476],[91.3765,23.4425],[91.3865,23.4276],[91.3838,23.4015],[91.4194,23.3852],[91.4209,23.3716],[91.415,23.3672],[91.4405,23.3772],[91.4466,23.3675],[91.456,23.367],[91.4594,23.3803],[91.474,23.3865],[91.468,23.3947],[91.5159,23.3984],[91.5285,23.4107],[91.5505,23.406],[91.5715,23.4138],[91.5822,23.3961],[91.5912,23.3925],[91.6266,23.3985],[91.6291,23.4057],[91.615,23.4266],[91.6206,23.4411],[91.606,23.4845],[91.6098,23.4927],[91.5987,23.4991],[91.5994,23.514],[91.5886,23.5128],[91.5788,23.53],[91.5786,23.5457],[91.5932,23.5508],[91.5853,23.6336],[91.5722,23.6716],[91.5718,23.6913],[91.5542,23.7248],[91.5335,23.7192],[91.5349,23.7055],[91.5235,23.6969],[91.5064,23.6994],[91.4923,23.6746],[91.4624,23.6548],[91.4568,23.6374],[91.4341,23.6176],[91.4369,23.6126],[91.4298,23.6027],[91.3972,23.5804],[91.3944,23.5531],[91.4003,23.522],[91.3775,23.5146],[91.3747,23.5109]]]}}]}